{"version": 0.6, "generator": "Overpass API 0.7.62.8 e802775f", "osm3s": {"timestamp_osm_base": "2025-12-26T22:59:41Z", "copyright": "The data included in this document is from www.openstreetmap.org. The data is made available under ODbL."}, "elements": [{"type": "node", "id": 29071031, "lat": 52.5312448, "lon": 13.3475136, "tags": {"addr:city": "Berlin", "addr:country": "DE", "addr:housenumber": "33", "addr:postcode": "10559", "addr:street": "Perleberger Stra\u00dfe", "addr:suburb": "Moabit", "amenity": "library", "check_date": "2025-07-10", "check_date:opening_hours": "2025-07-10", "description": "Mo.-Fr. 11.00 - 19.30 Uhr, Sa. 10.00 - 14.00 Uhr", "name": "Bruno-L\u00f6sche-Bibliothek", "opening_hours": "Mo-Fr 10:00-19:30; Sa 10:00-14:00", "phone": "+49 30901833025", "ref:isil": "DE-B707", "toilets:wheelchair": "no", "website": "http://www.berlin.de/stadtbibliothek-mitte/bibliotheken/bruno-loesche-bibliothek/", "wheelchair": "yes", "wheelchair:description": "Hat eine Rampe durch die Aktion www.tausendundeinerampe.de", "wikidata": "Q28681449", "wikimedia_commons": "Category:Bruno-L\u00f6sche-B\u00fccherei", "wikipedia": "de:Bruno-L\u00f6sche-Bibliothek"}}, {"type": "node", "id": 60848456, "lat": 52.5307772, "lon": 13.4708382, "tags": {"addr:city": "Berlin", "addr:country": "DE", "addr:housenumber": "14", "addr:postcode": "10369", "addr:street": "Anton-Saefkow-Platz", "amenity": "library", "check_date:opening_hours": "2025-03-04", "contact:phone": "+4930902963773", "name": "Anton-Saefkow-Bibliothek", "opening_hours": "Sa 09:00-18:00; Mo,Tu 09:00-19:00; We 13:00-19:00; Th,Fr 09:00-18:00", "website": "http://www.berlin.de/ba-lichtenberg/auf-einen-blick/buergerservice/bildung/artikel.298020.php", "wheelchair": "yes", "wikidata": "Q28738330"}}, {"type": "node", "id": 110425748, "lat": 52.5715554, "lon": 13.3154144}, {"type": "node", "id": 110425749, "lat": 52.5714936, "lon": 13.3157751}, {"type": "node", "id": 110425753, "lat": 52.5712616, "lon": 13.3156912}, {"type": "node", "id": 110425754, "lat": 52.5713112, "lon": 13.3153261}, {"type": "node", "id": 129618715, "lat": 52.5066082, "lon": 13.3707714}, {"type": "node", "id": 129618736, "lat": 52.5076985, "lon": 13.3712607}, {"type": "node", "id": 129633467, "lat": 52.5066182, "lon": 13.3712163}, {"type": "node", "id": 129633478, "lat": 52.5074857, "lon": 13.3716176}, {"type": "node", "id": 129633503, "lat": 52.5078913, "lon": 13.3708608}, {"type": "node", "id": 162435059, "lat": 52.4965287, "lon": 13.3917851}, {"type": "node", "id": 162435061, "lat": 52.4966057, "lon": 13.3916484}, {"type": "node", "id": 162435068, "lat": 52.4966687, "lon": 13.3924579}, {"type": "node", "id": 162435074, "lat": 52.4967415, "lon": 13.3924348}, {"type": "node", "id": 162435080, "lat": 52.4968381, "lon": 13.3930885}, {"type": "node", "id": 162435085, "lat": 52.4964832, "lon": 13.3933725}, {"type": "node", "id": 162435096, "lat": 52.4963942, "lon": 13.3925033}, {"type": "node", "id": 162435102, "lat": 52.4963459, "lon": 13.391802}, {"type": "node", "id": 179667262, "lat": 52.5064645, "lon": 13.369763}, {"type": "node", "id": 179667263, "lat": 52.5064012, "lon": 13.3706808}, {"type": "node", "id": 179667271, "lat": 52.506893, "lon": 13.3701177}, {"type": "node", "id": 179667280, "lat": 52.5070283, "lon": 13.3693135}, {"type": "node", "id": 179667291, "lat": 52.5072143, "lon": 13.3697387}, {"type": "node", "id": 179667295, "lat": 52.5072422, "lon": 13.369561}, {"type": "node", "id": 179667300, "lat": 52.5072547, "lon": 13.3695465}, {"type": "node", "id": 179667306, "lat": 52.5072321, "lon": 13.3693903}, {"type": "node", "id": 203557001, "lat": 52.5281578, "lon": 13.538715, "tags": {"addr:city": "Berlin", "addr:country": "DE", "addr:housenumber": "4", "addr:postcode": "12681", "addr:street": "Helene-Weigel-Platz", "addr:suburb": "Marzahn", "amenity": "library", "name": "Stadtteilbibliothek Erich Weinert", "opening_hours": "Mo,Tu,Th 14:00-18:00; We,Fr 09:00-13:00; Su,PH off; 2024 May 10,2024 Jun 12,2024 Oct 04,2024 Nov 08,2024 Dec 23,2024 Dec 27,2024 Dec 30 off", "phone": "+49 30 5429251", "website": "https://www.berlin.de/bibliotheken-mh/bibliotheken/stadtteilbibliothek-erich-weinert/", "wheelchair": "limited", "wheelchair:description": "Zugang ohne Stufen", "wikidata": "Q110626815"}}, {"type": "node", "id": 241508200, "lat": 52.5918845, "lon": 13.2799443}, {"type": "node", "id": 241508201, "lat": 52.5921643, "lon": 13.2811521}, {"type": "node", "id": 241508202, "lat": 52.5919888, "lon": 13.2812625}, {"type": "node", "id": 241508204, "lat": 52.5917077, "lon": 13.2800527}, {"type": "node", "id": 244523979, "lat": 52.5154511, "lon": 13.4043805}, {"type": "node", "id": 249783208, "lat": 52.3940879, "lon": 13.1297579}, {"type": "node", "id": 249783209, "lat": 52.3941603, "lon": 13.1316099}, {"type": "node", "id": 249783210, "lat": 52.3940743, "lon": 13.131619}, {"type": "node", "id": 249783211, "lat": 52.3940822, "lon": 13.1318231}, {"type": "node", "id": 249783213, "lat": 52.3939899, "lon": 13.1318328}, {"type": "node", "id": 249783214, "lat": 52.3939021, "lon": 13.1297774}, {"type": "node", "id": 256922190, "lat": 52.5375039, "lon": 13.2871861, "tags": {"addr:city": "Berlin", "addr:country": "DE", "addr:housenumber": "18", "addr:postcode": "13627", "addr:street": "Halemweg", "addr:suburb": "Charlottenburg-Nord", "amenity": "library", "description": "WLAN frei f\u00fcr 30 Minuten", "internet_access": "wlan", "internet_access:fee": "no", "internet_access:operator": "QSC AG", "name": "Stadtteilbibliothek Halemweg", "ref:isil": "none", "wheelchair": "yes", "wikidata": "Q55153230"}}, {"type": "node", "id": 257708789, "lat": 52.5361334, "lon": 13.2013864, "tags": {"addr:city": "Berlin", "addr:country": "DE", "addr:housenumber": "13", "addr:postcode": "13597", "addr:street": "Carl-Schurz-Stra\u00dfe", "addr:suburb": "Spandau", "amenity": "library", "contact:email": "bibliothek@ba-spandau.berlin.de", "contact:phone": "+49 30 90279 5537", "contact:website": "https://www.berlin.de/stadtbibliothek-spandau/bibliotheken/bezirkszentralbibliothek/", "internet_access": "wlan", "name": "Bezirkszentralbibliothek Spandau", "opening_hours": "Mo-Fr 11:00-19:00;\nMo-Fr 10:00-11:00 \"ohne Fachpersonal\";\nSa 10:00-15:00;\nSa 15:00-18:00 \"ohne Fachpersonal\";\nSo 10:00-18:00 \"ohne Fachpersonal\";", "wheelchair": "yes", "wikidata": "Q15848809", "wikipedia": "de:Stadtbibliothek Spandau"}}, {"type": "node", "id": 258496793, "lat": 52.520961, "lon": 13.4013564}, {"type": "node", "id": 258496799, "lat": 52.5210692, "lon": 13.4012588}, {"type": "node", "id": 258496886, "lat": 52.5210425, "lon": 13.4016009}, {"type": "node", "id": 260669678, "lat": 52.5146503, "lon": 13.4565796}, {"type": "node", "id": 260669680, "lat": 52.5145521, "lon": 13.4565559}, {"type": "node", "id": 260669681, "lat": 52.5144529, "lon": 13.4575241}, {"type": "node", "id": 260669683, "lat": 52.5145636, "lon": 13.4574272}, {"type": "node", "id": 260669684, "lat": 52.5146181, "lon": 13.4574423}, {"type": "node", "id": 262879310, "lat": 52.3744293, "lon": 13.6199028, "tags": {"addr:city": "Eichwalde", "addr:country": "DE", "addr:housenumber": "54", "addr:postcode": "15732", "addr:street": "Gr\u00fcnauer Stra\u00dfe", "amenity": "library", "check_date:opening_hours": "2023-11-18", "name": "Gemeindebibliothek Eichwalde", "opening_hours": "Mo 10:00-16:00; Tu 10:00-13:00,14:00-19:00; Th 10:00-13:00,14:00-18:00; Fr 10:00-14:00", "wheelchair": "yes"}}, {"type": "node", "id": 263679066, "lat": 52.54722, "lon": 13.556704, "tags": {"addr:city": "Berlin", "addr:country": "DE", "addr:housenumber": "52-54", "addr:postcode": "12679", "addr:street": "Marzahner Promenade", "addr:suburb": "Marzahn", "amenity": "library", "contact:phone": "+49 30 54704154", "contact:website": "https://www.berlin.de/bibliotheken-mh/bibliotheken/bezirkszentralbibliothek-mark-twain/", "garden:type": "roof_garden", "name": "Bezirkszentralbibliothek Mark Twain", "note": "Weltacker-Club-Mitglied", "opening_hours": "Mo,Tu,Th,Fr 10:00-19:30; We 14:00-19:30; Sa 10:00-14:00", "ref:isil": "DE-B2228", "website": "https://www.berlin.de/bibliotheken-mh/", "wheelchair": "yes", "wheelchair:description": "Die obere Etage der Bibliothek ist \u00fcber Umwege durch das Treppenhaus erreichbar.", "wikidata": "Q28681443", "wikimedia_commons": "Category:Bezirkszentralbibliothek Mark Twain"}}, {"type": "node", "id": 264776935, "lat": 52.5068092, "lon": 13.369701, "tags": {"addr:housenumber": "37", "addr:postcode": "10785", "addr:street": "Potsdamer Stra\u00dfe", "amenity": "library", "check_date:opening_hours": "2022-10-03", "internet_access": "wlan", "name": "Ibero-Amerikanisches Institut", "opening_hours": "Mo-Sa 08:00-22:00", "operator": "Stiftung Preu\u00dfischer Kulturbesitz", "ref:isil": "DE-204", "toilets:wheelchair": "no", "website": "https://www.iai.spk-berlin.de/", "wheelchair": "limited", "wheelchair:description:de": "Veranstaltungsraum S\u00edmon Bol\u00edvar-Saal nicht zug\u00e4nglich per Fahrstuhl, Anmeldung erforderlich, keine behindertengerechte Toilette", "wikidata": "Q28737641"}}, {"type": "node", "id": 266540876, "lat": 52.5316059, "lon": 13.3986959, "tags": {"addr:city": "Berlin", "addr:country": "DE", "addr:housenumber": "181", "addr:postcode": "10119", "addr:street": "Brunnenstra\u00dfe", "addr:suburb": "Mitte", "amenity": "library", "email": "service@stb-mitte.de", "internet_access": "wlan", "internet_access:fee": "no", "name": "Bezirkszentralbibliothek Philipp Schaeffer", "opening_hours": "Mo-Fr 10:00-19:30; Sa 10:00-14:00", "phone": "+49 30 90182 4444;+49 30 90182 4422;+49 30 90182 4431", "ref:isil": "DE-B456", "short_name": "Philipp-Schaeffer-Bibliothek", "toilets:wheelchair": "yes", "website": "http://www.berlin.de/stadtbibliothek-mitte/bibliotheken/bezirkszentralbibliothek-philipp-schaeffer/", "wheelchair": "yes", "wheelchair:description": "Has raised platform and lower floor with steps in children's section on basement. In other words, it has been made less accessible by design.", "wikidata": "Q28657184", "wikimedia_commons": "Category:Philipp-Schaeffer-Bibliothek", "wikipedia": "de:Bezirkszentralbibliothek Philipp Schaeffer"}}, {"type": "node", "id": 266629485, "lat": 52.5055546, "lon": 13.6127893, "tags": {"addr:city": "Berlin", "addr:country": "DE", "addr:housenumber": "24-26", "addr:postcode": "12623", "addr:street": "Alt-Mahlsdorf", "addr:suburb": "Mahlsdorf", "amenity": "library", "email": "bibl.service@ba-mh.berlin.de", "internet_access": "wlan", "name": "Stadtteilbibliothek Mahlsdorf", "opening_hours": "Mo 13:00-17:00, Tu,Th 13:00-19:00, We,Fr 10:00-14:00; PH off; 2024 May 10,2024 Jun 12,2024 Oct 04,2024 Nov 08,2024 Dec 23,2024 Dec 27,2024 Dec 30 off", "phone": "+49 30 5676866", "website": "https://www.berlin.de/bibliotheken-mh/bibliotheken/stadtteilbibliothek-mahlsdorf/", "wheelchair": "yes", "wikidata": "Q125306890"}}, {"type": "node", "id": 268736832, "lat": 52.5659917, "lon": 13.3601317}, {"type": "node", "id": 268736834, "lat": 52.5658942, "lon": 13.3601742}, {"type": "node", "id": 268736835, "lat": 52.5656625, "lon": 13.3591456}, {"type": "node", "id": 268736837, "lat": 52.565891, "lon": 13.3595238}, {"type": "node", "id": 270486741, "lat": 52.4265378, "lon": 13.3569691}, {"type": "node", "id": 270486742, "lat": 52.4266425, "lon": 13.3575514}, {"type": "node", "id": 270486745, "lat": 52.4263307, "lon": 13.3570692}, {"type": "node", "id": 271685475, "lat": 52.4518573, "lon": 13.2883334, "tags": {"addr:city": "Berlin", "addr:country": "DE", "addr:housenumber": "45", "addr:postcode": "14195", "addr:street": "Habelschwerdter Allee", "addr:suburb": "Dahlem", "amenity": "library", "internet_access": "yes", "name": "Philologische Bibliothek", "name:en": "Philological Library", "opening_hours": "Mo-Fr 09:00-22:00; Sa-Su 10:00-20:00", "operator": "Freie Universit\u00e4t Berlin", "operator:type": "university", "operator:wikidata": "Q2496344", "ref": "DE-188-920", "ref:isil": "DE-188-920", "toilets:wheelchair": "yes", "website": "https://www.fu-berlin.de/sites/philbib/index.html", "wheelchair": "yes", "wikidata": "Q875031", "wikipedia": "de:Philologische Bibliothek der Freien Universit\u00e4t Berlin"}}, {"type": "node", "id": 271875991, "lat": 52.4535775, "lon": 13.2902597, "tags": {"addr:city": "Berlin", "addr:country": "DE", "addr:housenumber": "23/25", "addr:postcode": "14195", "addr:street": "Fabeckstra\u00dfe", "addr:suburb": "Dahlem", "air_conditioning": "yes", "amenity": "library", "check_date:opening_hours": "2025-08-17", "email": "auskunft@campusbib.fu-berlin.de", "internet_access": "wlan", "name": "Campusbibliothek Natur-, Kultur- und Bildungswissenschaften, Mathematik, Informatik und Psychologie", "opening_hours": "Mo-Fr 09:00-22:00; Sa-Su 10:00-20:00; PH off", "operator": "Freie Universit\u00e4t Berlin", "operator:type": "university", "operator:wikidata": "Q2496344", "phone": "+493083856384", "ref:isil": "DE-188-930", "toilets:wheelchair": "yes", "website": "https://www.fu-berlin.de/sites/campusbib/", "wheelchair": "limited"}}, {"type": "node", "id": 272421225, "lat": 52.5683629, "lon": 13.5738932}, {"type": "node", "id": 272421226, "lat": 52.5683876, "lon": 13.5739526}, {"type": "node", "id": 272421227, "lat": 52.5683239, "lon": 13.5741473}, {"type": "node", "id": 272421228, "lat": 52.5681572, "lon": 13.5739997}, {"type": "node", "id": 272421229, "lat": 52.5682784, "lon": 13.5738217}, {"type": "node", "id": 275413240, "lat": 52.4263937, "lon": 13.3574188}, {"type": "node", "id": 275413409, "lat": 52.4262709, "lon": 13.3574778}, {"type": "node", "id": 275413429, "lat": 52.4263057, "lon": 13.3576718}, {"type": "node", "id": 279973215, "lat": 52.5449916, "lon": 13.3546382}, {"type": "node", "id": 281375131, "lat": 52.5477387, "lon": 13.4528367, "tags": {"addr:city": "Berlin", "addr:country": "DE", "addr:housenumber": "41", "addr:postcode": "13088", "addr:street": "Bizetstra\u00dfe", "addr:suburb": "Wei\u00dfensee", "amenity": "library", "check_date:opening_hours": "2025-07-03", "email": "wolfdietrich-schnurre-bibliothek@ba-pankow.berlin.de", "internet_access": "wlan", "internet_access:fee": "no", "name": "Wolfdietrich-Schnurre-Bibliothek", "opening_hours": "Mo 10:00-19:00; Tu 10:00-17:00; We 13:00-19:00; Th 10:00-19:00; Fr 10:00-17:00", "phone": "+49 30 90295 3861", "website": "http://www.berlin.de/ba-pankow/stadtbibliothek/wolfdiehttps://www.berlin.de/stadtbibliothek-pankow/bibliotheken/wolfdietrich-schnurre-bibliothek/trich-schnurre/", "wheelchair": "limited", "wikidata": "Q28681459"}}, {"type": "node", "id": 290183434, "lat": 52.5077817, "lon": 13.3711717}, {"type": "node", "id": 290183435, "lat": 52.5078208, "lon": 13.3712057}, {"type": "node", "id": 290183436, "lat": 52.5077904, "lon": 13.3713012}, {"type": "node", "id": 290183437, "lat": 52.5077882, "lon": 13.371153}, {"type": "node", "id": 290183438, "lat": 52.5076954, "lon": 13.3710661}, {"type": "node", "id": 290183439, "lat": 52.5076651, "lon": 13.3711587}, {"type": "node", "id": 290183440, "lat": 52.5078571, "lon": 13.37096}, {"type": "node", "id": 290183443, "lat": 52.5082889, "lon": 13.3715341}, {"type": "node", "id": 290183444, "lat": 52.507515, "lon": 13.3715409}, {"type": "node", "id": 290183446, "lat": 52.5084239, "lon": 13.371534}, {"type": "node", "id": 290183450, "lat": 52.5083475, "lon": 13.3715341}, {"type": "node", "id": 290183453, "lat": 52.5086098, "lon": 13.3715479}, {"type": "node", "id": 290183454, "lat": 52.5085418, "lon": 13.3715931}, {"type": "node", "id": 290183457, "lat": 52.5086363, "lon": 13.3715314}, {"type": "node", "id": 290183458, "lat": 52.5085838, "lon": 13.3713216}, {"type": "node", "id": 290183459, "lat": 52.5085829, "lon": 13.3712558}, {"type": "node", "id": 290183460, "lat": 52.5082243, "lon": 13.3713065}, {"type": "node", "id": 290183461, "lat": 52.5085272, "lon": 13.3715339}, {"type": "node", "id": 290183462, "lat": 52.506532, "lon": 13.3707338}, {"type": "node", "id": 290183464, "lat": 52.5063762, "lon": 13.369749}, {"type": "node", "id": 290183465, "lat": 52.5063934, "lon": 13.3694563}, {"type": "node", "id": 290183466, "lat": 52.5068929, "lon": 13.3695334}, {"type": "node", "id": 290183467, "lat": 52.5066109, "lon": 13.3702665}, {"type": "node", "id": 290183469, "lat": 52.506438, "lon": 13.3702407}, {"type": "node", "id": 290183484, "lat": 52.5076375, "lon": 13.3702733}, {"type": "node", "id": 290183485, "lat": 52.5076266, "lon": 13.3704616}, {"type": "node", "id": 290183486, "lat": 52.5077671, "lon": 13.3706639}, {"type": "node", "id": 290183487, "lat": 52.507782, "lon": 13.3706378}, {"type": "node", "id": 290183488, "lat": 52.5078904, "lon": 13.3707958}, {"type": "node", "id": 290183497, "lat": 52.5072131, "lon": 13.3700268}, {"type": "node", "id": 293137702, "lat": 52.616548, "lon": 13.4917041, "tags": {"amenity": "library", "name": "Stadtteilbibliothek Karow", "wheelchair": "yes", "wikidata": "Q125306821"}}, {"type": "node", "id": 293671842, "lat": 52.5417888, "lon": 13.3397591}, {"type": "node", "id": 293671843, "lat": 52.5417686, "lon": 13.3394775}, {"type": "node", "id": 293671844, "lat": 52.5415416, "lon": 13.3395214}, {"type": "node", "id": 293671845, "lat": 52.5415654, "lon": 13.3398543}, {"type": "node", "id": 293671846, "lat": 52.5415226, "lon": 13.3398626}, {"type": "node", "id": 293671847, "lat": 52.5415521, "lon": 13.3402754}, {"type": "node", "id": 293671848, "lat": 52.5415984, "lon": 13.3402664}, {"type": "node", "id": 293671849, "lat": 52.5416068, "lon": 13.3403837}, {"type": "node", "id": 293671850, "lat": 52.5416738, "lon": 13.3403707}, {"type": "node", "id": 293671851, "lat": 52.5417655, "lon": 13.3403515}, {"type": "node", "id": 293671852, "lat": 52.5418306, "lon": 13.3403389}, {"type": "node", "id": 293671853, "lat": 52.5418219, "lon": 13.340217}, {"type": "node", "id": 293671854, "lat": 52.5418687, "lon": 13.340208}, {"type": "node", "id": 293671855, "lat": 52.5418394, "lon": 13.3397977}, {"type": "node", "id": 298063780, "lat": 52.4036309, "lon": 13.2589194, "tags": {"addr:city": "Teltow", "addr:country": "DE", "addr:housenumber": "2a", "addr:postcode": "14513", "addr:street": "Jahnstra\u00dfe", "amenity": "library", "internet_access": "terminal", "name": "Bibliothek", "opening_hours": "Mo 10:00-16:00; Tu 13:00-19:00; Th 13:00-19:00; Fr 10:00-16:00", "wheelchair": "yes"}}, {"type": "node", "id": 308811018, "lat": 52.5492616, "lon": 13.414088, "tags": {"access": "yes", "addr:city": "Berlin", "addr:country": "DE", "addr:housenumber": "75", "addr:postcode": "10439", "addr:street": "Sch\u00f6nhauser Allee", "addr:suburb": "Prenzlauer Berg", "amenity": "library", "changing_table": "yes", "check_date": "2025-08-15", "check_date:opening_hours": "2025-08-15", "email": "mailto:bettina-von-arnim.bibliothek@ba-pankow.berlin.de", "internet_access": "wlan", "kids_area:indoor": "yes", "level": "3", "name": "Bettina von Arnim Bibliothek", "opening_hours": "Mo-We,Fr 13:00-19:00; Th 10:00-17:00", "operator:type": "public", "phone": "+4930902956933", "source": "survey", "toilets": "yes", "toilets:access": "yes", "toilets:wheelchair": "yes", "website": "https://www.berlin.de/stadtbibliothek-pankow/bibliotheken/bettina-von-arnim-bibliothek/", "wheelchair": "yes", "wikidata": "Q125298945"}}, {"type": "node", "id": 313020934, "lat": 52.5108305, "lon": 13.3313674}, {"type": "node", "id": 313200357, "lat": 52.5713607, "lon": 13.3155316}, {"type": "node", "id": 313200358, "lat": 52.5713714, "lon": 13.3154518}, {"type": "node", "id": 313200359, "lat": 52.571298, "lon": 13.3154253}, {"type": "node", "id": 313200360, "lat": 52.5712865, "lon": 13.3155048}, {"type": "node", "id": 313529405, "lat": 52.5430291, "lon": 13.2392214}, {"type": "node", "id": 313529406, "lat": 52.5429917, "lon": 13.2390863}, {"type": "node", "id": 323991172, "lat": 52.5134373, "lon": 13.4813674, "tags": {"addr:city": "Berlin", "addr:housenumber": "149", "addr:street": "Frankfurter Allee", "amenity": "library", "check_date": "2024-06-16", "internet_access": "wlan", "internet_access:fee": "no", "level": "2", "name": "Egon-Erwin-Kisch-Bibliothek", "opening_hours": "We 13:00-18:00; Sa 09:00-18:00; Su-Tu, Th-Fr 10:00-18:00", "phone": "+49305556719", "website": "https://www.berlin.de/stadtbibliothek-lichtenberg/standorte/egon-erwin-kisch-bibliothek/", "wheelchair": "limited", "wikidata": "Q125306828"}}, {"type": "node", "id": 331396200, "lat": 52.4166559, "lon": 13.366628}, {"type": "node", "id": 331396202, "lat": 52.4169004, "lon": 13.3668397}, {"type": "node", "id": 331396204, "lat": 52.4167823, "lon": 13.3667348}, {"type": "node", "id": 331396205, "lat": 52.4168492, "lon": 13.3667977}, {"type": "node", "id": 331396206, "lat": 52.4167141, "lon": 13.3669792}, {"type": "node", "id": 331396207, "lat": 52.4167811, "lon": 13.3670327}, {"type": "node", "id": 331396208, "lat": 52.4168418, "lon": 13.366529}, {"type": "node", "id": 331396211, "lat": 52.4168516, "lon": 13.3664944}, {"type": "node", "id": 333343782, "lat": 52.4819616, "lon": 13.4327729, "tags": {"addr:city": "Berlin", "addr:country": "DE", "addr:housenumber": "66", "addr:postcode": "12043", "addr:street": "Karl-Marx-Stra\u00dfe", "addr:suburb": "Neuk\u00f6lln", "alt_name": "Stadtbibliothek Neuk\u00f6lln, Bezirkszentralbibliothek", "amenity": "library", "check_date": "2023-11-13", "contact:email": "info@stadtbibliothek-neukoelln.de", "contact:fax": "+49 30 902394330", "contact:phone": "+49 30 902394313", "contact:website": "https://berlin.de/stadtbibliothek-neukoelln", "internet_access": "wlan", "level": "4", "name": "Helene-Nathan-Bibliothek", "opening_hours": "Mo-Fr 09:00-18:00; Sa 10:00-13:00", "outdoor_seating": "no", "ref:isil": "DE-B700", "wheelchair": "yes", "wikidata": "Q28681438", "wikimedia_commons": "Category:Stadtbibliothek Neuk\u00f6lln", "wikipedia": "de:Stadtbibliothek Neuk\u00f6lln"}}, {"type": "node", "id": 345130841, "lat": 52.4491408, "lon": 13.2759071}, {"type": "node", "id": 345130844, "lat": 52.4492077, "lon": 13.2760657}, {"type": "node", "id": 345130845, "lat": 52.449218, "lon": 13.2764892}, {"type": "node", "id": 345130846, "lat": 52.4489454, "lon": 13.2759333}, {"type": "node", "id": 345130849, "lat": 52.4490689, "lon": 13.2757869}, {"type": "node", "id": 345130850, "lat": 52.4490257, "lon": 13.2762144}, {"type": "node", "id": 345162417, "lat": 52.4577849, "lon": 13.3196255, "tags": {"addr:city": "Berlin", "addr:country": "DE", "addr:housenumber": "3", "addr:postcode": "12165", "addr:street": "Grunewaldstra\u00dfe", "addr:suburb": "Steglitz", "amenity": "library", "level": "3", "name": "Ingeborg-Drewitz-Bibliothek", "opening_hours": "Mo-Fr 11:00-19:00; Sa 11:00-16:00; PH off", "ref:isil": "DE-B702", "toilets:wheelchair": "yes", "website": "https://www.berlin.de/stadtbibliothek-steglitz-zehlendorf/", "wheelchair": "yes", "wikidata": "Q28681434"}}, {"type": "node", "id": 356786775, "lat": 52.5050446, "lon": 13.44808}, {"type": "node", "id": 365322133, "lat": 52.3597239, "lon": 13.5929802, "tags": {"amenity": "library", "name": "Gemeindebibliothek", "wheelchair": "yes"}}, {"type": "node", "id": 368026518, "lat": 52.5051716, "lon": 13.447889}, {"type": "node", "id": 368026519, "lat": 52.5051024, "lon": 13.4481256}, {"type": "node", "id": 368026529, "lat": 52.504961, "lon": 13.4477228}, {"type": "node", "id": 386589861, "lat": 52.5053594, "lon": 13.4478243}, {"type": "node", "id": 437077927, "lat": 52.5189093, "lon": 13.3919765}, {"type": "node", "id": 437077934, "lat": 52.5186326, "lon": 13.3920228}, {"type": "node", "id": 437077937, "lat": 52.5186168, "lon": 13.3917661}, {"type": "node", "id": 437077944, "lat": 52.5185759, "lon": 13.3911366}, {"type": "node", "id": 437077947, "lat": 52.5185617, "lon": 13.3908854}, {"type": "node", "id": 437077948, "lat": 52.518837, "lon": 13.3908433}, {"type": "node", "id": 437077950, "lat": 52.5183003, "lon": 13.3920796}, {"type": "node", "id": 437077952, "lat": 52.5182847, "lon": 13.3918203}, {"type": "node", "id": 437077964, "lat": 52.5182415, "lon": 13.3911875}, {"type": "node", "id": 437077967, "lat": 52.5182273, "lon": 13.3909408}, {"type": "node", "id": 437077971, "lat": 52.5184258, "lon": 13.39091}, {"type": "node", "id": 437077975, "lat": 52.51844, "lon": 13.3911567}, {"type": "node", "id": 437077982, "lat": 52.5184807, "lon": 13.3917884}, {"type": "node", "id": 437077985, "lat": 52.5184964, "lon": 13.3920477}, {"type": "node", "id": 437077988, "lat": 52.5181629, "lon": 13.3921052}, {"type": "node", "id": 437077991, "lat": 52.5181395, "lon": 13.3917288}, {"type": "node", "id": 437077994, "lat": 52.5179872, "lon": 13.3917686}, {"type": "node", "id": 437077996, "lat": 52.5180098, "lon": 13.3921309}, {"type": "node", "id": 437077999, "lat": 52.5175056, "lon": 13.3923738}, {"type": "node", "id": 437078001, "lat": 52.5176317, "lon": 13.3920386}, {"type": "node", "id": 437078004, "lat": 52.5178554, "lon": 13.3919998}, {"type": "node", "id": 437078006, "lat": 52.5178018, "lon": 13.3911568}, {"type": "node", "id": 437078009, "lat": 52.5175776, "lon": 13.3911957}, {"type": "node", "id": 437078012, "lat": 52.5175924, "lon": 13.3914252}, {"type": "node", "id": 437078019, "lat": 52.5175987, "lon": 13.3914241}, {"type": "node", "id": 437078021, "lat": 52.5176233, "lon": 13.3918067}, {"type": "node", "id": 437078022, "lat": 52.5176169, "lon": 13.3918078}, {"type": "node", "id": 437078026, "lat": 52.5179378, "lon": 13.3909821}, {"type": "node", "id": 437078029, "lat": 52.5179594, "lon": 13.3913382}, {"type": "node", "id": 437078031, "lat": 52.5181146, "lon": 13.3913478}, {"type": "node", "id": 437078034, "lat": 52.518091, "lon": 13.390957}, {"type": "node", "id": 437078337, "lat": 52.5174558, "lon": 13.3916425, "tags": {"access": "yes", "addr:city": "Berlin", "addr:housenumber": "8", "addr:postcode": "10117", "addr:street": "Unter den Linden", "description": "Haupteingang der Staatsbibliothek zu Berlin - Haus Unter den Linden (Haus 1)", "entrance": "main", "level": "0", "wheelchair": "yes"}}, {"type": "node", "id": 439229151, "lat": 52.4548013, "lon": 13.6214013, "tags": {"addr:city": "Berlin", "addr:country": "DE", "addr:housenumber": "1", "addr:postcode": "12587", "addr:street": "Peter-Hille-Stra\u00dfe", "addr:suburb": "Friedrichshagen", "amenity": "library", "check_date:opening_hours": "2022-10-17", "internet_access": "wlan", "name": "Johannes-Bobrowski-Bibliothek", "opening_hours": "Mo,Tu 12:00-17:00; We,Th 14:00-19:00; PH,Fr-Su off", "website": "http://www.sb-tk.de", "wheelchair": "yes", "wikidata": "Q111144671", "wikimedia_commons": "Category:Johannes-Bobrowski-Bibliothek"}}, {"type": "node", "id": 440635305, "lat": 52.4927838, "lon": 13.5259891}, {"type": "node", "id": 440635306, "lat": 52.4925043, "lon": 13.5261738}, {"type": "node", "id": 440635307, "lat": 52.4926142, "lon": 13.5263347}, {"type": "node", "id": 440635308, "lat": 52.4928253, "lon": 13.5262313}, {"type": "node", "id": 442649828, "lat": 52.4996971, "lon": 13.4185093}, {"type": "node", "id": 442649829, "lat": 52.4999202, "lon": 13.4186655}, {"type": "node", "id": 442649830, "lat": 52.4997425, "lon": 13.4183359}, {"type": "node", "id": 442649831, "lat": 52.4999651, "lon": 13.4184944}, {"type": "node", "id": 444731308, "lat": 52.3879238, "lon": 13.3973796, "tags": {"addr:city": "Berlin", "addr:housenumber": "41", "addr:postcode": "12307", "addr:street": "Steinstra\u00dfe", "addr:suburb": "Lichtenrade", "alt_name": "Edith-Stein-Bibliothek", "amenity": "library", "changing_table": "yes", "contact:email": "stabi-lichtenrade@ba-ts.berlin.de", "contact:phone": "+49 30 902778286", "contact:website": "https://www.berlin.de/stadtbibliothek-tempelhof-schoeneberg/bibliotheken/stadtteilbibliothek-lichtenrade/", "level": "0,1", "name": "Stadtteilbibliothek Lichenrade", "opening_hours": "Mo, We-Fr 11:00-18:00; Tu 12:00-16:00", "toilets": "yes", "toilets:access": "customers", "toilets:wheelchair": "designated", "wheelchair": "yes", "wikidata": "Q125306889"}}, {"type": "node", "id": 444994924, "lat": 52.5171056, "lon": 13.308865, "tags": {"addr:city": "Berlin", "addr:country": "DE", "addr:housenumber": "96", "addr:postcode": "10585", "addr:street": "Otto-Suhr-Allee", "addr:suburb": "Charlottenburg", "amenity": "library", "contact:phone": "+49309029-12217", "contact:website": "http://www.berlin.de/ba-charlottenburg-wilmersdorf/verwaltung/bibliotheken/artikel.203398.php", "description": "WLAN frei f\u00fcr 30 Minuten", "internet_access": "wlan", "internet_access:fee": "no", "internet_access:operator": "QSC AG", "name": "Heinrich-Schulz-Bibliothek", "opening_hours": "Mo-Fr 12:00-19:00; Sa 11:00-16:00; Su 12:00-18:00", "source": "survey", "toilets:wheelchair": "no", "wheelchair": "yes", "wikidata": "Q28681431"}}, {"type": "node", "id": 446039579, "lat": 52.435916, "lon": 13.3508094}, {"type": "node", "id": 446039580, "lat": 52.4360024, "lon": 13.3509328}, {"type": "node", "id": 446039582, "lat": 52.4360841, "lon": 13.3507376}, {"type": "node", "id": 446039584, "lat": 52.4362282, "lon": 13.3504712}, {"type": "node", "id": 446039586, "lat": 52.4361238, "lon": 13.3503193}, {"type": "node", "id": 446039588, "lat": 52.4360242, "lon": 13.3505033}, {"type": "node", "id": 482710823, "lat": 52.4310682, "lon": 13.5314264, "tags": {"addr:city": "Berlin", "addr:country": "DE", "addr:housenumber": "26", "addr:postcode": "12489", "addr:street": "Rudower Chaussee", "addr:suburb": "Adlershof", "amenity": "library", "description": "Zur Nutzung der Garderobenschr\u00e4nke bitte ein Vorh\u00e4ngeschloss mitbringen.", "email": "nawi@ub.hu-berlin.de", "fax": "+49 30 2093-99722", "internet_access": "wlan", "internet_access:fee": "no", "name": "Zweigbibliothek Naturwissenschaften", "opening_hours": "Mo-Fr 09:00-20:00", "operator": "Universit\u00e4tsbibliothek der Humboldt-Universit\u00e4t zu Berlin", "operator:type": "university", "operator:wikidata": "Q1407819", "phone": "+49 30 2093-99725", "ref:isil": "DE-11-87", "room:group_study": "yes", "room:study_cabin": "yes", "service:copy": "yes", "service:scanner": "yes", "source": "Geoportal Berlin / Hauskoordinaten", "website": "https://www.ub.hu-berlin.de/de/standorte/erwin-schroedinger-zentrum-zwbib-nawi", "wheelchair": "yes"}}, {"type": "node", "id": 486517226, "lat": 52.4554005, "lon": 13.5247238, "tags": {"amenity": "library", "contact:website": "https://bibliothek.htw-berlin.de/ueber-uns/bibliothek-campus-wilhelminenhof/", "level": "1", "name": "Bibliothek Campus Wilhelminenhof", "opening_hours": "Mo-Fr 10:00-21:00; Sa 12:00-18:00", "wheelchair": "yes"}}, {"type": "node", "id": 503973783, "lat": 52.4540633, "lon": 13.5144773}, {"type": "node", "id": 503973787, "lat": 52.4540262, "lon": 13.5142003}, {"type": "node", "id": 507660382, "lat": 52.5280812, "lon": 13.5120545, "tags": {"addr:housename": "29", "addr:place": "Evangelisches Krankenhaus K\u00f6nigin Elisabeth Herzberge", "amenity": "library", "name": "KEH Bibliothek", "wheelchair": "limited"}}, {"type": "node", "id": 529557633, "lat": 52.4713483, "lon": 13.313449, "tags": {"amenity": "library", "description": "WLAN frei f\u00fcr 30 Minuten", "internet_access": "wlan", "internet_access:fee": "no", "internet_access:operator": "QSC AG", "layer": "1", "name": "Eberhard-Alexander-Burgh-Bibliothek", "name:etymology:wikidata": "Q1278826", "opening_hours": "Mo,Th 12:00-16:00; Tu,Fr 14:00-18:00; SH Mo, Th 12:00-16:00; PH off", "toilets:wheelchair": "yes", "wheelchair": "yes"}}, {"type": "node", "id": 538834822, "lat": 52.5210727, "lon": 13.4012557}, {"type": "node", "id": 538834823, "lat": 52.5211543, "lon": 13.4015002}, {"type": "node", "id": 538835339, "lat": 52.5210193, "lon": 13.4015314, "tags": {"addr:city": "Berlin", "addr:country": "DE", "addr:housenumber": "1", "addr:postcode": "10178", "addr:street": "Anna-Louisa-Karsch-Stra\u00dfe", "addr:suburb": "Mitte"}}, {"type": "node", "id": 539186003, "lat": 52.5287608, "lon": 13.3823687, "tags": {"highway": "street_lamp", "lamp_mount": "wall"}}, {"type": "node", "id": 539186004, "lat": 52.5287023, "lon": 13.3821716}, {"type": "node", "id": 539186005, "lat": 52.5288262, "lon": 13.3820721}, {"type": "node", "id": 539186006, "lat": 52.5285786, "lon": 13.3812356}, {"type": "node", "id": 539186007, "lat": 52.5284086, "lon": 13.3813721}, {"type": "node", "id": 539186010, "lat": 52.5282938, "lon": 13.3809856}, {"type": "node", "id": 539186011, "lat": 52.528458, "lon": 13.3808538}, {"type": "node", "id": 539186012, "lat": 52.528539, "lon": 13.3811266}, {"type": "node", "id": 539186013, "lat": 52.5287236, "lon": 13.3809784}, {"type": "node", "id": 539186014, "lat": 52.5287032, "lon": 13.3809096}, {"type": "node", "id": 539186015, "lat": 52.5287397, "lon": 13.3808803}, {"type": "node", "id": 539186016, "lat": 52.5287228, "lon": 13.3808238}, {"type": "node", "id": 539186017, "lat": 52.5286968, "lon": 13.3811625}, {"type": "node", "id": 539186018, "lat": 52.5289389, "lon": 13.3819822}, {"type": "node", "id": 539186019, "lat": 52.5290605, "lon": 13.3818846}, {"type": "node", "id": 539186020, "lat": 52.5291194, "lon": 13.3820831}, {"type": "node", "id": 539186021, "lat": 52.5290595, "lon": 13.3821312}, {"type": "node", "id": 539186022, "lat": 52.5290366, "lon": 13.3820543}, {"type": "node", "id": 539186023, "lat": 52.5287979, "lon": 13.3822459}, {"type": "node", "id": 539186024, "lat": 52.5288202, "lon": 13.382321}, {"type": "node", "id": 539995431, "lat": 52.5160496, "lon": 13.4044942}, {"type": "node", "id": 539995433, "lat": 52.515729, "lon": 13.4040412}, {"type": "node", "id": 539995434, "lat": 52.5156408, "lon": 13.4038658}, {"type": "node", "id": 539995489, "lat": 52.515374, "lon": 13.4042293}, {"type": "node", "id": 539995490, "lat": 52.5157847, "lon": 13.4039669}, {"type": "node", "id": 539995493, "lat": 52.5157127, "lon": 13.4048882}, {"type": "node", "id": 539995507, "lat": 52.5155066, "lon": 13.4040483, "tags": {"addr:city": "Berlin", "addr:country": "DE", "addr:housenumber": "32,33,34", "addr:postcode": "10178", "addr:street": "Breite Stra\u00dfe", "addr:suburb": "Mitte", "entrance": "yes", "wheelchair": "yes"}}, {"type": "node", "id": 539995683, "lat": 52.5156867, "lon": 13.4048345}, {"type": "node", "id": 540808227, "lat": 52.445757, "lon": 13.5788137}, {"type": "node", "id": 540808234, "lat": 52.4459212, "lon": 13.578739}, {"type": "node", "id": 540808267, "lat": 52.4458436, "lon": 13.5793409}, {"type": "node", "id": 540939123, "lat": 52.5207258, "lon": 13.390285}, {"type": "node", "id": 540939126, "lat": 52.5203192, "lon": 13.3903551}, {"type": "node", "id": 540939771, "lat": 52.5204094, "lon": 13.3917672}, {"type": "node", "id": 540939775, "lat": 52.5208161, "lon": 13.391697}, {"type": "node", "id": 540939815, "lat": 52.5204891, "lon": 13.3917534, "tags": {"entrance": "yes"}}, {"type": "node", "id": 560823423, "lat": 52.4851862, "lon": 13.3827588, "tags": {"addr:city": "Berlin", "addr:country": "DE", "addr:housenumber": "18-20", "addr:postcode": "10965", "addr:street": "Dudenstra\u00dfe", "addr:suburb": "Kreuzberg", "amenity": "library", "check_date:opening_hours": "2025-10-12", "description": "WLAN frei f\u00fcr 30 Minuten; Abdeckung: im gesamten Geb\u00e4ude + unmittelbarer Au\u00dfenbereich", "fax": "+49 30 50587615", "internet_access": "wlan", "internet_access:fee": "no", "internet_access:operator": "HOTSPLOTS", "name": "Friedrich-von-Raumer-Bibliothek", "opening_hours": "Mo,Tu 13:00-19:00; We 11:00-17:00; Th 13:00-19:00; Fr 11:00-17:00", "phone": "+49 30 50587613", "website": "https://www.berlin.de/stadtbibliothek-friedrichshain-kreuzberg/bibliotheken/stadtteilbibliothek-friedrich-von-raumer/", "wheelchair": "no", "wikidata": "Q28738331"}}, {"type": "node", "id": 585139605, "lat": 52.4457033, "lon": 13.5793742}, {"type": "node", "id": 586328524, "lat": 52.4571611, "lon": 13.2920178, "tags": {"addr:city": "Berlin", "addr:country": "DE", "addr:housenumber": "7-9", "addr:postcode": "14195", "addr:street": "Lansstra\u00dfe", "addr:suburb": "Dahlem", "amenity": "library", "contact:email": "library@jfki.fu-berlin.de", "contact:fax": "+49 30 838-52860", "contact:phone": "+49 30 838-52862", "contact:website": "http://www.jfki.fu-berlin.de/library", "internet_access": "wlan", "name": "Bibliothek des John-F.-Kennedy-Instituts", "name:en": "Library of the John F. Kennedy Institute", "opening_hours": "Mo-Fr 09:00-20:00", "operator": "Universit\u00e4tsbibliothek der Freien Universit\u00e4t Berlin", "operator:type": "university", "operator:wikidata": "Q2496344", "ref:isil": "DE-188-144", "toilets:wheelchair": "no", "wheelchair": "no"}}, {"type": "node", "id": 597668244, "lat": 52.5720038, "lon": 13.2449671}, {"type": "node", "id": 597668245, "lat": 52.5719448, "lon": 13.2451035}, {"type": "node", "id": 597668246, "lat": 52.5720552, "lon": 13.2452326}, {"type": "node", "id": 597668247, "lat": 52.5718674, "lon": 13.2450489}, {"type": "node", "id": 597668248, "lat": 52.5719367, "lon": 13.2448885}, {"type": "node", "id": 597668249, "lat": 52.5719067, "lon": 13.2452751}, {"type": "node", "id": 597668250, "lat": 52.5718348, "lon": 13.2451675}, {"type": "node", "id": 597668251, "lat": 52.571779, "lon": 13.2452966}, {"type": "node", "id": 597668252, "lat": 52.5717813, "lon": 13.2449482}, {"type": "node", "id": 597668253, "lat": 52.5717363, "lon": 13.2450522}, {"type": "node", "id": 597668302, "lat": 52.5719931, "lon": 13.2453762}, {"type": "node", "id": 597668303, "lat": 52.5718576, "lon": 13.2453886}, {"type": "node", "id": 599527265, "lat": 52.4967313, "lon": 13.3932616}, {"type": "node", "id": 599527266, "lat": 52.4964635, "lon": 13.3930123}, {"type": "node", "id": 599527267, "lat": 52.496426, "lon": 13.3930291}, {"type": "node", "id": 599527269, "lat": 52.4967126, "lon": 13.3931488}, {"type": "node", "id": 609820670, "lat": 52.4794058, "lon": 13.7012118, "tags": {"addr:city": "Sch\u00f6neiche bei Berlin", "addr:country": "DE", "addr:housenumber": "5", "addr:postcode": "15566", "addr:street": "Dorfaue", "amenity": "library", "name": "Gemeindebibliothek", "opening_hours": "Mo,Fr 10:00-15:00; Tu 13:00-18:30; Th 13:00-18:00", "phone": "+49 30 6490110", "website": "http://www.gemeindebibliothek-schoeneiche.de", "wheelchair": "yes"}}, {"type": "node", "id": 613001767, "lat": 52.5460443, "lon": 13.5915317}, {"type": "node", "id": 613001768, "lat": 52.546067, "lon": 13.5914021}, {"type": "node", "id": 613001784, "lat": 52.5465031, "lon": 13.5916981}, {"type": "node", "id": 613001787, "lat": 52.5465526, "lon": 13.5913304}, {"type": "node", "id": 613001788, "lat": 52.5464739, "lon": 13.5913011}, {"type": "node", "id": 613001790, "lat": 52.5463565, "lon": 13.5913283}, {"type": "node", "id": 613001792, "lat": 52.5463343, "lon": 13.5914823}, {"type": "node", "id": 618048288, "lat": 52.6356441, "lon": 13.4938846, "tags": {"amenity": "library", "check_date:opening_hours": "2024-06-19", "internet_access": "wlan", "level": "1", "name": "Stadtteilbibliothek Buch", "opening_hours": "Mo,Th,Fr 13:00-19:00; Tu 10:00-16:00; We 13:00-17:00; Sa 10:00-15:00", "website": "https://www.berlin.de/stadtbibliothek-pankow/bibliotheken/stadtteilbibliothek-buch/", "wheelchair": "yes", "wikidata": "Q125306819"}}, {"type": "node", "id": 621170673, "lat": 52.4367336, "lon": 13.4458146}, {"type": "node", "id": 621170674, "lat": 52.4366337, "lon": 13.4458188}, {"type": "node", "id": 621170679, "lat": 52.4366403, "lon": 13.4462292}, {"type": "node", "id": 621170680, "lat": 52.4367402, "lon": 13.446225}, {"type": "node", "id": 621773824, "lat": 52.4634927, "lon": 13.3881031}, {"type": "node", "id": 621773830, "lat": 52.4637371, "lon": 13.3874793}, {"type": "node", "id": 621773858, "lat": 52.4636654, "lon": 13.3882832}, {"type": "node", "id": 621773861, "lat": 52.4637293, "lon": 13.3882427}, {"type": "node", "id": 621773865, "lat": 52.4638449, "lon": 13.3876888}, {"type": "node", "id": 621773868, "lat": 52.4638874, "lon": 13.387773}, {"type": "node", "id": 621773871, "lat": 52.4640282, "lon": 13.3876737}, {"type": "node", "id": 621773877, "lat": 52.4640826, "lon": 13.3878264}, {"type": "node", "id": 621773880, "lat": 52.4639857, "lon": 13.3879348}, {"type": "node", "id": 635710177, "lat": 52.4493092, "lon": 13.2763909}, {"type": "node", "id": 635710184, "lat": 52.4493821, "lon": 13.2765591}, {"type": "node", "id": 639552895, "lat": 52.5164298, "lon": 13.3932385, "tags": {"addr:city": "Berlin", "addr:country": "DE", "addr:housenumber": "1", "addr:postcode": "10117", "addr:street": "Bebelplatz", "addr:suburb": "Mitte", "air_conditioning": "no", "amenity": "library", "contact:phone": "+49 30 209 33374", "contact:website": "http://info.ub.hu-berlin.de/bibliothek/zweigbibliotheken/jurist/jurist.html", "internet_access": "wlan", "internet_access:fee": "no", "name": "HU Berlin \u2013 Zweigbibliothek Rechtswissenschaft", "name:de": "HU Berlin \u2013 Zweigbibliothek Rechtswissenschaft", "name:en": "HU Berlin - Law Library", "note": "Zur Nutzung der Garderobenschr\u00e4nke bitte ein Vorh\u00e4ngeschloss mitbringen.", "opening_hours": "Mo-Fr 09:00-21:30; Sa 09:00-18:00; Su 13:00-18:00", "operator": "Universit\u00e4tsbibliothek der Humboldt-Universit\u00e4t zu Berlin", "operator:type": "university", "operator:wikidata": "Q1407819", "operator:wikipedia": "de:Universit\u00e4tsbibliothek der Humboldt-Universit\u00e4t zu Berlin", "ref:isil": "DE-11-68", "service:copy": "yes", "toilets:wheelchair": "yes", "wheelchair": "limited"}}, {"type": "node", "id": 650378319, "lat": 52.4640567, "lon": 13.3877211}, {"type": "node", "id": 651347930, "lat": 52.5145915, "lon": 13.4571638, "tags": {"entrance": "yes"}}, {"type": "node", "id": 665121783, "lat": 52.5261368, "lon": 13.3937348, "tags": {"addr:city": "Berlin", "addr:country": "DE", "addr:housenumber": "32", "addr:postcode": "10117", "addr:street": "Tucholskystra\u00dfe", "addr:suburb": "Mitte", "amenity": "library", "contact:phone": "+49 30 97005815;+49 30 97005816", "name": "Comicbibliothek Renate", "website": "http://www.renatecomics.de/", "wheelchair": "no", "wikidata": "Q130744426"}}, {"type": "node", "id": 737212457, "lat": 52.5418167, "lon": 13.4408459, "tags": {"addr:city": "Berlin", "addr:country": "DE", "addr:housenumber": "87", "addr:postcode": "10409", "addr:street": "Greifswalder Stra\u00dfe", "addr:suburb": "Prenzlauer Berg", "amenity": "library", "internet_access": "wlan", "name": "Heinrich-B\u00f6ll-Bibliothek", "official_name": "Stadtbibliothek Pankow, Hauptbibliothek 'Heinrich B\u00f6ll'", "opening_hours": "Mo-Tu, Th-Fr 09:00-19:00; We 13:00-19:00; Sa-Su 10:00-19:00", "ref:isil": "DE-B457", "website": "https://www.berlin.de/stadtbibliothek-pankow/bibliotheken/heinrich-boell-bibliothek/", "wheelchair": "yes", "wikidata": "Q15848805", "wikimedia_commons": "Category:Stadtbibliothek Pankow"}}, {"type": "node", "id": 795561505, "lat": 52.4775843, "lon": 13.2878878, "tags": {"addr:city": "Berlin", "addr:country": "DE", "addr:housenumber": "7", "addr:postcode": "14199", "addr:street": "Berkaer Stra\u00dfe", "addr:suburb": "Schmargendorf", "amenity": "library", "description": "WLAN frei f\u00fcr 30 Minuten", "internet_access": "wlan", "internet_access:fee": "no", "internet_access:operator": "QSC AG", "name": "Adolf-Reichwein-Bibliothek", "opening_hours": "Mo-Fr 14:00-18:00; Sa,Su,PH off", "website": "http://www.berlin.de/ba-charlottenburg-wilmersdorf/org/bibliotheken/adolfreichweinbibliothek.html", "wheelchair": "yes", "wikidata": "Q55153258"}}, {"type": "node", "id": 825188251, "lat": 52.4965234, "lon": 13.3916565}, {"type": "node", "id": 825188323, "lat": 52.4967515, "lon": 13.3925348, "tags": {"access": "yes", "entrance": "main", "level": "0", "wheelchair": "yes"}}, {"type": "node", "id": 825188350, "lat": 52.4966324, "lon": 13.3920899}, {"type": "node", "id": 933555300, "lat": 52.428932, "lon": 13.2379971}, {"type": "node", "id": 933555326, "lat": 52.4291483, "lon": 13.2378818}, {"type": "node", "id": 933555431, "lat": 52.4290207, "lon": 13.237237}, {"type": "node", "id": 933555498, "lat": 52.4288043, "lon": 13.2373523}, {"type": "node", "id": 1043048276, "lat": 52.5920242, "lon": 13.2805437}, {"type": "node", "id": 1070809009, "lat": 52.5190211, "lon": 13.3928706, "tags": {"addr:city": "Berlin", "addr:country": "DE", "addr:housenumber": "6", "addr:postcode": "10117", "addr:street": "Unter den Linden", "addr:suburb": "Mitte", "amenity": "library", "email": "archaeologie@ub.hu-berlin.de", "internet_access": "wlan", "internet_access:fee": "no", "level": "1", "name": "Zweigbibliothek Klassische Arch\u00e4ologie", "name:de": "Zweigbibliothek Klassische Arch\u00e4ologie", "name:en": "Library of Classical Archaeology", "note": "Die Bibliothek befindet sich im Ostfl\u00fcgel des Hauptgeb\u00e4udes in Raum 2082.", "opening_hours": "Mo-Th 10:00-16:00; PH off", "operator": "Universit\u00e4tsbibliothek der Humboldt-Universit\u00e4t zu Berlin", "operator:type": "university", "operator:wikidata": "Q1407819", "phone": "+49 30 2093 2234", "ref:isil": "DE-11-88", "service:copy": "yes", "website": "https://www.ub.hu-berlin.de/de/standorte/zwbarchaeologie", "wheelchair": "limited"}}, {"type": "node", "id": 1070809020, "lat": 52.5183016, "lon": 13.386705, "tags": {"addr:city": "Berlin", "addr:country": "DE", "addr:housenumber": "65", "addr:postcode": "10117", "addr:street": "Dorotheenstra\u00dfe", "addr:suburb": "Mitte", "amenity": "library", "email": "fremdphilo@ub.hu-berlin.de", "internet_access": "wlan", "internet_access:fee": "no", "level": "1;2", "name": "Zweigbibliothek Fremdsprachliche Philologien / Teilbibliothek Gro\u00dfbritannien-Zentrum", "note": "Zur Nutzung der Garderobenschr\u00e4nke bitte ein Vorh\u00e4ngeschloss mitbringen.", "opening_hours": "Mo-Fr 09:00-20:00; PH off", "operator": "Universit\u00e4tsbibliothek der Humboldt-Universit\u00e4t zu Berlin", "operator:type": "university", "operator:wikidata": "Q1407819", "operator:wikipedia": "de:Universit\u00e4tsbibliothek der Humboldt-Universit\u00e4t zu Berlin", "phone": "+49 30 2093-12377", "ref:isil": "DE-11-149", "service:copy": "yes", "wheelchair": "yes"}}, {"type": "node", "id": 1184076359, "lat": 52.528507, "lon": 13.3817309}, {"type": "node", "id": 1184076368, "lat": 52.5286655, "lon": 13.3817751}, {"type": "node", "id": 1184076372, "lat": 52.5285481, "lon": 13.3818693}, {"type": "node", "id": 1184076377, "lat": 52.5286623, "lon": 13.3817646}, {"type": "node", "id": 1184076379, "lat": 52.5286837, "lon": 13.3815895}, {"type": "node", "id": 1184086963, "lat": 52.5534829, "lon": 13.3793595}, {"type": "node", "id": 1184086969, "lat": 52.5538436, "lon": 13.3795913}, {"type": "node", "id": 1184087017, "lat": 52.5535714, "lon": 13.379687}, {"type": "node", "id": 1184087076, "lat": 52.5535601, "lon": 13.3792333}, {"type": "node", "id": 1184087103, "lat": 52.5535138, "lon": 13.3795764}, {"type": "node", "id": 1184087121, "lat": 52.5538681, "lon": 13.3795034}, {"type": "node", "id": 1184087152, "lat": 52.5538212, "lon": 13.3796866}, {"type": "node", "id": 1184087279, "lat": 52.5537093, "lon": 13.3797568}, {"type": "node", "id": 1184087298, "lat": 52.5537298, "lon": 13.3793438}, {"type": "node", "id": 1184087350, "lat": 52.5537234, "lon": 13.3793632}, {"type": "node", "id": 1184087362, "lat": 52.5538076, "lon": 13.3796559}, {"type": "node", "id": 1184087391, "lat": 52.5535171, "lon": 13.379473}, {"type": "node", "id": 1187060082, "lat": 52.5288797, "lon": 13.3816537}, {"type": "node", "id": 1187060084, "lat": 52.528843, "lon": 13.3807067}, {"type": "node", "id": 1187060089, "lat": 52.5287449, "lon": 13.3808061}, {"type": "node", "id": 1187060091, "lat": 52.5288487, "lon": 13.3816785}, {"type": "node", "id": 1187060098, "lat": 52.5287874, "lon": 13.3805176}, {"type": "node", "id": 1187060100, "lat": 52.5288211, "lon": 13.3810627}, {"type": "node", "id": 1187060108, "lat": 52.5285599, "lon": 13.3815941}, {"type": "node", "id": 1187060120, "lat": 52.5286245, "lon": 13.3815423}, {"type": "node", "id": 1187060124, "lat": 52.5286608, "lon": 13.380841}, {"type": "node", "id": 1187060126, "lat": 52.5285665, "lon": 13.3818545}, {"type": "node", "id": 1187060133, "lat": 52.528786, "lon": 13.3814628}, {"type": "node", "id": 1187060152, "lat": 52.5286553, "lon": 13.3817832}, {"type": "node", "id": 1187060179, "lat": 52.5288159, "lon": 13.3814389}, {"type": "node", "id": 1187060180, "lat": 52.5286282, "lon": 13.3806416}, {"type": "node", "id": 1210386587, "lat": 52.5180601, "lon": 13.3917421}, {"type": "node", "id": 1210386607, "lat": 52.5178055, "lon": 13.3914561}, {"type": "node", "id": 1210386641, "lat": 52.5174182, "lon": 13.3909272}, {"type": "node", "id": 1210386662, "lat": 52.5180364, "lon": 13.3913606}, {"type": "node", "id": 1210386684, "lat": 52.5178208, "lon": 13.3914534}, {"type": "node", "id": 1210386734, "lat": 52.5180343, "lon": 13.391326}, {"type": "node", "id": 1210386774, "lat": 52.5178363, "lon": 13.391703}, {"type": "node", "id": 1210386858, "lat": 52.518061, "lon": 13.3917562}, {"type": "node", "id": 1210386863, "lat": 52.5190186, "lon": 13.3921695}, {"type": "node", "id": 1210386867, "lat": 52.5189332, "lon": 13.3906383}, {"type": "node", "id": 1210386881, "lat": 52.5178215, "lon": 13.3917056}, {"type": "node", "id": 1217725805, "lat": 52.5285644, "lon": 13.3816848, "tags": {"entrance": "yes"}}, {"type": "node", "id": 1237008719, "lat": 52.5714523, "lon": 13.3157602}, {"type": "node", "id": 1245793321, "lat": 52.5286599, "lon": 13.3815854}, {"type": "node", "id": 1245793332, "lat": 52.5287038, "lon": 13.3808074}, {"type": "node", "id": 1245793338, "lat": 52.5285826, "lon": 13.3816702}, {"type": "node", "id": 1245793342, "lat": 52.5287209, "lon": 13.3817176}, {"type": "node", "id": 1245793344, "lat": 52.528734, "lon": 13.3807698}, {"type": "node", "id": 1270597252, "lat": 52.5462813, "lon": 13.357154}, {"type": "node", "id": 1277489846, "lat": 52.5451243, "lon": 13.3548986}, {"type": "node", "id": 1338010584, "lat": 52.4319134, "lon": 13.2554562}, {"type": "node", "id": 1338010586, "lat": 52.431926, "lon": 13.2553321}, {"type": "node", "id": 1338010587, "lat": 52.4319414, "lon": 13.255446}, {"type": "node", "id": 1338010589, "lat": 52.4319397, "lon": 13.2556498}, {"type": "node", "id": 1338010600, "lat": 52.4321248, "lon": 13.2555822}, {"type": "node", "id": 1338010603, "lat": 52.4321476, "lon": 13.2557511}, {"type": "node", "id": 1338010608, "lat": 52.4321958, "lon": 13.2552337}, {"type": "node", "id": 1338010617, "lat": 52.4322604, "lon": 13.25571}, {"type": "node", "id": 1346361343, "lat": 52.4978553, "lon": 13.5209225, "tags": {"addr:city": "Berlin", "addr:country": "DE", "addr:floor": "1", "addr:housenumber": "9", "addr:postcode": "10319", "addr:street": "Erich-Kurz-Stra\u00dfe", "addr:suburb": "Friedrichsfelde", "amenity": "library", "check_date": "2024-12-08", "contact:phone": "+49 30 5122102", "internet_access": "wlan", "internet_access:fee": "no", "internet_access:ssid": "VOEBB-Bibliothek", "level": "1", "name": "Bodo-Uhse-Bibliothek", "opening_hours": "Mo-Tu 09:00-19:00; We 13:00-19:00; Th-Sa 09:00-18:00", "website": "https://www.berlin.de/stadtbibliothek-lichtenberg/standorte/bodo-uhse-bibliothek/", "wheelchair": "limited", "wikidata": "Q125306826"}}, {"type": "node", "id": 1354220661, "lat": 52.4494045, "lon": 13.2765306}, {"type": "node", "id": 1356847676, "lat": 52.568454, "lon": 13.4123577, "tags": {"addr:city": "Berlin", "addr:country": "DE", "addr:housenumber": "120", "addr:postcode": "13187", "addr:street": "Berliner Stra\u00dfe", "addr:suburb": "Pankow", "amenity": "library", "check_date:opening_hours": "2025-01-19", "description": "ehemaliges J\u00fcdische Waisenhaus", "internet_access": "wlan", "name": "Janusz-Korczak-Bibliothek", "opening_hours": "Mo,Tu,Th,Fr 09:00-19:00; We 13:00-19:00; Sa,Su 10:00-19:00", "ref:isil": "DE-B462", "website": "https://www.berlin.de/stadtbibliothek-pankow/bibliotheken/janusz-korczak-bibliothek/", "wheelchair": "limited", "wheelchair:description": "Eingang hat viele Stufen (2 Treppen). Rollstuhlgerechter Eingang auf Geb\u00e4uder\u00fcckseite \u00fcber Hadlichstra\u00dfe erreichbar. Dort Klingel benutzen. Fahrstuhl vorhanden. Es befinden sich Schwellen zwischen den T\u00fcren (Altbau).", "wikidata": "Q28681445"}}, {"type": "node", "id": 1362209543, "lat": 52.5145468, "lon": 13.2939985, "tags": {"addr:city": "Berlin", "addr:country": "DE", "addr:housenumber": "10", "addr:postcode": "14059", "addr:street": "Nehringstra\u00dfe", "addr:suburb": "Charlottenburg", "amenity": "library", "contact:phone": "+4930902924313", "contact:website": "http://www.berlin.de/ba-charlottenburg-wilmersdorf/verwaltung/bibliotheken/artikel.194044.php", "description": "WLAN frei f\u00fcr 30 Minuten", "internet_access": "wlan", "internet_access:fee": "no", "internet_access:operator": "QSC AG", "name": "Ingeborg-Bachmann-Bibliothek", "opening_hours": "Mo,We,Th,Fr 14:00-18:00; PH off", "wheelchair": "yes", "wikidata": "Q55153171"}}, {"type": "node", "id": 1362773523, "lat": 52.4542305, "lon": 13.5140063}, {"type": "node", "id": 1370355157, "lat": 52.542997, "lon": 13.2390835}, {"type": "node", "id": 1370355160, "lat": 52.5429703, "lon": 13.239271}, {"type": "node", "id": 1370355162, "lat": 52.5429219, "lon": 13.2392456}, {"type": "node", "id": 1370355164, "lat": 52.542938, "lon": 13.2388608}, {"type": "node", "id": 1370355166, "lat": 52.5428395, "lon": 13.2389321}, {"type": "node", "id": 1425169658, "lat": 52.4613917, "lon": 13.2947799, "tags": {"addr:city": "Berlin", "addr:country": "DE", "addr:housenumber": "20", "addr:postcode": "14195", "addr:street": "Koserstra\u00dfe", "addr:suburb": "Dahlem", "amenity": "library", "contact:phone": "+493083854550", "contact:website": "http://www.ub.fu-berlin.de/fbb/gesch-kultur/kug809.html", "name": "Bibliothek des Friedrich-Meinecke-Instituts und des Kunsthistorisches Instituts", "toilets:wheelchair": "no", "wheelchair": "limited"}}, {"type": "node", "id": 1445349886, "lat": 52.4255455, "lon": 13.4622976, "tags": {"addr:city": "Berlin", "addr:country": "DE", "addr:housenumber": "1", "addr:postcode": "12353", "addr:street": "Bat-Yam-Platz", "addr:suburb": "Gropiusstadt", "amenity": "library", "name": "Trude-Jugend-Bib", "website": "https://www.berlin.de/stadtbibliothek-neukoelln/bibliotheken/gertrud-junge-bibliothek/", "wheelchair": "yes"}}, {"type": "node", "id": 1469991062, "lat": 52.4032275, "lon": 13.2199129, "tags": {"addr:city": "Kleinmachnow", "addr:country": "DE", "addr:housename": "Rathaus Kleinmachnow", "addr:housenumber": "10", "addr:postcode": "14532", "addr:street": "Adolf-Grimme-Ring", "amenity": "library", "check_date": "2023-05-24", "contact:email": "bibliothek@kleinmachnow.de", "contact:phone": "+49 33203 8774115", "name": "\u00d6ffentliche Bibliothek Kleinmachnow", "opening_hours": "Mo,Fr 12:00-18:00; Tu 12:00-20:00; We off; Th 10:00-18:00; Sa[1] 10:00-13:00", "ref:isil": "DE-1349", "wheelchair": "yes", "wikidata": "Q28734549"}}, {"type": "node", "id": 1472976631, "lat": 52.4925504, "lon": 13.4362136, "tags": {"addr:city": "Berlin", "addr:country": "DE", "addr:housenumber": "13", "addr:postcode": "10999", "addr:street": "Glogauer Stra\u00dfe", "addr:suburb": "Kreuzberg", "alt_name": "Familienbibliothek Glogauer Stra\u00dfe", "amenity": "library", "contact:phone": "+49 30 22502613", "contact:website": "https://www.berlin.de/stadtbibliothek-friedrichshain-kreuzberg/bibliotheken/familienbibliothek-else-ury/", "description": "WLAN frei f\u00fcr 30 Minuten", "internet_access": "wlan", "internet_access:fee": "no", "internet_access:operator": "HOTSPLOTS", "name": "Else-Ury-Bibliothek", "opening_hours": "Mo 13:00-18:00;\nTu 10:00-15:00;\nTh 13:00-18:00;\nFr 12:00-17:00", "wheelchair": "no"}}, {"type": "node", "id": 1473372653, "lat": 52.463937, "lon": 13.3879222}, {"type": "node", "id": 1473374652, "lat": 52.4639473, "lon": 13.3879588}, {"type": "node", "id": 1481377095, "lat": 52.5121417, "lon": 13.3262714, "tags": {"addr:city": "Berlin", "addr:country": "DE", "addr:housename": "H", "addr:housenumber": "135", "addr:postcode": "10623", "addr:street": "Stra\u00dfe des 17. Juni", "addr:suburb": "Charlottenburg", "amenity": "library", "check_date": "2025-02-03", "check_date:opening_hours": "2025-02-03", "contact:phone": "+49 30 31422601", "contact:website": "https://www.dbwm.tu-berlin.de/menue/startseite/", "fixme": "position estimated; area 5K, room 5150b", "internet_access": "wlan", "level": "5", "name": "Die Bibliothek Wirtschaft und Management", "old_name": "WiWiDok: Fachbibliothek f\u00fcr Wirtschaft, Recht & Statistik", "opening_hours": "Apr-Jul,Oct-Feb: Mo-Fr 09:00-21:00; Apr-Jul,Oct-Feb: Sa 10:00-16:00; Mar,Aug-Sep: Mo-Fr 10:00-21:00; Mar,Aug-Sep: Sa 10:00-16:00", "wheelchair": "yes"}}, {"type": "node", "id": 1504564893, "lat": 52.5049298, "lon": 13.4474922}, {"type": "node", "id": 1530424425, "lat": 52.445709, "lon": 13.5792419}, {"type": "node", "id": 1530424443, "lat": 52.4457102, "lon": 13.5794103}, {"type": "node", "id": 1530424452, "lat": 52.4457678, "lon": 13.5792166}, {"type": "node", "id": 1530424454, "lat": 52.4457711, "lon": 13.5792376}, {"type": "node", "id": 1530424458, "lat": 52.4457935, "lon": 13.5793625}, {"type": "node", "id": 1530424459, "lat": 52.4457953, "lon": 13.5793737}, {"type": "node", "id": 1530424464, "lat": 52.4458224, "lon": 13.579217}, {"type": "node", "id": 1540418542, "lat": 52.4460061, "lon": 13.5792711}, {"type": "node", "id": 1588122182, "lat": 52.5203675, "lon": 13.3911108, "tags": {"door": "revolving", "entrance": "yes", "level": "0", "wheelchair": "yes"}}, {"type": "node", "id": 1588122188, "lat": 52.5203528, "lon": 13.3903493, "tags": {"entrance": "yes"}}, {"type": "node", "id": 1670728349, "lat": 52.4690497, "lon": 13.4339544, "tags": {"addr:city": "Berlin", "addr:country": "DE", "addr:housenumber": "26", "addr:postcode": "12051", "addr:street": "Emser Stra\u00dfe", "addr:suburb": "Neuk\u00f6lln", "amenity": "library", "check_date": "2024-11-07", "name": "Fachbibliothek Kurdologie", "opening_hours": "Mo-Fr 11:00-16:00, \"Nach Vereinbarung\"", "operator": "Europ\u00e4isches Zentrum f\u00fcr Kurdische Studien - Berliner Gesellschaft zur F\u00f6rderung der Kurdologie e. V."}}, {"type": "node", "id": 1684737379, "lat": 52.5286995, "lon": 13.4254805, "tags": {"addr:city": "Berlin", "addr:country": "DE", "addr:housenumber": "4", "addr:postcode": "10405", "addr:street": "Greifswalder Stra\u00dfe", "addr:suburb": "Prenzlauer Berg", "amenity": "library", "books:language:de": "yes", "books:language:en": "yes", "books:language:es": "yes", "books:language:fr": "yes", "books:language:ru": "yes", "contact:email": "DieFreien@BibliothekderFreien.de", "contact:phone": "+49 30 7521768", "contact:website": "https://www.bibliothekderfreien.de/", "dog": "yes", "indoor": "yes", "internet_access": "no", "language:de": "main", "language:en": "yes", "language:others": "no", "level": "1", "name": "Bibliothek der Freien", "name:en": "Library of the Free", "name:etymology:wikidata": "Q8470895", "name:it": "Biblioteca dei Liberi", "opening_hours": "Th, Fr 18:00-20:00; PH off", "ref:isil": "DE-B1576", "smoking": "no", "toilets": "yes", "toilets:wheelchair": "yes", "wheelchair": "limited", "wheelchair:description:de": "T\u00fcrschwellen;bitte Besuch mit Rollstuhl vorher anmelden", "wheelchair:description:en": "thresholds;please contact the library before visiting it with a wheelchair", "wheelchair:description:eo": "sojloj;bonvolu kontakti la bibliotekon anta\u016d viziti \u011din per rulse\u011do", "wikidata": "Q856487", "wikipedia": "de:Bibliothek der Freien"}}, {"type": "node", "id": 1685672555, "lat": 52.5127362, "lon": 13.3957618, "tags": {"addr:city": "Berlin", "addr:country": "DE", "addr:housenumber": "41", "addr:postcode": "10117", "addr:street": "Anton-Wilhelm-Amo-Stra\u00dfe", "addr:suburb": "Mitte", "amenity": "library", "name": "Archiv f\u00fcr Alternativkultur", "website": "http://www.fis-kultur.net/alternativkultur/", "wikidata": "Q2654413", "wikipedia": "de:Archiv f\u00fcr Alternativkultur"}}, {"type": "node", "id": 1811293389, "lat": 52.5205838, "lon": 13.3917371, "tags": {"man_made": "surveillance", "source": "memory", "surveillance": "outdoor"}}, {"type": "node", "id": 1812650811, "lat": 52.5205813, "lon": 13.3903099, "tags": {"entrance": "yes", "wheelchair": "yes"}}, {"type": "node", "id": 1818848292, "lat": 52.5106578, "lon": 13.2586101, "tags": {"addr:city": "Berlin", "addr:country": "DE", "addr:housenumber": "45", "addr:postcode": "14052", "addr:street": "Westendallee", "addr:suburb": "Westend", "amenity": "library", "check_date:opening_hours": "2024-05-05", "description": "WLAN frei f\u00fcr 30 Minuten", "internet_access": "wlan", "internet_access:fee": "no", "internet_access:operator": "QSC AG", "name": "Johanna-Moosdorf-Bibliothek", "opening_hours": "Tu,Fr 14:00-18:00; We 12:00-18:00; Th 10:00-16:00", "wheelchair": "no", "wikidata": "Q55153202"}}, {"type": "node", "id": 1837631936, "lat": 52.5102382, "lon": 13.3302175, "tags": {"entrance": "yes"}}, {"type": "node", "id": 1863570970, "lat": 52.5328818, "lon": 13.4321724, "tags": {"addr:city": "Berlin", "addr:housenumber": "18", "addr:postcode": "10407", "addr:street": "Esmarchstra\u00dfe", "amenity": "library", "email": "kurt-tucholsky-bibliothek@ba-pankow.berlin.de", "name": "Kurt-Tucholsky-Bibliothek", "opening_hours": "Mo, We-Fr 13:00-18:00; Tu 10:00-15:00; Sa 11:00-13:00", "operator": "Bezirksamt Pankow von Berlin, Amt f\u00fcr Weiterbildung und Kultur", "operator:type": "public", "phone": "+49 30 902 95 3 963", "website": "https://www.berlin.de/stadtbibliothek-pankow/bibliotheken/kurt-tucholsky-bibliothek/", "wheelchair": "no", "wikidata": "Q125306857"}}, {"type": "node", "id": 1874529829, "lat": 52.489441, "lon": 13.3118736, "tags": {"addr:city": "Berlin", "addr:country": "DE", "addr:housenumber": "176", "addr:postcode": "10713", "addr:street": "Hohenzollerndamm", "addr:suburb": "Wilmersdorf", "amenity": "library", "contact:email": "info@artothek.charlottenburg-wilmersdorf.de", "contact:phone": "+49 30 9029-16709", "name": "Artothek", "opening_hours": "Mo off ; Tu,Th,Fr 11:00-17:00 ; We 11:00-19:00", "wheelchair": "yes"}}, {"type": "node", "id": 1896457588, "lat": 52.5052249, "lon": 13.4482343}, {"type": "node", "id": 1896457590, "lat": 52.505302, "lon": 13.4479733}, {"type": "node", "id": 1896457591, "lat": 52.5053701, "lon": 13.4480243}, {"type": "node", "id": 1899865163, "lat": 52.3617684, "lon": 13.409938}, {"type": "node", "id": 1899865166, "lat": 52.3618276, "lon": 13.4103685}, {"type": "node", "id": 1899865174, "lat": 52.3619942, "lon": 13.4097914}, {"type": "node", "id": 1899865177, "lat": 52.3620625, "lon": 13.4102818}, {"type": "node", "id": 1933757018, "lat": 52.449221, "lon": 13.2769658, "tags": {"addr:city": "Berlin", "addr:country": "DE", "addr:housenumber": "21", "addr:postcode": "14195", "addr:street": "Ihnestra\u00dfe", "addr:suburb": "Dahlem", "amenity": "library", "name": "Bibliothek f\u00fcr Sozialwissenschaften und Osteuropastudien, Stiller Lesesaal", "operator": "Freie Universit\u00e4t Berlin", "operator:type": "university", "operator:wikidata": "Q2496344", "wheelchair": "yes"}}, {"type": "node", "id": 1933780458, "lat": 52.4493087, "lon": 13.276303}, {"type": "node", "id": 1933780464, "lat": 52.449257, "lon": 13.2761811}, {"type": "node", "id": 2020817486, "lat": 52.5063336, "lon": 13.3711531}, {"type": "node", "id": 2020817487, "lat": 52.5063844, "lon": 13.3692037}, {"type": "node", "id": 2020817488, "lat": 52.5063988, "lon": 13.3694571}, {"type": "node", "id": 2020817489, "lat": 52.5064012, "lon": 13.3690201}, {"type": "node", "id": 2020817490, "lat": 52.5064062, "lon": 13.3693259}, {"type": "node", "id": 2020817491, "lat": 52.5064082, "lon": 13.3693265}, {"type": "node", "id": 2020817493, "lat": 52.5064185, "lon": 13.3705558}, {"type": "node", "id": 2020817494, "lat": 52.5064863, "lon": 13.369471}, {"type": "node", "id": 2020817495, "lat": 52.5064983, "lon": 13.3690358}, {"type": "node", "id": 2020817496, "lat": 52.5064986, "lon": 13.3692311}, {"type": "node", "id": 2020817498, "lat": 52.5065743, "lon": 13.3709424}, {"type": "node", "id": 2020817499, "lat": 52.506567, "lon": 13.371279}, {"type": "node", "id": 2020817500, "lat": 52.5065701, "lon": 13.3712611}, {"type": "node", "id": 2020817502, "lat": 52.5065819, "lon": 13.3692427}, {"type": "node", "id": 2020817504, "lat": 52.5066605, "lon": 13.3694979}, {"type": "node", "id": 2020817505, "lat": 52.5066735, "lon": 13.3692639}, {"type": "node", "id": 2020817506, "lat": 52.506684, "lon": 13.3692636}, {"type": "node", "id": 2020817507, "lat": 52.5066945, "lon": 13.3690644}, {"type": "node", "id": 2020817508, "lat": 52.5067227, "lon": 13.3690806}, {"type": "node", "id": 2020817510, "lat": 52.5068939, "lon": 13.3703096}, {"type": "node", "id": 2020817511, "lat": 52.5069047, "lon": 13.3701193}, {"type": "node", "id": 2020817513, "lat": 52.5072275, "lon": 13.3697393}, {"type": "node", "id": 2020817514, "lat": 52.5076466, "lon": 13.3704903}, {"type": "node", "id": 2020817515, "lat": 52.5076874, "lon": 13.3704148}, {"type": "node", "id": 2020817516, "lat": 52.5077044, "lon": 13.3712238}, {"type": "node", "id": 2020817517, "lat": 52.5077499, "lon": 13.370641}, {"type": "node", "id": 2020817518, "lat": 52.5077907, "lon": 13.3705655}, {"type": "node", "id": 2020817520, "lat": 52.5079082, "lon": 13.3708206}, {"type": "node", "id": 2045905056, "lat": 52.5154608, "lon": 13.4043977}, {"type": "node", "id": 2069326483, "lat": 52.5188512, "lon": 13.3910945}, {"type": "node", "id": 2069326484, "lat": 52.5188934, "lon": 13.3917198}, {"type": "node", "id": 2069326485, "lat": 52.5189781, "lon": 13.391395, "tags": {"addr:city": "Berlin", "addr:country": "DE", "addr:housenumber": "27", "addr:postcode": "10117", "addr:street": "Dorotheenstra\u00dfe", "addr:suburb": "Mitte", "entrance": "yes", "source:addr": "Geoportal Berlin / Hauskoordinaten"}}, {"type": "node", "id": 2094774970, "lat": 52.5085131, "lon": 13.3669367, "tags": {"addr:city": "Berlin", "addr:housenumber": "6", "addr:postcode": "10785", "addr:street": "Matth\u00e4ikirchplatz", "amenity": "library", "check_date": "2024-11-12", "facebook": "https://www.facebook.com/kunstbibliothek", "fee:icom_member": "no", "internet_access": "wlan", "internet_access:fee": "no", "loc_name": "Kubi", "min_age": "18", "name": "Kunstbibliothek", "name:en": "Berlin Art Library", "opening_hours": "Mo-Tu off; We-Fr 10:00-17:00; Sa-Su,PH 10:00-18:00; Jan 1 12:00-18:00; Dec 24,Dec 31 off", "ref:isil": "DE-B11", "toilets": "yes", "toilets:wheelchair": "no", "website": "https://www.smb.museum/museen-einrichtungen/kunstbibliothek/home", "wheelchair": "yes", "wikidata": "Q6445022", "wikimedia_commons": "Category:Kunstbibliothek (Berlin)", "wikipedia": "en:Kunstbibliothek Berlin"}}, {"type": "node", "id": 2117488548, "lat": 52.4999363, "lon": 13.4184743, "tags": {"entrance": "main"}}, {"type": "node", "id": 2132910694, "lat": 52.5416335, "lon": 13.3398526}, {"type": "node", "id": 2132910695, "lat": 52.5416407, "lon": 13.3399446}, {"type": "node", "id": 2132910697, "lat": 52.5417251, "lon": 13.3398357}, {"type": "node", "id": 2132910698, "lat": 52.5417324, "lon": 13.3399264}, {"type": "node", "id": 2144331933, "lat": 52.4964718, "lon": 13.3933039, "tags": {"entrance": "yes", "wheelchair": "yes"}}, {"type": "node", "id": 2149262394, "lat": 52.4359493, "lon": 13.3508549}, {"type": "node", "id": 2231716744, "lat": 52.4635027, "lon": 13.3879765}, {"type": "node", "id": 2231716746, "lat": 52.4635075, "lon": 13.3878579}, {"type": "node", "id": 2231716747, "lat": 52.4635103, "lon": 13.3877172}, {"type": "node", "id": 2231716750, "lat": 52.4635162, "lon": 13.3877418}, {"type": "node", "id": 2231716753, "lat": 52.4635303, "lon": 13.3879632}, {"type": "node", "id": 2231716754, "lat": 52.4635332, "lon": 13.3879207}, {"type": "node", "id": 2231716755, "lat": 52.4635364, "lon": 13.3877052}, {"type": "node", "id": 2231716764, "lat": 52.463589, "lon": 13.3882282}, {"type": "node", "id": 2231716766, "lat": 52.4635913, "lon": 13.3877737}, {"type": "node", "id": 2231716774, "lat": 52.4636126, "lon": 13.3882154}, {"type": "node", "id": 2231716813, "lat": 52.4637183, "lon": 13.3876932}, {"type": "node", "id": 2231716815, "lat": 52.4637297, "lon": 13.3882296}, {"type": "node", "id": 2231716818, "lat": 52.4637433, "lon": 13.3881042}, {"type": "node", "id": 2231716824, "lat": 52.4637603, "lon": 13.3874787}, {"type": "node", "id": 2231716829, "lat": 52.4637973, "lon": 13.3875005}, {"type": "node", "id": 2231716839, "lat": 52.4638775, "lon": 13.3877374}, {"type": "node", "id": 2231716842, "lat": 52.4638788, "lon": 13.3877132}, {"type": "node", "id": 2231716846, "lat": 52.4638865, "lon": 13.3877625}, {"type": "node", "id": 2231716851, "lat": 52.4639207, "lon": 13.3879758}, {"type": "node", "id": 2231716865, "lat": 52.4640068, "lon": 13.3880141}, {"type": "node", "id": 2231716869, "lat": 52.4640515, "lon": 13.3877023}, {"type": "node", "id": 2231716875, "lat": 52.4640726, "lon": 13.3879683}, {"type": "node", "id": 2270319509, "lat": 52.635613, "lon": 13.3029182, "tags": {"amenity": "library", "name": "Das Buddhistische Haus", "opening_hours": "Mo-Su 09:00-18:00", "wheelchair": "no"}}, {"type": "node", "id": 2402213285, "lat": 52.416713, "lon": 13.3664296}, {"type": "node", "id": 2402213287, "lat": 52.4169117, "lon": 13.3665819}, {"type": "node", "id": 2402213288, "lat": 52.4169214, "lon": 13.3665474}, {"type": "node", "id": 2402213289, "lat": 52.4169635, "lon": 13.3666218}, {"type": "node", "id": 2402339489, "lat": 52.4900049, "lon": 13.4056371, "tags": {"addr:city": "Berlin", "addr:country": "DE", "addr:housenumber": "2", "addr:postcode": "10961", "addr:street": "S\u00fcdstern", "addr:suburb": "Kreuzberg", "amenity": "library", "email": "info@la-rayuela.de", "name": "La Rayuela", "opening_hours": "Mo-Fr 10:00-19:00; Sa 10:00-16:00", "phone": "+49 30 44013293", "smoking": "no", "website": "https://la-rayuela.typepad.com/", "wheelchair": "no"}}, {"type": "node", "id": 2435595419, "lat": 52.5187847, "lon": 13.3921881, "tags": {"addr:city": "Berlin", "addr:country": "DE", "addr:housenumber": "6", "addr:postcode": "10117", "addr:street": "Universit\u00e4tsstra\u00dfe", "addr:suburb": "Mitte"}}, {"type": "node", "id": 2435595430, "lat": 52.5183835, "lon": 13.392277, "tags": {"addr:city": "Berlin", "addr:country": "DE", "addr:housenumber": "7", "addr:postcode": "10117", "addr:street": "Universit\u00e4tsstra\u00dfe", "addr:suburb": "Mitte"}}, {"type": "node", "id": 2435595457, "lat": 52.5179199, "lon": 13.3923339, "tags": {"addr:city": "Berlin", "addr:country": "DE", "addr:housenumber": "9", "addr:postcode": "10117", "addr:street": "Universit\u00e4tsstra\u00dfe", "addr:suburb": "Mitte"}}, {"type": "node", "id": 2452353508, "lat": 52.5212002, "lon": 13.4011408}, {"type": "node", "id": 2452353510, "lat": 52.5212355, "lon": 13.4012467}, {"type": "node", "id": 2452353512, "lat": 52.5212818, "lon": 13.4013854}, {"type": "node", "id": 2479053622, "lat": 52.5021314, "lon": 13.3248746, "tags": {"addr:city": "Berlin", "addr:country": "DE", "addr:housenumber": "211", "addr:postcode": "10719", "addr:street": "Kurf\u00fcrstendamm", "addr:suburb": "Charlottenburg", "amenity": "library", "name": "Institut Fran\u00e7ais Berlin, Mediathek", "name:en": "French Institute of Berlin, library", "name:fr": "Institut Fran\u00e7ais Berlin, M\u00e9diath\u00e8que", "opening_hours": "Tu,Th 14:00-18:30; We,Fr 12:00-18:30; Sa 11:00-17:00; Mo off", "ref:isil": "DE-B452", "toilets:wheelchair": "no", "website": "https://berlin.institutfrancais.de/mediathek", "wheelchair": "limited", "wikidata": "Q28737652"}}, {"type": "node", "id": 2479901766, "lat": 52.3618316, "lon": 13.4097457}, {"type": "node", "id": 2479901768, "lat": 52.361799, "lon": 13.4097312}, {"type": "node", "id": 2479901774, "lat": 52.3617909, "lon": 13.4097582}, {"type": "node", "id": 2479901776, "lat": 52.361772, "lon": 13.4097897}, {"type": "node", "id": 2479901778, "lat": 52.361756, "lon": 13.4098037}, {"type": "node", "id": 2479901780, "lat": 52.3617508, "lon": 13.4098054}, {"type": "node", "id": 2571245538, "lat": 52.4033811, "lon": 13.5286278, "tags": {"addr:city": "Berlin", "addr:country": "DE", "addr:housenumber": "182", "addr:postcode": "12524", "addr:street": "Ortolfstra\u00dfe", "addr:suburb": "Altglienicke", "amenity": "library", "name": "Stadtteilbibliothek Altglienicke im B\u00fcrgerhaus", "phone": "+49 30 902976722"}}, {"type": "node", "id": 2644700001, "lat": 52.4864803, "lon": 13.389689, "tags": {"addr:city": "Berlin", "addr:housenumber": "3", "addr:postcode": "10965", "addr:street": "Fidicinstra\u00dfe", "amenity": "library", "image": "File:Bibliotheksregal im Archiv der Jugendkulturen.jpg", "logo": "File:Logo archivderjugendkulturen.png", "name": "Archiv der Jugendkulturen", "ref:isil": "DE-2323", "ref:vatin": "DE203272846", "website": "https://jugendkulturen.de", "wikidata": "Q635544", "wikimedia_commons": "Category:Archiv der Jugendkulturen", "wikipedia": "de:Archiv der Jugendkulturen"}}, {"type": "node", "id": 2722616377, "lat": 52.5533793, "lon": 13.3792846}, {"type": "node", "id": 2722616386, "lat": 52.5533934, "lon": 13.3792257}, {"type": "node", "id": 2722616387, "lat": 52.5533945, "lon": 13.37921}, {"type": "node", "id": 2722616390, "lat": 52.5534006, "lon": 13.3791978}, {"type": "node", "id": 2722616391, "lat": 52.5534099, "lon": 13.3791976}, {"type": "node", "id": 2722616395, "lat": 52.5534187, "lon": 13.3792084}, {"type": "node", "id": 2722616398, "lat": 52.5534262, "lon": 13.3792134}, {"type": "node", "id": 2722616399, "lat": 52.5534274, "lon": 13.3792097}, {"type": "node", "id": 2722616400, "lat": 52.5534315, "lon": 13.3792168}, {"type": "node", "id": 2722616401, "lat": 52.5534325, "lon": 13.3792127}, {"type": "node", "id": 2722616417, "lat": 52.5534858, "lon": 13.3793524}, {"type": "node", "id": 2722616422, "lat": 52.5535052, "lon": 13.3794093}, {"type": "node", "id": 2722616423, "lat": 52.5535059, "lon": 13.3794411}, {"type": "node", "id": 2722616424, "lat": 52.5535069, "lon": 13.3793765}, {"type": "node", "id": 2722616426, "lat": 52.5535087, "lon": 13.3794754}, {"type": "node", "id": 2722616436, "lat": 52.5535241, "lon": 13.3795173, "tags": {"entrance": "secondary"}}, {"type": "node", "id": 2722616437, "lat": 52.5535288, "lon": 13.379615}, {"type": "node", "id": 2722616440, "lat": 52.5535331, "lon": 13.37926}, {"type": "node", "id": 2722616441, "lat": 52.5535332, "lon": 13.3792821}, {"type": "node", "id": 2722616442, "lat": 52.5535336, "lon": 13.3792698}, {"type": "node", "id": 2722616443, "lat": 52.5535349, "lon": 13.3792764}, {"type": "node", "id": 2722616444, "lat": 52.5535349, "lon": 13.3795559}, {"type": "node", "id": 2722616446, "lat": 52.5535367, "lon": 13.3792464}, {"type": "node", "id": 2722616449, "lat": 52.553544, "lon": 13.379235}, {"type": "node", "id": 2722616450, "lat": 52.5535488, "lon": 13.3796539}, {"type": "node", "id": 2722616452, "lat": 52.5535531, "lon": 13.3792317}, {"type": "node", "id": 2722616460, "lat": 52.553584, "lon": 13.3792498}, {"type": "node", "id": 2722616462, "lat": 52.5535845, "lon": 13.3792478}, {"type": "node", "id": 2722616468, "lat": 52.5535991, "lon": 13.3797146}, {"type": "node", "id": 2722616479, "lat": 52.5536288, "lon": 13.3797367}, {"type": "node", "id": 2722616482, "lat": 52.5536645, "lon": 13.3797517}, {"type": "node", "id": 2722616485, "lat": 52.5536761, "lon": 13.3793092}, {"type": "node", "id": 2722616486, "lat": 52.5536766, "lon": 13.3793072}, {"type": "node", "id": 2722616494, "lat": 52.5537562, "lon": 13.3797414}, {"type": "node", "id": 2722616496, "lat": 52.5537844, "lon": 13.3793987}, {"type": "node", "id": 2722616497, "lat": 52.5537852, "lon": 13.3794473}, {"type": "node", "id": 2722616498, "lat": 52.5537883, "lon": 13.3797203}, {"type": "node", "id": 2722616499, "lat": 52.5537907, "lon": 13.3794218}, {"type": "node", "id": 2722616501, "lat": 52.5538179, "lon": 13.3796384}, {"type": "node", "id": 2722616502, "lat": 52.5538188, "lon": 13.3796404}, {"type": "node", "id": 2722616505, "lat": 52.5538316, "lon": 13.3796164, "tags": {"entrance": "secondary"}}, {"type": "node", "id": 2722616507, "lat": 52.5538521, "lon": 13.3796007}, {"type": "node", "id": 2722616508, "lat": 52.5538605, "lon": 13.3795371}, {"type": "node", "id": 2722616510, "lat": 52.5538716, "lon": 13.3795467}, {"type": "node", "id": 2738936576, "lat": 52.4360118, "lon": 13.3506323}, {"type": "node", "id": 2738936577, "lat": 52.4360192, "lon": 13.350643}, {"type": "node", "id": 2738936579, "lat": 52.4360637, "lon": 13.3505608}, {"type": "node", "id": 2738936580, "lat": 52.4360982, "lon": 13.3507582}, {"type": "node", "id": 2766047103, "lat": 52.5072138, "lon": 13.3698608, "tags": {"addr:city": "Berlin", "addr:country": "DE", "addr:housenumber": "35", "addr:postcode": "10785", "addr:street": "Potsdamer Stra\u00dfe", "addr:suburb": "Tiergarten", "entrance": "yes"}}, {"type": "node", "id": 2766047390, "lat": 52.5065998, "lon": 13.3712944}, {"type": "node", "id": 2776257503, "lat": 52.4264283, "lon": 13.3576131}, {"type": "node", "id": 2776257506, "lat": 52.4264353, "lon": 13.3576515}, {"type": "node", "id": 2777497901, "lat": 52.5266936, "lon": 13.3766679, "tags": {"addr:housenumber": "4", "addr:street": "Bonhoefferweg", "amenity": "library", "check_date": "2025-05-06", "entrance": "yes", "name": "Patientenbibliothek", "opening_hours": "Mo,Tu,Th 12:00-16:00; Fr 12:00-15:00", "operator": "Charit\u00e9 Mitte"}}, {"type": "node", "id": 2784054069, "lat": 52.5102085, "lon": 13.3308829}, {"type": "node", "id": 2802477601, "lat": 52.5499724, "lon": 13.1780019, "tags": {"amenity": "library", "name": "Stadtteilbibliothek", "opening_hours": "Tu,We,Fr 12:00-17:00; Mo,Th 13:00-19:00", "wheelchair": "yes"}}, {"type": "node", "id": 2900627200, "lat": 52.6384606, "lon": 13.5263249, "tags": {"addr:city": "Panketal", "addr:country": "DE", "addr:housenumber": "2", "addr:postcode": "16341", "addr:street": "Genfer Platz", "addr:suburb": "Schwanebeck", "amenity": "library", "name": "Bibliothek Panketal", "operator": "Gemeinde Panketal"}}, {"type": "node", "id": 2952145938, "lat": 52.5145862, "lon": 13.4572079}, {"type": "node", "id": 2952145939, "lat": 52.51464, "lon": 13.4572226}, {"type": "node", "id": 2964523835, "lat": 52.5871192, "lon": 13.3678296, "tags": {"addr:city": "Berlin", "addr:country": "DE", "addr:housenumber": "32", "addr:postcode": "13158", "addr:street": "Hauptstra\u00dfe", "addr:suburb": "Wilhelmsruh", "amenity": "library", "email": "info@leben-in-wilhelmsruh.de", "name": "Kulturpost und Bibliothek", "opening_hours": "Mo,Di,Do 14:00-19:00; Mi,Fr,Sa 10:00-13:00", "operator": "Leben in Wilhelmsruh", "phone": "+49 30 40724848", "source": "Geoportal Berlin / Hauskoordinaten", "website": "https://www.leben-in-wilhelmsruh.de/"}}, {"type": "node", "id": 3180391999, "lat": 52.4376185, "lon": 13.5343448}, {"type": "node", "id": 3180392001, "lat": 52.4377963, "lon": 13.5346681}, {"type": "node", "id": 3180392003, "lat": 52.4382991, "lon": 13.533924}, {"type": "node", "id": 3203713887, "lat": 52.4952361, "lon": 13.4307312, "tags": {"addr:city": "Berlin", "addr:country": "DE", "addr:housenumber": "63a", "addr:postcode": "10999", "addr:street": "Reichenberger Stra\u00dfe", "addr:suburb": "Kreuzberg", "alt_name": "Kalabalik", "amenity": "library", "books": "anarchism", "description": "multilingual anarchist library", "email": "kalabalik@riseup.net", "name": "kalabal!k", "opening_hours": "We 17:00-20:00; Su 15:00-18:00", "operator": "kalabal!k", "website": "https://kalabalik.blackblogs.org/", "wheelchair": "no"}}, {"type": "node", "id": 3204454747, "lat": 52.5104434, "lon": 13.3310646}, {"type": "node", "id": 3215791511, "lat": 52.5106677, "lon": 13.3305481, "tags": {"addr:city": "Berlin", "addr:country": "DE", "addr:housename": "Volkswagen-Haus", "addr:housenumber": "88", "addr:postcode": "10623", "addr:street": "Fasanenstra\u00dfe", "addr:suburb": "Charlottenburg", "air_conditioning": "yes", "amenity": "cafe", "contact:website": "http://www.cafenero.net", "cuisine": "international", "diet:vegan": "yes", "diet:vegetarian": "yes", "email": "cafenero@gmx.de", "entrance": "yes", "internet_access": "wlan", "name": "cafenero", "opening_hours": "Mo-Fr 09:00-18:00; Sa 10:00-18:00", "phone": "+493031476034", "survey:date": "2023-10-16", "toilets:wheelchair": "yes", "wheelchair": "yes"}}, {"type": "node", "id": 3218895010, "lat": 52.4869558, "lon": 13.2622173}, {"type": "node", "id": 3218895027, "lat": 52.4869989, "lon": 13.2624268}, {"type": "node", "id": 3218935752, "lat": 52.4869578, "lon": 13.2622278}, {"type": "node", "id": 3218935755, "lat": 52.4869609, "lon": 13.262276}, {"type": "node", "id": 3218935757, "lat": 52.4869618, "lon": 13.2622867}, {"type": "node", "id": 3218935766, "lat": 52.4869619, "lon": 13.2622756}, {"type": "node", "id": 3218955325, "lat": 52.4870006, "lon": 13.2621972}, {"type": "node", "id": 3218955332, "lat": 52.4870106, "lon": 13.2621949}, {"type": "node", "id": 3218955343, "lat": 52.4870598, "lon": 13.2622764}, {"type": "node", "id": 3218955347, "lat": 52.4870625, "lon": 13.2623075}, {"type": "node", "id": 3218955349, "lat": 52.487072, "lon": 13.2624039}, {"type": "node", "id": 3218955350, "lat": 52.4870763, "lon": 13.2623487}, {"type": "node", "id": 3218957919, "lat": 52.4869568, "lon": 13.2622282}, {"type": "node", "id": 3218957931, "lat": 52.4869864, "lon": 13.262281}, {"type": "node", "id": 3218957939, "lat": 52.4870013, "lon": 13.2622066}, {"type": "node", "id": 3218958276, "lat": 52.4870724, "lon": 13.2624095}, {"type": "node", "id": 3218958466, "lat": 52.4870107, "lon": 13.2621968}, {"type": "node", "id": 3218958663, "lat": 52.487053, "lon": 13.2621868}, {"type": "node", "id": 3218958664, "lat": 52.4870609, "lon": 13.2622758}, {"type": "node", "id": 3218958665, "lat": 52.4870875, "lon": 13.2623462}, {"type": "node", "id": 3218958667, "lat": 52.4870921, "lon": 13.2623991}, {"type": "node", "id": 3218958764, "lat": 52.4870725, "lon": 13.262305}, {"type": "node", "id": 3219258573, "lat": 52.5156811, "lon": 13.4048402}, {"type": "node", "id": 3235739528, "lat": 52.4886969, "lon": 13.4506369}, {"type": "node", "id": 3235739530, "lat": 52.4887023, "lon": 13.4506359}, {"type": "node", "id": 3235739532, "lat": 52.4887113, "lon": 13.4509083}, {"type": "node", "id": 3235739562, "lat": 52.4888341, "lon": 13.4506173}, {"type": "node", "id": 3235739580, "lat": 52.4888623, "lon": 13.4506134}, {"type": "node", "id": 3235739583, "lat": 52.488877, "lon": 13.450885}, {"type": "node", "id": 3268805173, "lat": 52.5283733, "lon": 13.3809218, "tags": {"addr:city": "Berlin", "addr:country": "DE", "addr:housenumber": "1", "addr:postcode": "10115", "addr:street": "Hessische Stra\u00dfe", "addr:suburb": "Mitte", "source": "Geoportal Berlin / Hauskoordinaten"}}, {"type": "node", "id": 3366449009, "lat": 52.571529, "lon": 13.3155101}, {"type": "node", "id": 3366449010, "lat": 52.571542, "lon": 13.3155148}, {"type": "node", "id": 3374664255, "lat": 52.5417135, "lon": 13.3403496, "tags": {"addr:city": "Berlin", "addr:country": "DE", "addr:housename": "Forum 1", "addr:housenumber": "1", "addr:postcode": "13353", "addr:street": "Weststra\u00dfe", "addr:suburb": "Wedding", "entrance": "main"}}, {"type": "node", "id": 3408439137, "lat": 52.6629016, "lon": 13.3782745, "tags": {"addr:city": "M\u00fchlenbecker Land", "addr:country": "DE", "addr:housenumber": "9", "addr:postcode": "16567", "addr:street": "Hauptstra\u00dfe", "addr:suburb": "M\u00fchlenbeck", "amenity": "library", "name": "Gemeindebibliothek"}}, {"type": "node", "id": 3428467245, "lat": 52.4260423, "lon": 13.3587376, "tags": {"addr:city": "Berlin", "addr:country": "DE", "addr:housenumber": "74-100", "addr:postcode": "12249", "addr:street": "Malteserstra\u00dfe", "addr:suburb": "Lankwitz", "amenity": "library", "name": "Universit\u00e4tsarchiv", "opening_hours": "We,Th 09:00-16:00", "operator": "Universit\u00e4tsbibliothek der Freien Universit\u00e4t Berlin", "operator:type": "university", "operator:wikidata": "Q2496344", "wheelchair": "yes"}}, {"type": "node", "id": 3478842465, "lat": 52.4943297, "lon": 13.3578235, "tags": {"access": "private", "amenity": "library", "name": "Schulbiblothek", "operator": "Sophie-Scholl-Oberschule"}}, {"type": "node", "id": 3518345658, "lat": 52.4327843, "lon": 13.1656465, "tags": {"addr:city": "Berlin", "addr:country": "DE", "addr:housenumber": "58", "addr:postcode": "14109", "addr:street": "Am Gro\u00dfen Wannsee", "addr:suburb": "Wannsee", "amenity": "library", "contact:email": "library@ghwk.de", "contact:phone": "+49 30 805 00120", "contact:website": "https://www.ghwk.de/de/bibliothek", "description": "Fachbibliothek zu: Geschichte und Kultur des europ\u00e4ischen Judentums, NS-Verfolgung und Ermordung der j\u00fcdischen Bev\u00f6lkerung Europas und anderer Opfergruppen u.a.", "name": "Joseph Wulf Bibliothek", "opening_hours": "Mo-Fr 11:00-16:00; PH,Sa,Su off", "ref:isil": "DE-B1525"}}, {"type": "node", "id": 3564660894, "lat": 52.3619556, "lon": 13.4097775}, {"type": "node", "id": 3598797064, "lat": 52.4538895, "lon": 13.514313}, {"type": "node", "id": 3598797067, "lat": 52.4541971, "lon": 13.5139468}, {"type": "node", "id": 3670763923, "lat": 52.5467151, "lon": 13.357553}, {"type": "node", "id": 3670763924, "lat": 52.5463702, "lon": 13.3570032}, {"type": "node", "id": 3779302558, "lat": 52.510025, "lon": 13.3300535}, {"type": "node", "id": 3779302560, "lat": 52.5109916, "lon": 13.3307973}, {"type": "node", "id": 3779310094, "lat": 52.509864, "lon": 13.3306184}, {"type": "node", "id": 3806550974, "lat": 52.5202388, "lon": 13.3772992, "tags": {"access": "private", "addr:city": "Berlin", "addr:country": "DE", "addr:housenumber": "1", "addr:postcode": "10117", "addr:street": "Adele-Schreiber-Krieger-Stra\u00dfe", "amenity": "library", "contact:phone": "+49 30 22733073", "contact:website": "https://www.bundestag.de/dokumente/bibliothek", "name": "Bibliothek des Deutschen Bundestages", "name:de": "Bibliothek des Deutschen Bundestages", "name:en": "Library of the German Bundestag", "opening_hours": "\"nicht \u00f6ffentlich zug\u00e4nglich; nur auf Antrag\"", "operator": "Deutscher Bundestag", "operator:type": "government", "operator:wikidata": "Q154797", "ref:bik": "101286-1", "ref:dbs": "AK281", "ref:isil": "DE-281", "short_name": "Bundestagsbibliothek", "start_date": "1949", "wikidata": "Q856510", "wikimedia_commons": "Category:Bibliothek des Deutschen Bundestages", "wikipedia": "de:Bibliothek des Deutschen Bundestages"}}, {"type": "node", "id": 3837620248, "lat": 52.5037597, "lon": 13.3634291, "tags": {"addr:city": "Berlin", "addr:country": "DE", "addr:housenumber": "27", "addr:postcode": "10785", "addr:street": "L\u00fctzowstra\u00dfe", "addr:suburb": "Tiergarten", "amenity": "library", "name": "Bibliothek Tiergarten-S\u00fcd", "opening_hours": "Mo-Fr 12:30-18:00", "website": "https://www.berlin.de/stadtbibliothek-mitte/bibliotheken/bibliothek-tiergarten-sued/", "wheelchair": "yes", "wikidata": "Q28681523"}}, {"type": "node", "id": 3844321511, "lat": 52.544804, "lon": 13.3549018}, {"type": "node", "id": 3844742789, "lat": 52.4881115, "lon": 13.3455462}, {"type": "node", "id": 3844742821, "lat": 52.4881493, "lon": 13.3458281}, {"type": "node", "id": 3844742830, "lat": 52.4881544, "lon": 13.3458233}, {"type": "node", "id": 3844742831, "lat": 52.4881557, "lon": 13.3458675}, {"type": "node", "id": 3844742845, "lat": 52.4881836, "lon": 13.3458554}, {"type": "node", "id": 3844742865, "lat": 52.4882088, "lon": 13.3460105}, {"type": "node", "id": 3844742873, "lat": 52.4882171, "lon": 13.3455024}, {"type": "node", "id": 3844742895, "lat": 52.4882556, "lon": 13.3458322}, {"type": "node", "id": 3844742904, "lat": 52.4882673, "lon": 13.3458273}, {"type": "node", "id": 3844742910, "lat": 52.4882777, "lon": 13.3459623}, {"type": "node", "id": 3857824504, "lat": 52.4869369, "lon": 13.3199971}, {"type": "node", "id": 3857824542, "lat": 52.486965, "lon": 13.3200406}, {"type": "node", "id": 3857824585, "lat": 52.4869952, "lon": 13.3198906}, {"type": "node", "id": 3857824615, "lat": 52.4870349, "lon": 13.3201486}, {"type": "node", "id": 3857824616, "lat": 52.4870363, "lon": 13.3201509}, {"type": "node", "id": 3857824619, "lat": 52.4870402, "lon": 13.3201815}, {"type": "node", "id": 3857824627, "lat": 52.4870496, "lon": 13.3198884}, {"type": "node", "id": 3857824641, "lat": 52.487061, "lon": 13.3201767}, {"type": "node", "id": 3857824643, "lat": 52.4870632, "lon": 13.3202033}, {"type": "node", "id": 3857825381, "lat": 52.4873589, "lon": 13.3198757}, {"type": "node", "id": 3857825384, "lat": 52.4873586, "lon": 13.3198993}, {"type": "node", "id": 3857825385, "lat": 52.4873595, "lon": 13.3201009}, {"type": "node", "id": 3857825387, "lat": 52.4873607, "lon": 13.3201925}, {"type": "node", "id": 3857825390, "lat": 52.4873622, "lon": 13.320082}, {"type": "node", "id": 3857825391, "lat": 52.4873619, "lon": 13.3201004}, {"type": "node", "id": 3858738683, "lat": 52.4838685, "lon": 13.3503139}, {"type": "node", "id": 3858738689, "lat": 52.4838813, "lon": 13.3502506}, {"type": "node", "id": 3858738692, "lat": 52.4838957, "lon": 13.3502796}, {"type": "node", "id": 3858738694, "lat": 52.483906, "lon": 13.3502174}, {"type": "node", "id": 3858738703, "lat": 52.4839385, "lon": 13.3508279}, {"type": "node", "id": 3858738705, "lat": 52.4839496, "lon": 13.3501601}, {"type": "node", "id": 3858738706, "lat": 52.4839516, "lon": 13.350165}, {"type": "node", "id": 3858738709, "lat": 52.483967, "lon": 13.3507715}, {"type": "node", "id": 3858738713, "lat": 52.4839737, "lon": 13.3507855}, {"type": "node", "id": 3858738714, "lat": 52.4839742, "lon": 13.3501353}, {"type": "node", "id": 3858738725, "lat": 52.4839987, "lon": 13.3509504}, {"type": "node", "id": 3858738743, "lat": 52.4840271, "lon": 13.3506382}, {"type": "node", "id": 3858738745, "lat": 52.4840329, "lon": 13.3509056}, {"type": "node", "id": 3858738750, "lat": 52.4840452, "lon": 13.350931}, {"type": "node", "id": 3858738858, "lat": 52.4840536, "lon": 13.3506033}, {"type": "node", "id": 3858738866, "lat": 52.4840698, "lon": 13.350636}, {"type": "node", "id": 3858738901, "lat": 52.4842392, "lon": 13.3506768}, {"type": "node", "id": 3907466116, "lat": 52.446637, "lon": 13.2781014}, {"type": "node", "id": 3907466451, "lat": 52.4467347, "lon": 13.277838}, {"type": "node", "id": 3907466453, "lat": 52.4467348, "lon": 13.2778316}, {"type": "node", "id": 3907466455, "lat": 52.4467354, "lon": 13.2778443}, {"type": "node", "id": 3907466456, "lat": 52.4467357, "lon": 13.2778253}, {"type": "node", "id": 3907466558, "lat": 52.4467364, "lon": 13.2778503}, {"type": "node", "id": 3907466560, "lat": 52.4467372, "lon": 13.2778193}, {"type": "node", "id": 3907466565, "lat": 52.4467394, "lon": 13.2778139}, {"type": "node", "id": 3907466570, "lat": 52.4467421, "lon": 13.2778093}, {"type": "node", "id": 3907466572, "lat": 52.4467454, "lon": 13.2778055}, {"type": "node", "id": 3907466575, "lat": 52.4467489, "lon": 13.2778028}, {"type": "node", "id": 3907466581, "lat": 52.4467527, "lon": 13.2778012}, {"type": "node", "id": 3907466586, "lat": 52.4467552, "lon": 13.2782319}, {"type": "node", "id": 3907466589, "lat": 52.4467567, "lon": 13.2778005}, {"type": "node", "id": 3907466813, "lat": 52.4468487, "lon": 13.2780032}, {"type": "node", "id": 3907466825, "lat": 52.4468542, "lon": 13.2780261}, {"type": "node", "id": 3907466827, "lat": 52.4468577, "lon": 13.2775489}, {"type": "node", "id": 3907466838, "lat": 52.4468714, "lon": 13.278029}, {"type": "node", "id": 3907466854, "lat": 52.4468873, "lon": 13.2780102}, {"type": "node", "id": 3907467059, "lat": 52.44689, "lon": 13.2779034}, {"type": "node", "id": 3907467091, "lat": 52.4469052, "lon": 13.2779096}, {"type": "node", "id": 3907467094, "lat": 52.4469066, "lon": 13.2779596}, {"type": "node", "id": 3907467103, "lat": 52.4469095, "lon": 13.2779336}, {"type": "node", "id": 3907467287, "lat": 52.4469778, "lon": 13.2776815}, {"type": "node", "id": 3952396497, "lat": 52.4921781, "lon": 13.2826514, "tags": {"addr:city": "Berlin", "addr:housenumber": "1", "addr:postcode": "14193", "addr:street": "Bismarckplatz", "amenity": "library", "name": "Umweltbibliothek", "operator": "Umweltbundesamt", "wikidata": "Q28737651"}}, {"type": "node", "id": 3981795844, "lat": 52.5649762, "lon": 13.5061185, "tags": {"addr:city": "Berlin", "addr:country": "DE", "addr:housenumber": "2", "addr:postcode": "13051", "addr:street": "Prerower Platz", "addr:suburb": "Neu-Hohensch\u00f6nhausen", "air_conditioning": "yes", "amenity": "library", "contact:phone": "+49 30 92796410", "contact:website": "https://www.berlin.de/stadtbibliothek-lichtenberg/standorte/anna-seghers-bibliothek/", "kids_area:indoor": "yes", "level": "1,2,3", "name": "Anna-Seghers-Bibliothek", "opening_hours": "Mo,Tu 09:00-19:00; We 13:00-19:00; Th,Fr 09:00-18:00; Sa 09:00-13:00", "toilets": "yes", "wheelchair": "yes", "wikidata": "Q28681426", "wikimedia_commons": "Category:Anna-Seghers-Bibliothek (Berlin)"}}, {"type": "node", "id": 3986243911, "lat": 52.3939324, "lon": 13.1308057, "tags": {"entrance": "main", "wheelchair": "yes"}}, {"type": "node", "id": 3995393974, "lat": 52.4319753, "lon": 13.2556368}, {"type": "node", "id": 3995393975, "lat": 52.431979, "lon": 13.2556646}, {"type": "node", "id": 3995393986, "lat": 52.4320272, "lon": 13.2556179}, {"type": "node", "id": 3995393987, "lat": 52.432031, "lon": 13.2556457}, {"type": "node", "id": 4004564639, "lat": 52.437557, "lon": 13.5341843}, {"type": "node", "id": 4004564643, "lat": 52.4376333, "lon": 13.5343229}, {"type": "node", "id": 4004564644, "lat": 52.4377617, "lon": 13.5338814}, {"type": "node", "id": 4004564645, "lat": 52.4377952, "lon": 13.5339423}, {"type": "node", "id": 4004564646, "lat": 52.4378094, "lon": 13.5338113}, {"type": "node", "id": 4004564647, "lat": 52.4378428, "lon": 13.5338719}, {"type": "node", "id": 4004564655, "lat": 52.4381122, "lon": 13.5333633}, {"type": "node", "id": 4004564656, "lat": 52.4382218, "lon": 13.5337834}, {"type": "node", "id": 4004564657, "lat": 52.4382887, "lon": 13.5336843}, {"type": "node", "id": 4025920836, "lat": 52.3456192, "lon": 13.6329787, "tags": {"addr:city": "Zeuthen", "addr:housenumber": "6", "addr:postcode": "15738", "addr:street": "Platanenallee", "amenity": "library", "check_date": "2023-05-31", "level": "1", "name": "DESY Bibliothek", "name:de": "DESY Bibliothek", "name:en": "DESY Library", "opening_hours": "00:00-24:00 || Mo-Th 08:00-16:00 || Fr 08:00-14:00 open \"Circulation desk service\"", "phone": "+49 33762 77253", "ref:isil": "DE-B524", "url": "http://library-zeuthen.desy.de/", "website": "http://library-zeuthen.desy.de/", "wheelchair": "yes", "wikidata": "Q28738451"}}, {"type": "node", "id": 4110032066, "lat": 52.4925633, "lon": 13.5263672}, {"type": "node", "id": 4110032067, "lat": 52.4925358, "lon": 13.5261478}, {"type": "node", "id": 4110032069, "lat": 52.4926208, "lon": 13.5263622}, {"type": "node", "id": 4110032070, "lat": 52.4927976, "lon": 13.5260473}, {"type": "node", "id": 4110034649, "lat": 52.4928083, "lon": 13.5260404}, {"type": "node", "id": 4110034650, "lat": 52.4928156, "lon": 13.5261902}, {"type": "node", "id": 4110034651, "lat": 52.4928401, "lon": 13.5261745}, {"type": "node", "id": 4114649179, "lat": 52.5067416, "lon": 13.383896, "tags": {"addr:city": "Berlin", "addr:country": "DE", "addr:housenumber": "8", "addr:postcode": "10963", "addr:street": "Niederkirchnerstra\u00dfe", "addr:suburb": "Kreuzberg", "amenity": "library", "contact:facebook": "topographiedesterrors", "contact:instagram": "topographiedesterrors", "email": "bibliothek@topographie.de", "internet_access": "wlan", "name": "Bibliothek der Stiftung Topographie des Terrors", "opening_hours": "Mo-Fr 10:00-17:00", "phone": "+4930 254509-23", "website": "https://www.topographie.de/bibliothek/", "wheelchair": "yes", "wikidata": "Q28738920"}}, {"type": "node", "id": 4130552697, "lat": 52.545265, "lon": 13.3549346}, {"type": "node", "id": 4142893337, "lat": 52.5448672, "lon": 13.355023}, {"type": "node", "id": 4142893338, "lat": 52.5448762, "lon": 13.3550103}, {"type": "node", "id": 4142893340, "lat": 52.5448905, "lon": 13.3550378}, {"type": "node", "id": 4142893344, "lat": 52.5449313, "lon": 13.3549802}, {"type": "node", "id": 4142893345, "lat": 52.5449377, "lon": 13.3549924}, {"type": "node", "id": 4142893347, "lat": 52.5449488, "lon": 13.3549767}, {"type": "node", "id": 4142893355, "lat": 52.5449999, "lon": 13.3550738}, {"type": "node", "id": 4142893368, "lat": 52.545039, "lon": 13.3547333}, {"type": "node", "id": 4142893380, "lat": 52.545131, "lon": 13.3546036}, {"type": "node", "id": 4142893382, "lat": 52.5451728, "lon": 13.3546866}, {"type": "node", "id": 4142893384, "lat": 52.5451944, "lon": 13.3550332}, {"type": "node", "id": 4142901394, "lat": 52.5452629, "lon": 13.3548678}, {"type": "node", "id": 4142901395, "lat": 52.5452906, "lon": 13.3548295}, {"type": "node", "id": 4142901397, "lat": 52.5452836, "lon": 13.3549075}, {"type": "node", "id": 4149567382, "lat": 52.5448362, "lon": 13.3549635}, {"type": "node", "id": 4149568314, "lat": 52.5452122, "lon": 13.3550081}, {"type": "node", "id": 4155022023, "lat": 52.6304956, "lon": 13.3192634, "tags": {"addr:city": "Glienicke/Nordbahn", "addr:country": "DE", "addr:housename": "Bibliothek", "addr:housenumber": "19", "addr:postcode": "16548", "addr:street": "Hauptstra\u00dfe", "amenity": "library", "check_date": "2025-05-06", "name": "Erwachsenenbibliothek", "opening_hours": "Tu, Th 09:00-19:00; Fr 09:00-13:00", "phone": "+49 33056 69230", "website": "http://www.bibliothek-glienicke.eu/"}}, {"type": "node", "id": 4197563095, "lat": 52.5451536, "lon": 13.3546485}, {"type": "node", "id": 4197563096, "lat": 52.5451633, "lon": 13.3546678}, {"type": "node", "id": 4197563098, "lat": 52.5451822, "lon": 13.3546734}, {"type": "node", "id": 4197563103, "lat": 52.5452131, "lon": 13.3546763}, {"type": "node", "id": 4221527005, "lat": 52.5305537, "lon": 13.3859469, "tags": {"addr:city": "Berlin", "addr:country": "DE", "addr:housenumber": "118", "addr:postcode": "10115", "addr:street": "Invalidenstra\u00dfe", "addr:suburb": "Mitte", "amenity": "library", "contact:email": "asa@ub.hu-berlin.de", "contact:phone": "+49 30 209366093", "contact:website": "https://www.ub.hu-berlin.de/de/standorte/zwbasienafrika", "description": "Zur Nutzung der Garderobenschr\u00e4nke bitte ein Vorh\u00e4ngeschloss mitbringen.", "internet_access": "yes", "internet_access:fee": "no", "level": "0", "name": "Zweigbibliothek Asien-/Afrikawissenschaften und Islamische Theologie", "opening_hours": "Mo-Fr 09:00-17:00", "operator": "Universit\u00e4tsbibliothek der Humboldt-Universit\u00e4t zu Berlin", "operator:type": "university", "operator:wikidata": "Q1407819", "ref:isil": "DE-11-103", "short_name": "ZwB Asien-/Afrikawissenschaften und Islamische Theologie", "wheelchair": "yes"}}, {"type": "node", "id": 4254799532, "lat": 52.5466115, "lon": 13.3576804}, {"type": "node", "id": 4271022996, "lat": 52.453258, "lon": 13.1429895, "tags": {"addr:city": "Berlin", "addr:housenumber": "2", "addr:postcode": "14089", "addr:street": "Sakrower Landstra\u00dfe", "amenity": "library", "internet_access": "terminal", "level": "0", "name": "Stadtteilbibliothek Kladow", "opening_hours": "Mo,Th 13:00-19:00; Tu,We 13:00-17:00; Fr 09:00-15:00", "operator": "Stadtbibliothek Spandau", "phone": "+49 30 8161-5889", "toilets:wheelchair": "yes", "website": "http://www.berlin.de/stadtbibliothek-spandau/bibliotheken/kladow/artikel.182136.php", "wheelchair": "yes", "wikidata": "Q125306886"}}, {"type": "node", "id": 4376542893, "lat": 52.5146371, "lon": 13.4572524}, {"type": "node", "id": 4432723694, "lat": 52.5331584, "lon": 13.419505, "tags": {"addr:city": "Berlin", "addr:housenumber": "227-228", "addr:postcode": "10405", "addr:street": "Prenzlauer Allee", "amenity": "library", "internet_access": "wlan", "name": "Bibliothek Am Wasserturm", "opening_hours": "Mo-Sa 08:00-22:00", "phone": "+49 30 902953921", "toilets": "yes", "toilets:access": "permissive", "toilets:wheelchair": "yes", "website": "https://www.berlin.de/stadtbibliothek-pankow/bibliotheken/bibliothek-am-wasserturm/", "wikidata": "Q110501434"}}, {"type": "node", "id": 4530637739, "lat": 52.4963633, "lon": 13.3921566}, {"type": "node", "id": 4532806611, "lat": 52.5065695, "lon": 13.3694843}, {"type": "node", "id": 4682876583, "lat": 52.4841843, "lon": 13.3507487, "tags": {"entrance": "main"}}, {"type": "node", "id": 4682876597, "lat": 52.4881526, "lon": 13.3458486, "tags": {"entrance": "main"}}, {"type": "node", "id": 4706616647, "lat": 52.4525785, "lon": 13.5189284, "tags": {"addr:city": "Berlin", "addr:housenumber": "5", "addr:postcode": "12439", "addr:street": "Britzer Stra\u00dfe", "amenity": "library", "books": "academic", "email": "bibliothek-sw@topographie.de", "fax": "+49 30 63 90 288 29", "internet_access": "yes", "internet_access:fee": "customers", "name": "Bibliothek", "operator": "Stiftung Topographie des Terrors", "operator:type": "public", "phone": "+49 30 63 90 288 23", "ref:isil": "DE-2401", "website": "https://www.ns-zwangsarbeit.de/bibliothek/", "wheelchair": "yes"}}, {"type": "node", "id": 4805428213, "lat": 52.5222118, "lon": 13.3308065, "tags": {"addr:city": "Berlin", "addr:housenumber": "1-2", "addr:postcode": "10555", "addr:street": "Levetzowstra\u00dfe", "amenity": "library", "check_date:opening_hours": "2025-09-10", "email": "mf.info@senbjw.berlin.de", "fax": "+49 30 90 22 99-135", "name": "Medienforum Berlin", "opening_hours": "Mo,Tu 13:00-18:00; We 10:00-15:00; Th 13:00-18:00", "phone": "+49 30 90 22 99-111", "ref:isil": "DE-B1585", "website": "https://www.berlin.de/sen/bildung/unterricht/medien/medienforum/"}}, {"type": "node", "id": 4806499594, "lat": 52.5170943, "lon": 13.3427522, "tags": {"addr:city": "Berlin", "addr:housenumber": "15", "addr:postcode": "10557", "addr:street": "Altonaer Stra\u00dfe", "alt_name": "Hansa-B\u00fccherei", "amenity": "library", "email": "service@stb-mitte.de", "name": "Hansabibliothek", "opening_hours": "Mo, Fr 13:00-19:30; Tu-Th 12:00-18:00; Sa 10:00-14:00", "phone": "+4930901832156", "toilets:wheelchair": "yes", "website": "https://www.berlin.de/stadtbibliothek-mitte/bibliotheken/hansabibliothek/", "wheelchair": "yes", "wikidata": "Q49677548", "wikimedia_commons": "Category:Hansabibliothek (Berlin)"}}, {"type": "node", "id": 4878247166, "lat": 52.5757651, "lon": 13.5745794, "tags": {"addr:city": "Ahrensfelde", "addr:country": "DE", "addr:housenumber": "1b", "addr:postcode": "16356", "addr:street": "Lindenberger Stra\u00dfe", "amenity": "library", "name": "Ortsteilbibliothek", "opening_hours": "Mo 10:00-12:00; Tu 15:00-19:00, Th 15:00-18:00; Sa[1] 10:00-12:00; PH off"}}, {"type": "node", "id": 4945926912, "lat": 52.5156793, "lon": 13.4041081}, {"type": "node", "id": 4945926913, "lat": 52.5155138, "lon": 13.4043274}, {"type": "node", "id": 4945926914, "lat": 52.5155825, "lon": 13.4044594}, {"type": "node", "id": 4945926915, "lat": 52.5157434, "lon": 13.4042344}, {"type": "node", "id": 5062614778, "lat": 52.521758, "lon": 13.3638336, "tags": {"access": "no", "amenity": "library", "description:de": "Bibiliotek des BMI", "indoor": "yes", "level": "1"}}, {"type": "node", "id": 5071731338, "lat": 52.5287313, "lon": 13.3808521}, {"type": "node", "id": 5071731339, "lat": 52.5287536, "lon": 13.3808355}, {"type": "node", "id": 5207046313, "lat": 52.4457281, "lon": 13.5793617}, {"type": "node", "id": 5208882790, "lat": 52.4457344, "lon": 13.5793999}, {"type": "node", "id": 5224646122, "lat": 52.5416729, "lon": 13.3403575}, {"type": "node", "id": 5224646123, "lat": 52.5417647, "lon": 13.3403397}, {"type": "node", "id": 5224646124, "lat": 52.5418265, "lon": 13.3398002}, {"type": "node", "id": 5224646125, "lat": 52.5418231, "lon": 13.3397525}, {"type": "node", "id": 5245440325, "lat": 52.5203781, "lon": 13.395109, "tags": {"addr:city": "Berlin", "addr:country": "DE", "addr:housenumber": "5", "addr:postcode": "10117", "addr:street": "Am Kupfergraben", "addr:suburb": "Mitte", "amenity": "library", "contact:email": "musikwissenschaften@ub.hu-berlin.de", "contact:phone": "+49 30 20932788", "contact:website": "https://www.ub.hu-berlin.de/de/standorte/zwbmusikwissenschaft", "internet_access": "yes", "internet_access:fee": "no", "name": "Zweigbibliothek Musikwissenschaft", "opening_hours": "Mo-Fr 10:00-18:00; Feb 17-Apr 10, PH Mo-Fr 10:00-16:00", "operator": "Universit\u00e4tsbibliothek der Humboldt-Universit\u00e4t zu Berlin", "operator:type": "university", "operator:wikidata": "Q1407819", "ref:isil": "DE-11-128", "wheelchair": "yes"}}, {"type": "node", "id": 5275440213, "lat": 52.5416071, "lon": 13.6068282, "tags": {"addr:city": "Berlin", "addr:housenumber": "24", "addr:postcode": "12627", "addr:street": "Hellersdorfer Promenade", "amenity": "library", "email": "pwb-hellersdorf@peter-weiss-bibliothek.de", "internet_access": "terminal", "internet_access:fee": "no", "name": "Peter-Weiss-Bibliothek", "old_name": "Alternative Bibliothek Hellersdorf", "opening_hours": "Tu,We 14:00-18:00; PH off || \"nach Vereinbarung\"", "operator": "AGRARB\u00d6RSE Deutschland Ost e.V.", "phone": "+49 30 99282525", "website": "https://www.peter-weiss-bibliothek.de/"}}, {"type": "node", "id": 5318467222, "lat": 52.5976675, "lon": 13.3523189, "tags": {"addr:city": "Berlin", "addr:housenumber": "142c", "addr:postcode": "13439", "addr:street": "Wilhelmsruher Damm", "amenity": "library", "fax": "+49 30 902943835", "name": "Bibliothek im M\u00e4rkischen Viertel", "opening_hours": "Mo 13:00-19:00; Tu,We 11:00-17:00; Th 13:00-19:00; Fr 11:00-17:00", "operator": "Bezirksamt Reinickendorf Abteilung Bauen, Bildung und Kultur", "operator:type": "public", "phone": "+49 30 902943833", "website": "https://www.berlin.de/stadtbibliothek-reinickendorf/bibliotheken/bibliothek-im-maerkischen-viertel/bibliothek-im-maerkischen-viertel-im-fontane-haus-336916.php"}}, {"type": "node", "id": 5368024824, "lat": 52.5179219, "lon": 13.3922075}, {"type": "node", "id": 5368024825, "lat": 52.5178416, "lon": 13.3922198}, {"type": "node", "id": 5368024826, "lat": 52.5178344, "lon": 13.3920916}, {"type": "node", "id": 5368024833, "lat": 52.5179146, "lon": 13.3920793}, {"type": "node", "id": 5368024834, "lat": 52.5174675, "lon": 13.3918381}, {"type": "node", "id": 5368024835, "lat": 52.517444, "lon": 13.3914441}, {"type": "node", "id": 5368024836, "lat": 52.5178979, "lon": 13.3923375}, {"type": "node", "id": 5368024837, "lat": 52.5178994, "lon": 13.3923625}, {"type": "node", "id": 5368024838, "lat": 52.517798, "lon": 13.3923789}, {"type": "node", "id": 5368024839, "lat": 52.5183122, "lon": 13.3923005}, {"type": "node", "id": 5368024840, "lat": 52.5182281, "lon": 13.3922957}, {"type": "node", "id": 5368024841, "lat": 52.5182292, "lon": 13.3923138}, {"type": "node", "id": 5368024842, "lat": 52.5182185, "lon": 13.3922972}, {"type": "node", "id": 5368024843, "lat": 52.5183114, "lon": 13.3922886}, {"type": "node", "id": 5368024844, "lat": 52.5182178, "lon": 13.3922859}, {"type": "node", "id": 5368024845, "lat": 52.5185989, "lon": 13.3922405}, {"type": "node", "id": 5368024846, "lat": 52.5186069, "lon": 13.3922392}, {"type": "node", "id": 5368024847, "lat": 52.5185996, "lon": 13.3922525}, {"type": "node", "id": 5368024848, "lat": 52.5185133, "lon": 13.3922664}, {"type": "node", "id": 5368024849, "lat": 52.5185127, "lon": 13.3922561}, {"type": "node", "id": 5368024850, "lat": 52.5186056, "lon": 13.3922169}, {"type": "node", "id": 5368024851, "lat": 52.5189245, "lon": 13.3921655}, {"type": "node", "id": 5368024852, "lat": 52.5189256, "lon": 13.3921845}, {"type": "node", "id": 5368024853, "lat": 52.5190243, "lon": 13.3921448}, {"type": "node", "id": 5368024854, "lat": 52.5190251, "lon": 13.3921586}, {"type": "node", "id": 5368024855, "lat": 52.519018, "lon": 13.3921597}, {"type": "node", "id": 5368024856, "lat": 52.5190301, "lon": 13.3921439}, {"type": "node", "id": 5368024857, "lat": 52.5190219, "lon": 13.392007}, {"type": "node", "id": 5368024858, "lat": 52.5190124, "lon": 13.3920085}, {"type": "node", "id": 5368024859, "lat": 52.518981, "lon": 13.3914439}, {"type": "node", "id": 5368024860, "lat": 52.5189907, "lon": 13.3914423}, {"type": "node", "id": 5368024861, "lat": 52.5189966, "lon": 13.3915411}, {"type": "node", "id": 5368024862, "lat": 52.5189846, "lon": 13.3915431}, {"type": "node", "id": 5368024863, "lat": 52.518975, "lon": 13.3913433}, {"type": "node", "id": 5368024864, "lat": 52.5189829, "lon": 13.3913421}, {"type": "node", "id": 5368024865, "lat": 52.5189768, "lon": 13.391239}, {"type": "node", "id": 5368024866, "lat": 52.518962, "lon": 13.3912413}, {"type": "node", "id": 5368024867, "lat": 52.5189414, "lon": 13.3907767}, {"type": "node", "id": 5368024868, "lat": 52.5189344, "lon": 13.3907778}, {"type": "node", "id": 5368024869, "lat": 52.5189252, "lon": 13.3906396}, {"type": "node", "id": 5368024870, "lat": 52.5189238, "lon": 13.3906159}, {"type": "node", "id": 5368024871, "lat": 52.5188298, "lon": 13.3906311}, {"type": "node", "id": 5368024872, "lat": 52.518831, "lon": 13.3906507}, {"type": "node", "id": 5368024873, "lat": 52.5182106, "lon": 13.3907229}, {"type": "node", "id": 5368024874, "lat": 52.5181229, "lon": 13.390737}, {"type": "node", "id": 5368024875, "lat": 52.5182116, "lon": 13.3907385}, {"type": "node", "id": 5368024876, "lat": 52.5184938, "lon": 13.3906904}, {"type": "node", "id": 5368024877, "lat": 52.5185058, "lon": 13.3906885}, {"type": "node", "id": 5368024878, "lat": 52.5184931, "lon": 13.3906772}, {"type": "node", "id": 5368024879, "lat": 52.5184142, "lon": 13.3906899}, {"type": "node", "id": 5368024880, "lat": 52.5184151, "lon": 13.3907057}, {"type": "node", "id": 5368024881, "lat": 52.5185066, "lon": 13.390703}, {"type": "node", "id": 5368024882, "lat": 52.5178019, "lon": 13.3907905}, {"type": "node", "id": 5368024883, "lat": 52.5176994, "lon": 13.3908071}, {"type": "node", "id": 5368024884, "lat": 52.5174276, "lon": 13.3909036}, {"type": "node", "id": 5368024885, "lat": 52.5174169, "lon": 13.3909053}, {"type": "node", "id": 5368024886, "lat": 52.5175105, "lon": 13.3908767}, {"type": "node", "id": 5368024887, "lat": 52.5174268, "lon": 13.3908902}, {"type": "node", "id": 5368024888, "lat": 52.5175114, "lon": 13.3908911}, {"type": "node", "id": 5368024889, "lat": 52.5177026, "lon": 13.3908603}, {"type": "node", "id": 5368024890, "lat": 52.5178032, "lon": 13.3908129}, {"type": "node", "id": 5368024891, "lat": 52.5181244, "lon": 13.3907611}, {"type": "node", "id": 5368024892, "lat": 52.5174089, "lon": 13.3909287}, {"type": "node", "id": 5368024893, "lat": 52.5174168, "lon": 13.3910605}, {"type": "node", "id": 5368024894, "lat": 52.517428, "lon": 13.3910587}, {"type": "node", "id": 5368024895, "lat": 52.517451, "lon": 13.3914429}, {"type": "node", "id": 5368024896, "lat": 52.5174752, "lon": 13.3918369}, {"type": "node", "id": 5368024897, "lat": 52.5175043, "lon": 13.3923536}, {"type": "node", "id": 5368024898, "lat": 52.5174985, "lon": 13.3923545}, {"type": "node", "id": 5368024899, "lat": 52.5174907, "lon": 13.3922237}, {"type": "node", "id": 5368024900, "lat": 52.5174982, "lon": 13.3922225}, {"type": "node", "id": 5368024901, "lat": 52.5176029, "lon": 13.3923712}, {"type": "node", "id": 5368024902, "lat": 52.517519, "lon": 13.3923847}, {"type": "node", "id": 5368024903, "lat": 52.5175182, "lon": 13.3923717}, {"type": "node", "id": 5368024904, "lat": 52.5176021, "lon": 13.392359}, {"type": "node", "id": 5368024905, "lat": 52.517795, "lon": 13.3923279}, {"type": "node", "id": 5383104807, "lat": 52.437778, "lon": 13.5339111}, {"type": "node", "id": 5383104808, "lat": 52.4378256, "lon": 13.5338407}, {"type": "node", "id": 5401617015, "lat": 52.5658747, "lon": 13.3594258}, {"type": "node", "id": 5401617016, "lat": 52.5658357, "lon": 13.3594424}, {"type": "node", "id": 5401617017, "lat": 52.5658335, "lon": 13.3594319}, {"type": "node", "id": 5401617018, "lat": 52.5659049, "lon": 13.3596094}, {"type": "node", "id": 5401617019, "lat": 52.5659867, "lon": 13.3595742}, {"type": "node", "id": 5401617020, "lat": 52.5660042, "lon": 13.3596772}, {"type": "node", "id": 5401617021, "lat": 52.565923, "lon": 13.3597193}, {"type": "node", "id": 5401617022, "lat": 52.5656851, "lon": 13.3597784}, {"type": "node", "id": 5401617023, "lat": 52.5657072, "lon": 13.3599101}, {"type": "node", "id": 5401617024, "lat": 52.5658414, "lon": 13.359847}, {"type": "node", "id": 5401617025, "lat": 52.5657595, "lon": 13.3597456}, {"type": "node", "id": 5401617026, "lat": 52.5658301, "lon": 13.3594338}, {"type": "node", "id": 5401617027, "lat": 52.5657739, "lon": 13.3590978}, {"type": "node", "id": 5473650730, "lat": 52.5210938, "lon": 13.4012367, "tags": {"automatic_door": "button", "door": "hinged", "door:opening": "outside", "door:wings": "1", "entrance": "yes", "wheelchair": "yes"}}, {"type": "node", "id": 5533888846, "lat": 52.5261622, "lon": 13.3801597, "tags": {"addr:city": "Berlin", "addr:country": "DE", "addr:housenumber": "11/12", "addr:postcode": "10115", "addr:street": "Philippstra\u00dfe", "addr:suburb": "Mitte", "amenity": "library", "check_date:opening_hours": "2023-03-27", "internet_access": "wlan", "level": "0", "name": "Charit\u00e9 Medizinische Bibliothek Campus Mitte", "opening_hours": "Mo-Fr 09:00-20:00", "website": "https://bibliothek.charite.de/", "wikidata": "Q28738822"}}, {"type": "node", "id": 5643477411, "lat": 52.63544, "lon": 13.295141, "tags": {"addr:city": "Berlin", "addr:country": "DE", "addr:housenumber": "17", "addr:postcode": "13465", "addr:street": "Fuchssteinerweg", "addr:suburb": "Frohnau", "air_conditioning": "no", "amenity": "library", "check_date:opening_hours": "2025-04-06", "contact:email": "Bibliothek.Frohnau@gmail.com", "contact:fax": "+49 30 4010 9172", "contact:phone": "+49 30 4010 9171", "contact:website": "https://www.berlin.de/stadtbibliothek-reinickendorf/bibliotheken/stadtteilbibliothek-frohnau/artikel.336740.php", "internet_access": "wlan", "name": "Stadtteilbibliothek Frohnau", "opening_hours": "Mo 13:00-19:00; Tu 13:00-17:00; We off; Th 13:00-19:00; Fr 11:00-17:00", "wheelchair": "yes", "wikidata": "Q125306820"}}, {"type": "node", "id": 5691773422, "lat": 52.5145498, "lon": 13.4575493}, {"type": "node", "id": 5735063971, "lat": 52.531583, "lon": 13.3262022, "tags": {"addr:city": "Berlin", "addr:country": "DE", "addr:housenumber": "32b", "addr:postcode": "10553", "addr:street": "Rostocker Stra\u00dfe", "addr:suburb": "Moabit", "amenity": "library", "name": "Kurt-Tucholsky-Bibliothek", "opening_hours": "Mo-Th 12:30-18:00; Fr,Sa,Su,PH off", "toilets:wheelchair": "yes", "website": "https://www.berlin.de/stadtbibliothek-mitte/bibliotheken/kurt-tucholsky-bibliothek/", "wheelchair": "yes", "wikidata": "Q108218674", "wikimedia_commons": "Category:Kurt-Tucholsky-Bibliothek (Berlin-Moabit)"}}, {"type": "node", "id": 5798364681, "lat": 52.5429259, "lon": 13.2390484, "tags": {"addr:city": "Berlin", "addr:country": "DE", "addr:housenumber": "104", "addr:postcode": "13599", "addr:street": "Gartenfelder Stra\u00dfe", "addr:suburb": "Haselhorst", "amenity": "library", "check_date": "2024-05-27", "contact:website": "https://www.berlin.de/stadtbibliothek-spandau/bibliotheken/haselhorst/stadtteilbibliothek-haselhorst-182097.php", "internet_access": "wlan", "internet_access:fee": "no", "name": "Stadtteilbibliothek Haselhorst", "opening_hours": "Mo,Th 13:00-19:00; Tu,We,Fr 13:00-17:00", "operator": "Bezirksamt Spandau von Berlin", "wheelchair": "yes", "wikidata": "Q125306883"}}, {"type": "node", "id": 5838369566, "lat": 52.4602755, "lon": 13.347826, "tags": {"amenity": "library", "internet_access": "yes", "name": "Patientenbibliothek", "opening_hours": "Mo,Tu,Fr 13:00-17:00; Th 15:00-18:00"}}, {"type": "node", "id": 5965706610, "lat": 52.4634983, "lon": 13.388032, "tags": {"entrance": "main"}}, {"type": "node", "id": 5965706611, "lat": 52.4635614, "lon": 13.3881923, "tags": {"entrance": "main"}}, {"type": "node", "id": 5977960159, "lat": 52.4769397, "lon": 13.4273818, "tags": {"addr:city": "Berlin", "addr:country": "DE", "addr:housenumber": "79", "addr:postcode": "12053", "addr:street": "Briesestra\u00dfe", "amenity": "library", "check_date:opening_hours": "2022-12-21", "contact:phone": "+49 30 68975904", "name": "B\u00fccherstube", "opening_hours": "Mo-Fr 08:00-14:00", "operator": "Berliner Gesellschaft f\u00fcr Integration mbH"}}, {"type": "node", "id": 6046124564, "lat": 52.520016, "lon": 13.3927337, "tags": {"access": "yes", "addr:city": "Berlin", "addr:country": "DE", "addr:housenumber": "24", "addr:postcode": "10117", "addr:street": "Dorotheenstra\u00dfe", "addr:suburb": "Mitte", "air_conditioning": "yes", "amenity": "library", "check_date": "2025-06-25", "contact:website": "https://www.ub.hu-berlin.de/de/standorte/zwbgermanistik", "email": "germ@ub.hu-berlin.de", "internet_access": "wlan", "internet_access:fee": "students", "internet_access:ssid": "Eduroam", "level": "0;-1", "name": "Zweigbibliothek Germanistik", "name:de": "Zweigbibliothek Germanistik", "name:en": "Branch Library of German Studies", "note": "Zur Nutzung der Garderobenschr\u00e4nke bitte ein Vorh\u00e4ngeschloss mitbringen. Nutzung der Garderobenschr\u00e4nke ist nicht (mehr) verpflichtend.", "opening_hours": "Mo-Fr 09:30-19:00", "operator": "Universit\u00e4tsbibliothek der Humboldt-Universit\u00e4t zu Berlin", "operator:type": "university", "operator:wikidata": "Q1407819", "phone": "+49 30 2093-9782", "ref:isil": "DE-11-105", "service:copy": "yes", "wheelchair": "yes"}}, {"type": "node", "id": 6221048171, "lat": 52.5466518, "lon": 13.3576114}, {"type": "node", "id": 6221048172, "lat": 52.5466685, "lon": 13.357583}, {"type": "node", "id": 6221048173, "lat": 52.5466673, "lon": 13.3576361}, {"type": "node", "id": 6221048174, "lat": 52.5466834, "lon": 13.3576067}, {"type": "node", "id": 6221048175, "lat": 52.5466329, "lon": 13.357644}, {"type": "node", "id": 6221048176, "lat": 52.5466482, "lon": 13.3576684}, {"type": "node", "id": 6221048177, "lat": 52.5465289, "lon": 13.3572563}, {"type": "node", "id": 6239188160, "lat": 52.5079006, "lon": 13.37081}, {"type": "node", "id": 6239188169, "lat": 52.5078116, "lon": 13.3705269}, {"type": "node", "id": 6239188170, "lat": 52.5077083, "lon": 13.3703762}, {"type": "node", "id": 6239189540, "lat": 52.5064354, "lon": 13.3702831}, {"type": "node", "id": 6239189541, "lat": 52.5064108, "lon": 13.3706113}, {"type": "node", "id": 6239189542, "lat": 52.5063721, "lon": 13.3693166}, {"type": "node", "id": 6239189547, "lat": 52.5076312, "lon": 13.3703818}, {"type": "node", "id": 6239189548, "lat": 52.5080808, "lon": 13.3715344}, {"type": "node", "id": 6239189557, "lat": 52.5068918, "lon": 13.3695665}, {"type": "node", "id": 6239189558, "lat": 52.5069665, "lon": 13.3695757}, {"type": "node", "id": 6239189569, "lat": 52.5065039, "lon": 13.3709121}, {"type": "node", "id": 6239189572, "lat": 52.508292, "lon": 13.3712966}, {"type": "node", "id": 6239189579, "lat": 52.5076604, "lon": 13.3711729}, {"type": "node", "id": 6239189582, "lat": 52.5066213, "lon": 13.3700738}, {"type": "node", "id": 6255566353, "lat": 52.517925, "lon": 13.3907933}, {"type": "node", "id": 6255566354, "lat": 52.5180277, "lon": 13.3923165}, {"type": "node", "id": 6275993185, "lat": 52.5140827, "lon": 13.3251316, "tags": {"addr:city": "Berlin", "addr:country": "DE", "addr:housenumber": "136", "addr:postcode": "10623", "addr:street": "Stra\u00dfe des 17. Juni", "addr:suburb": "Charlottenburg", "amenity": "library", "email": "library@math.tu-berlin.de", "internet_access": "wlan", "name": "Mathematische Fachbibliothek", "opening_hours": "Mo-Fr 08:00-21:00; Sa 10:00-18:00", "phone": "+49 30 314 22749", "website": "https://www.math.tu-berlin.de/mfb/mfb/"}}, {"type": "node", "id": 6326882093, "lat": 52.4839737, "lon": 13.3508994}, {"type": "node", "id": 6331546870, "lat": 52.4457901, "lon": 13.5787954, "tags": {"entrance": "main"}}, {"type": "node", "id": 6469647471, "lat": 52.4967715, "lon": 13.3926776}, {"type": "node", "id": 6469647480, "lat": 52.4966549, "lon": 13.3923332}, {"type": "node", "id": 6508696687, "lat": 52.5242453, "lon": 13.2890223, "tags": {"addr:housenumber": "8-10", "addr:postcode": "14059", "addr:street": "Heubnerweg", "amenity": "library", "name": "ESCP Bibliothek am Campus Berlin", "name:en": "ESCP Library on Berlin Campus", "opening_hours": "Mo-Th 09:00-21:00; Fr 09:00-17:00"}}, {"type": "node", "id": 6595186705, "lat": 52.4379028, "lon": 13.5348618}, {"type": "node", "id": 6595186706, "lat": 52.438308, "lon": 13.5342622}, {"type": "node", "id": 6595186707, "lat": 52.4382883, "lon": 13.5342264}, {"type": "node", "id": 6595186708, "lat": 52.4383859, "lon": 13.5340818}, {"type": "node", "id": 6720863485, "lat": 52.4478314, "lon": 13.2813366, "tags": {"addr:city": "Berlin", "addr:country": "DE", "addr:housenumber": "8", "addr:postcode": "14195", "addr:street": "Van't-Hoff-Stra\u00dfe", "addr:suburb": "Dahlem", "amenity": "library", "contact:phone": "+49 30 83852161", "contact:website": "https://www.jura.fu-berlin.de/bibliothek/", "name": "Bibliothek Rechtswissenschaft", "opening_hours": "Mo-Fr 09:00-22:00; Sa 09:00-20:00; Su 12:00-20:00", "operator": "Universit\u00e4tsbibliothek der Freien Universit\u00e4t Berlin", "operator:type": "university", "operator:wikidata": "Q2496344", "ref:isil": "DE-188-808", "toilets:wheelchair": "yes", "wheelchair": "yes"}}, {"type": "node", "id": 6770112284, "lat": 52.4967398, "lon": 13.3931363}, {"type": "node", "id": 6880841994, "lat": 52.5321836, "lon": 13.4107782, "tags": {"addr:city": "Berlin", "addr:country": "DE", "addr:housenumber": "18-19", "addr:postcode": "10119", "addr:street": "Christinenstra\u00dfe", "addr:suburb": "Prenzlauer Berg", "amenity": "library", "name": "ICI Berlin", "phone": "+49 30 473 7291-10", "website": "https://www.ici-berlin.org/library/", "wheelchair": "yes", "wikidata": "Q28739236"}}, {"type": "node", "id": 6925445578, "lat": 52.5048721, "lon": 13.4476889}, {"type": "node", "id": 6925470418, "lat": 52.5049529, "lon": 13.4477505}, {"type": "node", "id": 6925470473, "lat": 52.5052278, "lon": 13.4483715}, {"type": "node", "id": 6926943760, "lat": 52.5052374, "lon": 13.4483395, "tags": {"automatic_door": "no", "door": "hinged", "door:wings": "2", "entrance": "main"}}, {"type": "node", "id": 6926943762, "lat": 52.5052604, "lon": 13.4482631}, {"type": "node", "id": 6926943763, "lat": 52.5049388, "lon": 13.448254}, {"type": "node", "id": 6926943764, "lat": 52.5050113, "lon": 13.4481934}, {"type": "node", "id": 6926943765, "lat": 52.5052539, "lon": 13.4484993}, {"type": "node", "id": 6927064903, "lat": 52.5049662, "lon": 13.4481557}, {"type": "node", "id": 6927064904, "lat": 52.5052715, "lon": 13.4484412}, {"type": "node", "id": 6927064905, "lat": 52.5050171, "lon": 13.4481737, "tags": {"door": "yes", "entrance": "yes", "level": "1"}}, {"type": "node", "id": 6927064906, "lat": 52.505255, "lon": 13.4484278}, {"type": "node", "id": 6927064907, "lat": 52.5052641, "lon": 13.4484004}, {"type": "node", "id": 6948680570, "lat": 52.517611, "lon": 13.3916163}, {"type": "node", "id": 6976235391, "lat": 52.5128877, "lon": 13.4103123, "tags": {"addr:city": "Berlin", "addr:housenumber": "16;18", "addr:postcode": "10179", "addr:street": "M\u00e4rkisches Ufer", "amenity": "library", "contact:email": "kontakt@bpk-images.de", "contact:fax": "+49 30 27 87 92-39", "contact:phone": "+49 30 27 87 92-0", "contact:website": "https://www.bpk-bildagentur.de/", "description": "Abteilung der Staatsbibliothek zu Berlin", "name": "Bildagentur f\u00fcr Kunst, Kultur und Geschichte", "old_name": "Bildarchiv Preu\u00dfischer Kulturbesitz", "opening_hours": "Mo-Fr 09:00-17:00", "operator": "Stiftung Preu\u00dfischer Kulturbesitz", "ref:isil": "DE-1b", "short_name": "bpk", "wikidata": "Q860581", "wikimedia_commons": "Category:Prussian Heritage Image Archive", "wikipedia": "de:Bildagentur f\u00fcr Kunst, Kultur und Geschichte"}}, {"type": "node", "id": 7156156068, "lat": 52.5415946, "lon": 13.339477}, {"type": "node", "id": 7156156069, "lat": 52.5417121, "lon": 13.3394529}, {"type": "node", "id": 7156156070, "lat": 52.5416501, "lon": 13.3394422}, {"type": "node", "id": 7232178641, "lat": 52.5246239, "lon": 13.3920937, "tags": {"addr:city": "Berlin", "addr:housenumber": "10", "addr:postcode": "10117", "addr:street": "Johannisstra\u00dfe", "amenity": "library", "email": "asa@ub.hu-berlin.de", "internet_access": "wlan", "internet_access:fee": "no", "level": "0", "name": "Teilbibliothek Japanologie", "opening_hours": "Mo-Th 10:00-15:30; Fr 10:00-14:00; Mar 6-31 off", "operator": "Universit\u00e4tsbibliothek der Humboldt-Universit\u00e4t zu Berlin", "operator:type": "university", "operator:wikidata": "Q1407819", "phone": "+49 30 2093-66 130"}}, {"type": "node", "id": 7483738519, "lat": 52.3939387, "lon": 13.1307054, "tags": {"description": "Gedenktafel f\u00fcr das Au\u00dfenkommando des Konzentrationslagers Sachsenhausen", "historic": "memorial", "image": "https://commons.wikimedia.org/wiki/File:Gedenktafel_Prof.-Dr.-Helmert-Str_(Potsdam)_KZ_Sachsenhausen.jpg", "inscription": "Auf diesem Gel\u00e4nde existierte vom 1. Juli 1944 bis zum M\u00e4rz 1945 ein Au\u00dfenkommando des Konzentrationslagers Sachsenhausen. [...]", "material": "metal", "memorial": "plaque", "name": "Gedenktafel f\u00fcr das Au\u00dfenkommando des Konzentrationslagers Sachsenhausen", "start_date": "2009-04-18"}}, {"type": "node", "id": 7798570856, "lat": 52.5043465, "lon": 13.3283687, "tags": {"amenity": "library", "name": "Bibliothek der J\u00fcdischen Gemeinde"}}, {"type": "node", "id": 7934149103, "lat": 52.4381213, "lon": 13.5336007}, {"type": "node", "id": 7965013241, "lat": 52.4382972, "lon": 13.3110113, "tags": {"entrance": "yes"}}, {"type": "node", "id": 7965013242, "lat": 52.4382485, "lon": 13.3109925}, {"type": "node", "id": 7965013243, "lat": 52.4382694, "lon": 13.3109612}, {"type": "node", "id": 7965013244, "lat": 52.4383268, "lon": 13.3110644}, {"type": "node", "id": 7965013245, "lat": 52.4383059, "lon": 13.3110957}, {"type": "node", "id": 8097837782, "lat": 52.3859756, "lon": 13.3980521, "tags": {"amenity": "library", "check_date": "2025-01-25", "name": "Katholische \u00f6ffentliche B\u00fccherei", "opening_hours": "\"Jeden 1. und 3. Sonntag im Monat von 9:30-12:30 Uhr ge\u00f6ffnet.\""}}, {"type": "node", "id": 8151138614, "lat": 52.5293637, "lon": 13.5928919, "tags": {"addr:city": "Berlin", "addr:country": "DE", "addr:housenumber": "5", "addr:postcode": "12619", "addr:street": "Neue Grottkauer Stra\u00dfe", "addr:suburb": "Hellersdorf", "amenity": "library", "level": "1", "name": "Stadtteilbibliothek Kaulsdorf", "opening_hours": "Mo,Tu,Th 12:00-19:00; We,Fr 09:00-13:00; Sa,Su,PH off", "source": "Geoportal Berlin / Hauskoordinaten", "website": "https://www.berlin.de/bibliotheken-mh/bibliotheken/stadtteilbibliothek-kaulsdorf-nord/", "wheelchair": "yes", "wheelchair:description": "Fahrstuhl vorhanden", "wikidata": "Q125306885"}}, {"type": "node", "id": 8194851370, "lat": 52.4494964, "lon": 13.2759001}, {"type": "node", "id": 8194851371, "lat": 52.4495549, "lon": 13.2760381}, {"type": "node", "id": 8194851383, "lat": 52.4489856, "lon": 13.2761199}, {"type": "node", "id": 8194851384, "lat": 52.4489541, "lon": 13.2760186}, {"type": "node", "id": 8194851385, "lat": 52.4489733, "lon": 13.2759925}, {"type": "node", "id": 8194851386, "lat": 52.4491241, "lon": 13.2759241}, {"type": "node", "id": 8241192738, "lat": 52.5682688, "lon": 13.5738513}, {"type": "node", "id": 8241192739, "lat": 52.5682199, "lon": 13.573808}, {"type": "node", "id": 8241192740, "lat": 52.5683817, "lon": 13.5739098}, {"type": "node", "id": 8241192741, "lat": 52.5683722, "lon": 13.5739389}, {"type": "node", "id": 8411012840, "lat": 52.5187422, "lon": 13.390665}, {"type": "node", "id": 8413099180, "lat": 52.4541605, "lon": 13.5139448}, {"type": "node", "id": 8413099183, "lat": 52.4538179, "lon": 13.5141828}, {"type": "node", "id": 8413099189, "lat": 52.4539595, "lon": 13.514079}, {"type": "node", "id": 8413099190, "lat": 52.4541417, "lon": 13.51403}, {"type": "node", "id": 8413099191, "lat": 52.4541246, "lon": 13.5139982}, {"type": "node", "id": 8413099199, "lat": 52.4541762, "lon": 13.5139216}, {"type": "node", "id": 8413099200, "lat": 52.4541935, "lon": 13.5139522}, {"type": "node", "id": 8413099201, "lat": 52.4539276, "lon": 13.5140205}, {"type": "node", "id": 8435515108, "lat": 52.5224043, "lon": 13.1654101, "tags": {"addr:city": "Berlin", "addr:country": "DE", "addr:housenumber": "22F", "addr:postcode": "13593", "addr:street": "Obstallee", "addr:suburb": "Staaken", "amenity": "library", "contact:website": "https://www.berlin.de/stadtbibliothek-spandau/bibliotheken/heerstrasse/stadtteilbibliothek-heerstrasse-182099.php", "name": "Stadtteilbibliothek Heerstra\u00dfe", "wikidata": "Q125306884"}}, {"type": "node", "id": 8769385845, "lat": 52.5658871, "lon": 13.3595255}, {"type": "node", "id": 8769385846, "lat": 52.5658734, "lon": 13.3594364}, {"type": "node", "id": 8769385847, "lat": 52.565876, "lon": 13.3594336}, {"type": "node", "id": 9019587387, "lat": 52.4262868, "lon": 13.3575664}, {"type": "node", "id": 9019587390, "lat": 52.4262779, "lon": 13.3575168}, {"type": "node", "id": 9019633120, "lat": 52.4262923, "lon": 13.3575968}, {"type": "node", "id": 9019633121, "lat": 52.4262945, "lon": 13.3576097}, {"type": "node", "id": 9019633122, "lat": 52.4263348, "lon": 13.3576575}, {"type": "node", "id": 9019633126, "lat": 52.4263673, "lon": 13.357642}, {"type": "node", "id": 9019633127, "lat": 52.4264019, "lon": 13.3576253}, {"type": "node", "id": 9019633130, "lat": 52.4264324, "lon": 13.3576352}, {"type": "node", "id": 9019633132, "lat": 52.4264169, "lon": 13.3576185}, {"type": "node", "id": 9019633133, "lat": 52.4262808, "lon": 13.3575337}, {"type": "node", "id": 9019633134, "lat": 52.4263028, "lon": 13.3574624}, {"type": "node", "id": 9019633137, "lat": 52.4263347, "lon": 13.3574472}, {"type": "node", "id": 9019633138, "lat": 52.4264038, "lon": 13.3574751}, {"type": "node", "id": 9019633140, "lat": 52.4263657, "lon": 13.3574323}, {"type": "node", "id": 9028736783, "lat": 52.3619452, "lon": 13.4097009}, {"type": "node", "id": 9067705446, "lat": 52.4320049, "lon": 13.2556552, "tags": {"access": "customers", "door": "hinged", "entrance": "main"}}, {"type": "node", "id": 9067856748, "lat": 52.4385838, "lon": 13.5496155, "tags": {"addr:city": "Berlin", "addr:housenumber": "52", "addr:postcode": "12489", "addr:street": "D\u00f6rpfeldstra\u00dfe", "amenity": "library", "check_date": "2024-04-01", "contact:phone": "+49 30 902975731", "contact:website": "https://www.berlin.de/stadtbibliothek-treptow-koepenick/bibliotheken/adlershof/", "email": "stadtbibliothek-adlershof@ba-tk.berlin.de", "level": "0", "name": "Stefan-Heym-Kinderbibliothek", "official_name": "Stadtteilbibliothek Adlershof ,,Stefan-Heym\" - Kinderbibliothek", "opening_hours": "Mo,We-Su off; Tu 11:00-18:00", "wheelchair": "yes"}}, {"type": "node", "id": 9077951933, "lat": 52.425675, "lon": 13.4620726, "tags": {"addr:city": "Berlin", "addr:country": "DE", "addr:housenumber": "1", "addr:postcode": "12353", "addr:street": "Bat-Yam-Platz", "addr:suburb": "Gropiusstadt", "amenity": "library", "contact:email": "gemeinschaftshaus@stadtbibliothek-neukoelln.de", "contact:phone": "+49 30 902391494", "contact:website": "https://www.gropiusstadt-berlin.de/einrichtungen-projekte/stadtteilbibliothek-im-gemeinschaftshaus", "name": "Gertrud-Junge-Bibliothek", "old_name": "Stadtteilbibliothek im Gemeinschaftshaus", "opening_hours": "Mo, Fr 11:00-15:00; Tu-Th 13:00-19:00", "wikidata": "Q125306843"}}, {"type": "node", "id": 9347421347, "lat": 52.4189356, "lon": 13.4943156, "tags": {"addr:city": "Berlin", "addr:country": "DE", "addr:housenumber": "45", "addr:postcode": "12357", "addr:street": "Alt-Rudow", "addr:suburb": "Rudow", "amenity": "library", "check_date:opening_hours": "2024-04-06", "contact:email": "rudow@stadtbibliothek-neukoelln.de", "contact:phone": "+49 30 902391940", "contact:website": "https://www.berlin.de/stadtbibliothek-neukoelln/bibliotheken/gertrud-hass-bibliothek/", "internet_access": "yes", "internet_access:fee": "no", "name": "Gertrud-Ha\u00df-Bibliothek", "opening_hours": "Mo,We,Fr 11:00-15:00; Tu,Th 13:00-18:00", "start_date": "2021-09", "wheelchair": "yes", "wikidata": "Q125306841"}}, {"type": "node", "id": 9378870356, "lat": 52.492521, "lon": 13.5262443}, {"type": "node", "id": 9378870357, "lat": 52.4925324, "lon": 13.526237}, {"type": "node", "id": 9378870358, "lat": 52.492537, "lon": 13.5261529}, {"type": "node", "id": 9378870369, "lat": 52.4925722, "lon": 13.5261245}, {"type": "node", "id": 9453243316, "lat": 52.5178135, "lon": 13.3915815}, {"type": "node", "id": 9453260517, "lat": 52.5178185, "lon": 13.3916595, "tags": {"entrance": "main", "level": "0"}}, {"type": "node", "id": 9453260518, "lat": 52.5178092, "lon": 13.3915143, "tags": {"entrance": "yes", "level": "0"}}, {"type": "node", "id": 9780942686, "lat": 52.5037159, "lon": 13.4230798, "tags": {"addr:city": "Berlin", "addr:country": "DE", "addr:housenumber": "2B", "addr:postcode": "10997", "addr:street": "Mariannenplatz", "addr:suburb": "Kreuzberg", "amenity": "library", "contact:website": "https://kollektivbibliothek.noblogs.org/", "name": "Kollektivbibliothek"}}, {"type": "node", "id": 9782141629, "lat": 52.4964781, "lon": 13.3933418}, {"type": "node", "id": 9782141658, "lat": 52.4964692, "lon": 13.3932866}, {"type": "node", "id": 9822089394, "lat": 52.5917233, "lon": 13.2801966}, {"type": "node", "id": 9822089395, "lat": 52.5917896, "lon": 13.2805203}, {"type": "node", "id": 9822089396, "lat": 52.5918125, "lon": 13.2805037}, {"type": "node", "id": 9822089397, "lat": 52.5917389, "lon": 13.2801868}, {"type": "node", "id": 9834150161, "lat": 52.5286655, "lon": 13.3816041}, {"type": "node", "id": 9834150162, "lat": 52.5286417, "lon": 13.3816}, {"type": "node", "id": 9864451100, "lat": 52.5658751, "lon": 13.3594281, "tags": {"highway": "street_lamp", "support": "wall_mounted"}}, {"type": "node", "id": 9891315475, "lat": 52.5288181, "lon": 13.3806209}, {"type": "node", "id": 9891315476, "lat": 52.5287984, "lon": 13.3805558}, {"type": "node", "id": 9891315477, "lat": 52.5288111, "lon": 13.3805459}, {"type": "node", "id": 9891315478, "lat": 52.5288301, "lon": 13.3806115}, {"type": "node", "id": 9891315479, "lat": 52.5287919, "lon": 13.3807467}, {"type": "node", "id": 9891315480, "lat": 52.5287866, "lon": 13.3807286}, {"type": "node", "id": 9891315481, "lat": 52.5287281, "lon": 13.380564}, {"type": "node", "id": 9891315482, "lat": 52.5286838, "lon": 13.3805982}, {"type": "node", "id": 9891315483, "lat": 52.5287244, "lon": 13.3805513}, {"type": "node", "id": 9891315484, "lat": 52.5286802, "lon": 13.3805859}, {"type": "node", "id": 9891315485, "lat": 52.528667, "lon": 13.3807758}, {"type": "node", "id": 9891315486, "lat": 52.5286466, "lon": 13.3807918}, {"type": "node", "id": 9891315487, "lat": 52.5287111, "lon": 13.3808327}, {"type": "node", "id": 9904395998, "lat": 52.4639251, "lon": 13.3879299}, {"type": "node", "id": 9904395999, "lat": 52.4639229, "lon": 13.3879522}, {"type": "node", "id": 9954757777, "lat": 52.5207463, "lon": 13.3906058}, {"type": "node", "id": 9963373201, "lat": 52.5176076, "lon": 13.3914758}, {"type": "node", "id": 9963373202, "lat": 52.5176057, "lon": 13.3914473}, {"type": "node", "id": 9963373203, "lat": 52.5176002, "lon": 13.3914482}, {"type": "node", "id": 9963373204, "lat": 52.5176021, "lon": 13.3914768}, {"type": "node", "id": 9963373205, "lat": 52.517614, "lon": 13.3915788}, {"type": "node", "id": 9963373206, "lat": 52.5176121, "lon": 13.3915499}, {"type": "node", "id": 9963373207, "lat": 52.5176068, "lon": 13.3915508}, {"type": "node", "id": 9963373208, "lat": 52.5176087, "lon": 13.3915797}, {"type": "node", "id": 9963373209, "lat": 52.517627, "lon": 13.3917811}, {"type": "node", "id": 9963373210, "lat": 52.5176253, "lon": 13.3917542}, {"type": "node", "id": 9963373211, "lat": 52.5176217, "lon": 13.391782}, {"type": "node", "id": 9963373212, "lat": 52.51762, "lon": 13.3917552}, {"type": "node", "id": 9963373213, "lat": 52.5176202, "lon": 13.3916788}, {"type": "node", "id": 9963373214, "lat": 52.5176184, "lon": 13.3916503}, {"type": "node", "id": 9963373215, "lat": 52.5176151, "lon": 13.3916797}, {"type": "node", "id": 9963373216, "lat": 52.5176133, "lon": 13.3916512}, {"type": "node", "id": 9991372412, "lat": 52.5464641, "lon": 13.5913678}, {"type": "node", "id": 9991372413, "lat": 52.5460699, "lon": 13.5913829}, {"type": "node", "id": 9991372414, "lat": 52.5460586, "lon": 13.5914333}, {"type": "node", "id": 9991372415, "lat": 52.5460632, "lon": 13.5914355}, {"type": "node", "id": 10139518223, "lat": 52.4869484, "lon": 13.3200149}, {"type": "node", "id": 10139518224, "lat": 52.4870197, "lon": 13.3198896}, {"type": "node", "id": 10197004045, "lat": 52.5133684, "lon": 13.3240024, "tags": {"addr:housenumber": "152", "addr:postcode": "10623", "addr:street": "Stra\u00dfe des 17. Juni", "amenity": "library", "internet_access": "wlan", "name": "Bereichsbibliothek Architektur und Kunstwissenschaft", "opening_hours": "Mo-Fr 10:00-20:00", "phone": "+493031422414", "wheelchair": "yes"}}, {"type": "node", "id": 10678950900, "lat": 52.4964594, "lon": 13.3929819}, {"type": "node", "id": 10913849343, "lat": 52.4967363, "lon": 13.3924364}, {"type": "node", "id": 10913906619, "lat": 52.4966642, "lon": 13.3924169, "tags": {"amenity": "library_dropoff", "entrance": "yes"}}, {"type": "node", "id": 11025967461, "lat": 52.5077548, "lon": 13.370444}, {"type": "node", "id": 11025967462, "lat": 52.5069288, "lon": 13.3695711}, {"type": "node", "id": 11046875660, "lat": 52.5537573, "lon": 13.3793829, "tags": {"amenity": "library_dropoff"}}, {"type": "node", "id": 11105619824, "lat": 52.5212735, "lon": 13.4013605}, {"type": "node", "id": 11228102552, "lat": 52.4466892, "lon": 13.278159}, {"type": "node", "id": 11228102554, "lat": 52.446869, "lon": 13.2775614}, {"type": "node", "id": 11246853433, "lat": 52.542983, "lon": 13.2392631}, {"type": "node", "id": 11246853434, "lat": 52.5429808, "lon": 13.2392552}, {"type": "node", "id": 11309948213, "lat": 52.5109671, "lon": 13.3240187, "tags": {"amenity": "library", "level": "2", "name": "Bereichsbibliothek Physik", "ref:isil": "DE-83-1022"}}, {"type": "node", "id": 11446515471, "lat": 52.5104545, "lon": 13.3212359, "tags": {"addr:housenumber": "125", "addr:postcode": "10625", "addr:street": "Schillerstra\u00dfe", "amenity": "library", "name": "BIbliothek des Schiller-Gymnasiums", "name:en": "School library of the Schiller-Gymnasium", "name:fr": "CDI du lyc\u00e9e Schiller-Gymnasium", "opening_hours": "Mo-Fr 09:30-13:00", "website": "https://sgym.de/schulorganisation/schulbibliothek/"}}, {"type": "node", "id": 11579175773, "lat": 52.5536365, "lon": 13.3792813, "tags": {"entrance": "main"}}, {"type": "node", "id": 11585204402, "lat": 52.5698457, "lon": 13.1967881, "tags": {"access": "private", "amenity": "library", "name": "WiKo Bibliothek", "opening_hours": "24/7", "operator": "Evangelisches Johannesstift Berlin"}}, {"type": "node", "id": 11669607546, "lat": 52.394136, "lon": 13.1309391}, {"type": "node", "id": 11669607547, "lat": 52.3941242, "lon": 13.130637}, {"type": "node", "id": 11669607548, "lat": 52.3941341, "lon": 13.1309393}, {"type": "node", "id": 11669607549, "lat": 52.3941223, "lon": 13.1306372}, {"type": "node", "id": 11669607550, "lat": 52.3939283, "lon": 13.1307787}, {"type": "node", "id": 11669607551, "lat": 52.3939312, "lon": 13.1307559}, {"type": "node", "id": 11669607552, "lat": 52.3939274, "lon": 13.1307563}, {"type": "node", "id": 11669607553, "lat": 52.3939313, "lon": 13.1307597}, {"type": "node", "id": 11669607554, "lat": 52.3939352, "lon": 13.130864}, {"type": "node", "id": 11669607555, "lat": 52.3939316, "lon": 13.1308643}, {"type": "node", "id": 11669607556, "lat": 52.3939309, "lon": 13.1308467}, {"type": "node", "id": 11669607557, "lat": 52.3939197, "lon": 13.1308479}, {"type": "node", "id": 11669607558, "lat": 52.3939195, "lon": 13.1308416}, {"type": "node", "id": 11669607559, "lat": 52.393935, "lon": 13.1308593}, {"type": "node", "id": 11669607560, "lat": 52.3939337, "lon": 13.1308401}, {"type": "node", "id": 11669607561, "lat": 52.3939313, "lon": 13.1307784}, {"type": "node", "id": 11669607562, "lat": 52.3939408, "lon": 13.1307587}, {"type": "node", "id": 11669607563, "lat": 52.393945, "lon": 13.1308582}, {"type": "node", "id": 11669607564, "lat": 52.3939491, "lon": 13.1309633}, {"type": "node", "id": 11669607565, "lat": 52.3939366, "lon": 13.130652}, {"type": "node", "id": 11669607566, "lat": 52.3939092, "lon": 13.1299603}, {"type": "node", "id": 11669607567, "lat": 52.3939121, "lon": 13.12996}, {"type": "node", "id": 11669607568, "lat": 52.3939391, "lon": 13.1306517}, {"type": "node", "id": 11669621969, "lat": 52.3939559, "lon": 13.1309626}, {"type": "node", "id": 11771962714, "lat": 52.4167694, "lon": 13.366717}, {"type": "node", "id": 11771962715, "lat": 52.4167676, "lon": 13.3667233}, {"type": "node", "id": 11778098531, "lat": 52.4388718, "lon": 13.5497223, "tags": {"addr:housenumber": "54", "addr:street": "D\u00f6rpfeldstra\u00dfe", "amenity": "library", "check_date": "2024-04-01", "contact:email": "stadtbibliothek-adlershof@ba-tk.berlin.de", "contact:phone": "+49 30 902975731", "contact:website": "https://www.berlin.de/stadtbibliothek-treptow-koepenick/bibliotheken/adlershof/", "name": "Stefan-Heym-Erwachsenenbibliothek", "official_name": "Stadtteilbibliothek Adlershof ,,Stefan-Heym\" - Erwachsenenbibliothek", "opening_hours": "Mo-We,Fr-Su off; Th 11:00-18:00"}}, {"type": "node", "id": 11805773403, "lat": 52.5079479, "lon": 13.526379, "tags": {"addr:city": "Berlin", "addr:housenumber": "60", "addr:postcode": "10315", "addr:street": "Alt-Friedrichsfelde", "addr:suburb": "Friedrichsfelde", "amenity": "library", "contact:phone": "+49 30 30877-2598", "contact:website": "http://www.hwr-berlin.de/service/bibliothek/campus-lichtenberg/", "name": "HWR Bibliothek Campus Lichtenberg", "opening_hours": "Mo 10:00-18:00; Tu-Th 10:00-19:00; Fr 10:00-17:00", "wheelchair": "yes", "wheelchair:description": "Behinderten-WC au\u00dferhalb der Bibliothek vorhanden, PC-Arbeitspl\u00e4tze rollstuhlgerecht, B\u00fccherregale auf der 1. Etage zu schmal, obere Regalreihe f\u00fcr rollstuhlfahrer zu hoch, keine automatische T\u00fcr\u00f6ffner.", "wikidata": "Q28738909"}}, {"type": "node", "id": 11897442668, "lat": 52.416894, "lon": 13.3665266, "tags": {"entrance": "main"}}, {"type": "node", "id": 11929111653, "lat": 52.5114995, "lon": 13.3996858, "tags": {"amenity": "library", "wikidata": "Q2560329"}}, {"type": "node", "id": 12109883518, "lat": 52.4169011, "lon": 13.3668374}, {"type": "node", "id": 12160416171, "lat": 52.4481214, "lon": 13.2777683, "tags": {"addr:city": "Berlin", "addr:country": "DE", "addr:housenumber": "39", "addr:postcode": "14195", "addr:street": "Garystra\u00dfe", "addr:suburb": "Dahlem", "amenity": "library", "contact:website": "http://www.ub.fu-berlin.de", "internet_access": "wlan", "name": "Zentralbibliothek der Freien Universit\u00e4t Berlin", "name:de": "Zentralbibliothek der Freien Universit\u00e4t Berlin", "opening_hours": "Mo-Fr 09:00-20:00", "operator": "Universit\u00e4tsbibliothek der Freien Universit\u00e4t Berlin", "operator:type": "university", "operator:wikidata": "Q2496344", "operator:wikipedia": "de:Universit\u00e4tsbibliothek der Freien Universit\u00e4t Berlin", "ref:isil": "DE-188", "short_name": "UB", "source": "Geoportal Berlin / k5_2012_sw_sued.zip", "wheelchair": "limited", "wheelchair:description": "Vorraum \u00fcber Ihnesstra\u00dfe, Hillfe ev. durch Angestellte"}}, {"type": "node", "id": 12902578769, "lat": 52.5210019, "lon": 13.4014792}, {"type": "node", "id": 12942410449, "lat": 52.526706, "lon": 13.3766422, "tags": {"amenity": "library", "name": "Patentenbibilothek"}}, {"type": "node", "id": 13207510076, "lat": 52.5429548, "lon": 13.2389242}, {"type": "node", "id": 13233046383, "lat": 52.5073595, "lon": 13.3278048, "tags": {"addr:city": "Berlin", "addr:housenumber": "4", "addr:postcode": "10623", "addr:street": "Fasanenstra\u00dfe", "amenity": "library", "name": "Bibliothek des Konservatismus", "website": "https://www.bdk-berlin.org/"}}, {"type": "node", "id": 13256958201, "lat": 52.456514, "lon": 13.2951852, "tags": {"addr:housenumber": "14", "addr:street": "Arnimallee", "amenity": "library", "internet_access": "wlan", "name": "BoB: Studierenden Zentrum", "opening_hours": "Mo-Th 08:00-21:00; Fr 08:00-18:00", "website": "https://www.physik.fu-berlin.de/fachbereich/raeume/bob/index.html"}}, {"type": "node", "id": 13301410694, "lat": 52.4653361, "lon": 13.2924086, "tags": {"addr:city": "Berlin", "addr:housenumber": "94", "addr:postcode": "14195", "addr:street": "Bernadottestra\u00dfe", "amenity": "library", "name": "Bibliothek des Deutschen Zentralinstituts f\u00fcr Soziale Fragen", "opening_hours": "Mo-Th 10:00-16:00", "operator": "Deutsches Zentralinstituts f\u00fcr Soziale Fragen", "operator:type": "private_non_profit", "ref:isil": "DE-B249", "wikidata": "Q28737649"}}, {"type": "node", "id": 13308471228, "lat": 52.5353953, "lon": 13.4211366, "tags": {"addr:city": "Berlin", "addr:housenumber": "216", "addr:postcode": "10405", "addr:street": "Prenzlauer Allee", "amenity": "library", "contact:email": "info@totschka-berlin.de", "contact:phone": "+491742099477", "name": "Totschka", "opening_hours": "Mo 15:00-18:00; Th 09:00-13:00; Fr 15:00-18:00; Sa 14:00-17:00; Su 11:00-17:00", "website": "https://www.totschka-berlin.de/"}}, {"type": "node", "id": 13366816284, "lat": 52.6099589, "lon": 13.2483155, "tags": {"amenity": "library", "contact:phone": "+49 30 4306-651", "name": "Ilse-Hinze-B\u00fccherei", "opening_hours": "We-Mo 11:00-12:30, Di 16:30-18:00, Mi 09:30-11:00(childs), Th 15:30-17:00"}}, {"type": "way", "id": 12183522, "nodes": [110425748, 3366449010, 3366449009, 110425749, 1237008719, 110425753, 313200360, 313200357, 313200358, 313200359, 110425754, 110425748], "tags": {"addr:city": "Berlin", "addr:country": "DE", "addr:housenumber": "29-31", "addr:postcode": "13403", "addr:street": "Auguste-Viktoria-Allee", "addr:suburb": "Reinickendorf", "amenity": "library", "building": "library", "name": "Stadtteilbibliothek Reinickendorf West", "opening_hours": "Tu,Th 13:00-18:00", "ref:isil": "none", "roof:shape": "flat"}}, {"type": "way", "id": 16112544, "nodes": [825188323, 6469647471, 162435080, 6770112284, 599527269, 599527265, 162435085, 9782141629, 2144331933, 9782141658, 599527267, 599527266, 10678950900, 162435096, 4530637739, 162435102, 162435059, 825188251, 162435061, 825188350, 6469647480, 10913906619, 162435068, 10913849343, 162435074, 825188323], "tags": {"addr:city": "Berlin", "addr:country": "DE", "addr:housenumber": "1", "addr:postcode": "10961", "addr:street": "Bl\u00fccherplatz", "addr:suburb": "Kreuzberg", "air_conditioning": "yes", "amenity": "library", "brand": "Verbund der \u00d6ffentlichen Bibliotheken Berlins", "building": "civic", "building:colour": "#ffe0a0", "building:levels": "6", "building:material": "limestone", "contact:phone": "+49 30 90226 401", "contact:website": "http://zlb.de/", "email": "info@zlb.de", "heritage": "4", "heritage:operator": "lda", "internet_access": "wlan", "internet_access:fee": "no", "lda:criteria": "Baudenkmal", "name": "Amerika-Gedenkbibliothek", "network": "Verbund der \u00d6ffentlichen Bibliotheken Berlins", "network:short": "V\u00d6BB", "network:wikidata": "Q1256998", "network:wikipedia": "de:Verbund \u00d6ffentlicher Bibliotheken Berlins", "opening_hours": "Mo-Fr 10:00-21:00; Sa 10:00-19:00; Su 11:00-17:00; PH off", "operator": "Stiftung Zentral- und Landesbibliothek Berlin", "operator:type": "public", "ref:isil": "DE-109", "ref:lda": "09031119", "roof:levels": "0", "roof:shape": "flat", "short_name": "AGB", "toilets:wheelchair": "yes", "wheelchair": "yes", "wikidata": "Q467903", "wikimedia_commons": "Category:Amerika-Gedenkbibliothek", "wikipedia": "de:Amerika-Gedenkbibliothek"}}, {"type": "way", "id": 22495442, "nodes": [241508200, 1043048276, 241508201, 241508202, 9822089396, 9822089395, 9822089394, 9822089397, 241508204, 241508200], "tags": {"addr:city": "Berlin", "addr:country": "DE", "addr:housenumber": "19", "addr:postcode": "13507", "addr:street": "Karolinenstra\u00dfe", "addr:suburb": "Tegel", "amenity": "library", "building": "library", "check_date:opening_hours": "2022-06-26", "internet_access": "wlan", "lda:criteria": "Baudenkmal", "name": "Humboldt-Bibliothek", "opening_hours": "Mo-Fr 11:00-19:00; Sa 11:00-16:00", "ref:isil": "DE-B714", "wheelchair": "yes", "wikidata": "Q27926646", "wikimedia_commons": "Category:Humboldt-Bibliothek", "wikipedia": "de:Humboldt-Bibliothek"}}, {"type": "way", "id": 23133702, "nodes": [249783208, 11669607549, 11669607547, 11669607546, 11669607548, 249783209, 249783210, 249783211, 249783213, 11669621969, 11669607564, 11669607563, 11669607559, 11669607554, 11669607555, 11669607556, 11669607557, 11669607558, 11669607560, 3986243911, 11669607561, 11669607550, 11669607552, 11669607551, 11669607553, 11669607562, 7483738519, 11669607565, 11669607568, 11669607567, 11669607566, 249783214, 249783208], "tags": {"addr:city": "Potsdam", "addr:country": "DE", "addr:housename": "89", "addr:postcode": "14482", "addr:street": "August-Bebel-Stra\u00dfe", "alt_name": "Haus 5", "amenity": "library", "building": "university", "building:levels": "1", "check_date": "2025-02-10", "contact:email": "infobb@uni-potsdam.de", "contact:phone": "+49 331 977 3311", "contact:website": "https://www.ub.uni-potsdam.de/de/", "name": "Universit\u00e4tsbibliothek Potsdam", "opening_hours": "Mo-Th 09:00-21:00; Fr 09:00-18:00; Sa 10:00-18:00", "opening_hours:url": "http://www.ub.uni-potsdam.de/benutzung/standorte-und-oeffnungszeiten/oeffnungszeiten-und-servicezeiten.html", "operator": "Universit\u00e4t Potsdam", "operator:type": "public", "operator:wikidata": "Q153012", "operator:wikipedia": "de:Universit\u00e4t Potsdam", "roof:levels": "0", "roof:shape": "many", "toilets:wheelchair": "yes", "wheelchair": "yes"}}, {"type": "way", "id": 23462698, "nodes": [3858738901, 3858738714, 3858738706, 3858738705, 3858738694, 3858738689, 3858738692, 3858738683, 3858738743, 3858738858, 3858738866, 3858738709, 3858738713, 3858738703, 6326882093, 3858738725, 3858738745, 3858738750, 4682876583, 3858738901], "tags": {"addr:city": "Berlin", "addr:country": "DE", "addr:housenumber": "40", "addr:postcode": "10827", "addr:street": "Hauptstra\u00dfe", "addr:suburb": "Sch\u00f6neberg", "alt_name": "Mittelpunktbibliothek Sch\u00f6neberg", "amenity": "library", "building": "civic", "building:colour": "#6e4e47", "building:levels": "2", "building:material": "brick", "contact:fax": "+49 30 902772814", "contact:phone": "+49 30 902774574", "contact:website": "https://www.berlin.de/stadtbibliothek-tempelhof-schoeneberg/bibliotheken/mittelpunktbibliothek-schoeneberg/", "internet_access": "wlan", "name": "Theodor-Heuss-Bibliothek", "opening_hours": "Mo-Sa 10:00-19:00", "ref:isil": "DE-B704", "roof:colour": "#a1a7a5", "roof:shape": "flat", "toilets:wheelchair": "yes", "wheelchair": "yes", "wikidata": "Q28681428"}}, {"type": "way", "id": 24027160, "nodes": [3857825381, 3857824627, 10139518224, 3857824585, 3857824504, 10139518223, 3857824542, 3857824615, 3857824616, 3857824619, 3857824641, 3857824643, 3857825387, 3857825385, 3857825391, 3857825390, 3857825384, 3857825381], "tags": {"addr:city": "Berlin", "addr:country": "DE", "addr:housenumber": "2", "addr:postcode": "10713", "addr:street": "Brandenburgische Stra\u00dfe", "addr:suburb": "Wilmersdorf", "amenity": "library", "building": "commercial", "building:levels": "5", "contact:phone": "+49 30 902915900;+49 30 902915900907", "contact:website": "https://www.berlin.de/ba-charlottenburg-wilmersdorf/verwaltung/aemter/weiterbildung-und-kultur/bibliotheken/dietrichbonhoefferbibliothek-201474.php", "description": "WLAN frei f\u00fcr 30 Minuten", "internet_access": "wlan", "internet_access:fee": "yes", "internet_access:operator": "QSC AG", "name": "Dietrich-Bonhoeffer-Bibliothek", "opening_hours": "Mo-Fr 12:00-19:00; Sa 11:00-16:00", "operator:type": "public", "roof:levels": "0", "survey:date": "2022-12-10", "wheelchair": "yes", "wikidata": "Q55153027"}}, {"type": "way", "id": 24035294, "nodes": [260669678, 260669680, 260669681, 5691773422, 260669683, 260669684, 4376542893, 2952145939, 2952145938, 651347930, 260669678], "tags": {"addr:city": "Berlin", "addr:country": "DE", "addr:housenumber": "14a", "addr:postcode": "10247", "addr:street": "Frankfurter Allee", "addr:suburb": "Friedrichshain", "amenity": "library", "building": "yes", "building:levels": "3", "check_date": "2025-10-20", "check_date:opening_hours": "2023-05-06", "contact:website": "https://www.berlin.de/stadtbibliothek-friedrichshain-kreuzberg/bibliotheken/bezirkszentralbibliothek-pablo-neruda/", "description": "WLAN frei f\u00fcr 30 Minuten; Abdeckung: im gesamten Geb\u00e4ude und im unmittelbaren Au\u00dfenbereich", "email": "info-stadtbibliothek@ba-fk.berlin.de", "internet_access": "wlan", "internet_access:fee": "no", "internet_access:operator": "Daphi GmbH", "name": "Bezirkszentralbibliothek Friedrichshain-Kreuzberg Pablo Neruda", "old_name": "Heinrich-Hertz-Oberschule", "opening_hours": "Mo-Sa 10:00-19:00, Fr 17:00-19:00 \"servicefrei\", Sa 15:00-19:00 \"servicefrei\"; Su,PH off", "phone": "+4930902985750", "ref:isil": "DE-B458", "toilets": "yes", "toilets:access": "public", "toilets:wheelchair": "yes", "wheelchair": "yes"}}, {"type": "way", "id": 24725699, "nodes": [268736832, 268736834, 5401617024, 5401617023, 5401617022, 5401617025, 268736835, 5401617027, 5401617026, 5401617017, 5401617016, 5401617015, 9864451100, 8769385847, 8769385846, 8769385845, 268736837, 5401617018, 5401617019, 5401617020, 5401617021, 268736832], "tags": {"addr:city": "Berlin", "addr:country": "DE", "addr:housenumber": "11;13", "addr:postcode": "13407", "addr:street": "Stargardtstra\u00dfe", "addr:suburb": "Reinickendorf", "alt_name": "Bibliothek am Sch\u00e4fersee", "amenity": "library", "building": "library", "building:levels": "1", "construction": "yes", "contact:fax": "+49 30 4519889825", "contact:phone": "+49 30 451988980", "contact:website": "https://www.berlin.de/stadtbibliothek-reinickendorf/bibliotheken/bibliothek-am-schaefersee/artikel.336756.php", "description": "Bibliothek", "heritage": "4", "heritage:operator": "lda", "internet_access": "wlan", "lda:criteria": "Baudenkmal", "name": "Stadtteilbibliothek Reinickendorf Ost", "name:etymology:wikidata": "Q694034", "opening_hours": "Mo,Fr 13:00-18:00; Tu-Th,Sa,Su off", "ref:lda": "09012387", "roof:shape": "flat", "source": "Geoportal Berlin / ALKIS Berlin - Geb\u00e4ude", "start_date": "1962", "toilets:wheelchair": "yes", "wheelchair": "yes", "wikidata": "Q106653783", "wikimedia_commons": "Category:Bibliothek am Sch\u00e4fersee"}}, {"type": "way", "id": 25041070, "nodes": [272421225, 8241192740, 8241192741, 272421226, 272421227, 272421228, 8241192739, 8241192738, 272421229, 272421225], "tags": {"addr:city": "Berlin", "addr:country": "DE", "addr:housenumber": "17B", "addr:street": "Havemannstra\u00dfe", "addr:suburb": "Marzahn", "amenity": "library", "building": "commercial", "building:levels": "1", "email": "bibl.service@ba-mh.berlin.de", "name": "Stadtbibliothek \"Heinrich von Kleist\"", "opening_hours": "Mo,Tu 13:00-18:00; We,Fr 09:00-14:00; Th 13:00-19:00", "phone": "+49 30 9339380", "postal_code": "12689", "roof:shape": "flat", "website": "https://www.berlin.de/bibliotheken-mh/bibliotheken/stadtteilbibliothek-heinrich-von-kleist/", "wikidata": "Q108747059", "wikimedia_commons": "Category:Stadtteilbibliothek Heinrich von Kleist"}}, {"type": "way", "id": 25093069, "nodes": [275413240, 9019633138, 2776257503, 9019633130, 2776257506, 270486742, 270486741, 270486745, 275413240]}, {"type": "way", "id": 26773609, "nodes": [293671842, 293671843, 7156156069, 7156156070, 7156156068, 293671844, 293671845, 293671846, 293671847, 293671848, 293671849, 293671850, 5224646122, 3374664255, 5224646123, 293671851, 293671852, 293671853, 293671854, 293671855, 5224646124, 5224646125, 293671842]}, {"type": "way", "id": 28492570, "nodes": [3215791511, 1837631936, 3779302558, 3779310094, 2784054069, 3204454747, 313020934, 3779302560, 3215791511], "tags": {"addr:city": "Berlin", "addr:country": "DE", "addr:housename": "BIB", "addr:housenumber": "86,87,88", "addr:postcode": "10623", "addr:street": "Fasanenstra\u00dfe", "addr:suburb": "Charlottenburg", "air_conditioning": "yes", "alt_name": "Volkswagen-Haus mit der Zentralbibliothek der TU;Universit\u00e4tsbibliothek der UdK Berlin", "amenity": "library", "building": "university", "building:levels": "5", "check_date:opening_hours": "2024-05-27", "contact:facebook": "TU.Berlin", "contact:instagram": "tu_berlin", "contact:twitter": "TUBerlin", "contact:website": "http://www.ub.tu-berlin.de/", "description": "The Volkswagen-Haus contains the Zentralbibliothek of Technische Universit\u00e4t Berlin, but its Address is only Universit\u00e4tsbibliothek (UB)", "internet_access": "wlan", "name": "Universit\u00e4tsbibliothek TU Berlin (Zentralbibliothek)", "opening_hours": "24/7", "operator": "Technische Universit\u00e4t Berlin;Universit\u00e4t der K\u00fcnste Berlin", "phone": "+49 30 314-76101", "ref:isil": "DE-B170", "roof:levels": "0", "roof:shape": "flat", "short_name": "UB TU Berlin", "toilets:wheelchair": "yes", "website": "http://www.ub.tu-berlin.de/", "wheelchair": "yes", "wikidata": "Q28650451"}}, {"type": "way", "id": 30087814, "nodes": [331396200, 11771962714, 11771962715, 331396204, 331396206, 331396207, 331396205, 331396202, 12109883518, 2402213289, 2402213287, 2402213288, 11897442668, 331396211, 331396208, 2402213285, 331396200], "tags": {"addr:city": "Berlin", "addr:country": "DE", "addr:housenumber": "107", "addr:postcode": "12277", "addr:street": "Marienfelder Allee", "addr:suburb": "Marienfelde", "amenity": "library", "building": "office", "building:levels": "2", "name": "Stadtteilbibliothek Marienfelde", "opening_hours": "Mo,Fr 10:00-15:00; Tu,Th 12:00-18:00", "phone": "+49 30 902774144", "roof:levels": "0", "wikidata": "Q125306893"}}, {"type": "way", "id": 31046932, "nodes": [1354220661, 1933780458, 1933780464, 345130844, 345130841, 8194851386, 345130849, 345130846, 8194851385, 8194851384, 8194851383, 345130850, 345130845, 635710177, 635710184, 1354220661], "tags": {"amenity": "library", "building": "yes", "name": "FU Institut f\u00fcr Soziologie", "name:en": "FU Institute of Sociology", "operator": "Universit\u00e4tsbibliothek der Freien Universit\u00e4t Berlin", "operator:type": "university", "operator:wikidata": "Q2496344", "operator:wikipedia": "de:Universit\u00e4tsbibliothek der Freien Universit\u00e4t Berlin", "short_name": "Soziologie", "short_name:en": "Sociology", "wheelchair": "yes"}}, {"type": "way", "id": 37408683, "nodes": [437077999, 5368024897, 5368024898, 5368024899, 5368024900, 5368024896, 5368024834, 437078337, 5368024835, 5368024895, 5368024894, 5368024893, 5368024892, 1210386641, 5368024885, 5368024884, 5368024887, 5368024886, 5368024888, 5368024889, 5368024883, 5368024882, 5368024890, 6255566353, 5368024891, 5368024874, 5368024873, 5368024875, 5368024880, 5368024879, 5368024878, 5368024876, 5368024877, 5368024881, 8411012840, 5368024872, 5368024871, 5368024870, 5368024869, 1210386867, 5368024867, 5368024868, 5368024866, 5368024865, 5368024864, 5368024863, 2069326485, 5368024859, 5368024860, 5368024861, 5368024862, 5368024858, 5368024857, 5368024856, 5368024853, 5368024854, 5368024855, 1210386863, 5368024852, 5368024851, 2435595419, 5368024850, 5368024846, 5368024845, 5368024847, 5368024848, 5368024849, 2435595430, 5368024843, 5368024839, 5368024841, 5368024840, 5368024842, 5368024844, 6255566354, 2435595457, 5368024836, 5368024837, 5368024838, 5368024905, 5368024904, 5368024901, 5368024902, 5368024903, 437077999]}, {"type": "way", "id": 37588849, "nodes": [440635306, 9378870356, 9378870357, 4110032066, 440635307, 4110032069, 440635308, 4110034650, 4110034651, 4110034649, 4110032070, 440635305, 9378870369, 4110032067, 9378870358, 440635306], "tags": {"addr:city": "Berlin", "addr:country": "DE", "addr:housenumber": "8", "addr:postcode": "10318", "addr:street": "Treskowallee", "addr:suburb": "Karlshorst", "amenity": "library", "building": "school", "building:levels": "3", "check_date": "2025-10-09", "contact:phone": "+49 30 50190", "contact:website": "http://www.htw-berlin.de", "name": "Haus B Bibliothek Campus Treskowallee", "roof:shape": "flat", "toilets:wheelchair": "no", "wheelchair": "limited", "wheelchair:description": "Barrierefreier Zugang \u00fcber Hof am Atrium mit Klingel f\u00fcr Rollifahrer, Personal kommt runter, Behinderten-WC im Nachbargeb\u00e4ude A"}}, {"type": "way", "id": 37739166, "nodes": [442649828, 442649830, 2117488548, 442649831, 442649829, 442649828], "tags": {"addr:city": "Berlin", "addr:country": "DE", "addr:housenumber": "2", "addr:postcode": "10999", "addr:street": "Adalbertstra\u00dfe", "addr:suburb": "Kreuzberg", "amenity": "library", "building": "civic", "building:levels": "4", "internet_access": "yes", "internet_access:fee": "no", "name": "Mittelpunktbibliothek Adalbertstra\u00dfe", "name:ja": "\u4e2d\u592e\u56f3\u66f8\u9928 \u30a2\u30c0\u30eb\u30d0\u30eb\u30c8\u901a\u308a", "opening_hours": "Mo-Th 11:00-19:00; Fr 11:00-17:00; Sa 11:00-16:00", "toilets:wheelchair": "yes", "website": "https://www.berlin.de/stadtbibliothek-friedrichshain-kreuzberg/bibliotheken/mittelpunktbibliothek-wilhelm-liebknecht-namik-kemal/", "wheelchair": "yes", "wikidata": "Q125306867", "wikimedia_commons": "Category:Mittelpunktbibliothek Adalbertstra\u00dfe (Berlin)"}}, {"type": "way", "id": 37975301, "nodes": [446039579, 2149262394, 446039580, 2738936580, 446039582, 446039584, 446039586, 446039588, 2738936579, 2738936577, 2738936576, 446039579], "tags": {"addr:city": "Berlin", "addr:country": "DE", "addr:housenumber": "37", "addr:postcode": "12247", "addr:street": "Bruchwitzstra\u00dfe", "addr:suburb": "Lankwitz", "amenity": "library", "building": "yes", "name": "Stadtteilbibliothek Lankwitz", "opening_hours": "Mo,Tu,Th,Fr 11:00-19:00; We 11:00-16:00", "toilets:wheelchair": "no", "website": "https://www.berlin.de/stadtbibliothek-steglitz-zehlendorf/bibliotheken/stadtteilbibliothek-lankwitz", "wheelchair": "no", "wikidata": "Q125306887"}}, {"type": "way", "id": 38151405, "nodes": [437077937, 437077934, 437077927, 2069326484, 437077937]}, {"type": "way", "id": 38151406, "nodes": [437077952, 437077950, 437077985, 437077982, 437077952]}, {"type": "way", "id": 38151407, "nodes": [437077988, 437077991, 1210386587, 1210386858, 437077994, 437077996, 437077988]}, {"type": "way", "id": 38151408, "nodes": [437078026, 437078029, 1210386734, 1210386662, 437078031, 437078034, 437078026]}, {"type": "way", "id": 38151409, "nodes": [437078001, 437078004, 1210386774, 1210386881, 9453260517, 9453243316, 9453260518, 1210386607, 1210386684, 437078006, 437078009, 437078012, 437078019, 9963373203, 9963373202, 9963373201, 9963373204, 9963373207, 9963373206, 9963373205, 9963373208, 6948680570, 9963373216, 9963373214, 9963373213, 9963373215, 9963373212, 9963373210, 9963373209, 9963373211, 437078021, 437078022, 437078001]}, {"type": "way", "id": 38358625, "nodes": [3907467287, 11228102554, 3907466827, 3907466589, 3907466581, 3907466575, 3907466572, 3907466570, 3907466565, 3907466560, 3907466456, 3907466453, 3907466451, 3907466455, 3907466558, 3907466116, 11228102552, 3907466586, 3907466813, 3907466825, 3907466838, 3907466854, 3907467094, 3907467103, 3907467091, 3907467059, 3907467287], "tags": {"addr:city": "Berlin", "addr:country": "DE", "addr:housenumber": "14", "addr:postcode": "14195", "addr:street": "Boltzmannstra\u00dfe", "addr:suburb": "Dahlem", "amenity": "library", "building": "yes", "heritage": "4", "heritage:operator": "lda", "heritage:website": "http://www.stadtentwicklung.berlin.de/cgi-bin/hidaweb/getdoc.pl?DOK_TPL=lda_doc.tpl&KEY=obj%2009075310", "image": "http://commons.wikimedia.org/wiki/File:Dahlem_Boltzmannstra%C3%9Fe_Archiv_der_Max-Planck-Gesellschaft.JPG", "lda:criteria": "Baudenkmal", "name": "Archiv der Max-Planck-Gesellschaft", "ref:isil": "DE-B1518", "ref:lda": "09075310", "source": "Geoportal Berlin / k5_2012_sw_sued.zip", "wikipedia": "de:Archiv der Max-Planck-Gesellschaft"}}, {"type": "way", "id": 43041469, "nodes": [539186006, 539186007, 539186010, 3268805173, 539186011, 539186012, 539186013, 539186014, 539186015, 5071731338, 539186016, 9891315487, 1245793332, 1187060124, 9891315486, 9891315485, 1187060180, 9891315482, 9891315484, 9891315483, 9891315481, 1187060098, 9891315476, 9891315477, 9891315478, 9891315475, 1187060084, 9891315479, 9891315480, 1245793344, 1187060089, 5071731339, 1187060100, 539186017, 1187060133, 1187060179, 1187060082, 1187060091, 539186018, 539186019, 539186020, 539186021, 539186022, 539186023, 539186024, 539186003, 539186004, 539186005, 1245793342, 1184076377, 1184076368, 1187060152, 1187060126, 1184076372, 1184076359, 1217725805, 1245793338, 1187060108, 1187060120, 9834150162, 1245793321, 9834150161, 1184076379, 539186006], "tags": {"addr:city": "Berlin", "addr:country": "DE", "addr:housenumber": "1-2", "addr:postcode": "10115", "addr:street": "Hessische Stra\u00dfe", "addr:suburb": "Mitte", "air_conditioning": "no", "amenity": "library", "building": "university", "building:levels": "3", "check_date:opening_hours": "2025-07-18", "contact:phone": "+49 30 20933232", "email": "cano@ub.hu-berlin.de", "fax": "+49 30 209399601", "heritage": "4", "heritage:operator": "lda", "internet_access": "wlan", "internet_access:fee": "no", "name": "Zweigbibliothek Campus Nord", "note": "Zur Nutzung der Garderobenschr\u00e4nke bitte ein Vorh\u00e4ngeschloss mitbringen.", "old_name": "1. Chemisches Institut der Universit\u00e4t Berlin", "opening_hours": "Mo-Fr 09:00-20:00; Sa 11:00-19:00", "operator": "Universit\u00e4tsbibliothek der Humboldt-Universit\u00e4t zu Berlin", "operator:type": "university", "operator:wikidata": "Q1407819", "phone": "+49 30 209399600", "ref:isil": "DE-11-97", "ref:lda": "09011074", "roof:levels": "0", "service:copy": "yes", "website": "https://www.ub.hu-berlin.de/standorte/campus-nord", "wheelchair": "yes"}}, {"type": "way", "id": 43101785, "nodes": [539995433, 4945926912, 4945926913, 2045905056, 244523979, 539995489, 539995507, 539995434, 539995433], "tags": {"building": "civic", "building:levels": "3", "height": "22", "heritage": "4", "heritage:operator": "lda", "lda:criteria": "Baudenkmal", "ref:lda": "09011240"}}, {"type": "way", "id": 43174774, "nodes": [540939123, 1812650811, 1588122188, 540939126, 1588122182, 540939771, 540939815, 1811293389, 540939775, 9954757777, 540939123], "tags": {"access": "yes", "addr:city": "Berlin", "addr:country": "DE", "addr:housenumber": "1/3", "addr:postcode": "10117", "addr:street": "Geschwister-Scholl-Stra\u00dfe", "addr:suburb": "Mitte", "air_conditioning": "yes", "amenity": "library", "architect": "Max Dudler Architekten", "building": "civic", "building:levels": "11", "check_date": "2025-07-28", "check_date:opening_hours": "2025-07-28", "email": "ub.kontakt@ub.hu-berlin.de", "internet_access": "wlan", "internet_access:fee": "no", "name": "Jacob-und-Wilhelm-Grimm-Zentrum", "name:ru": "\u0426\u0435\u043d\u0442\u0440 \u0411\u0440\u0430\u0442\u044c\u0435\u0432 \u0413\u0440\u0438\u043c\u043c", "opening_hours": "Mo-Fr 09:00-24:00, Sa,Su 10:00-22:00", "operator": "Universit\u00e4tsbibliothek der Humboldt-Universit\u00e4t zu Berlin", "operator:type": "university", "operator:wikidata": "Q1407819", "polling_station": "no", "ref:isil": "DE-11", "roof:shape": "flat", "source": "survey", "toilets:wheelchair": "yes", "website": "https://www.grimm-zentrum.hu-berlin.de/", "wheelchair": "yes", "wikidata": "Q1525910", "wikimedia_commons": "Category:Jacob-und-Wilhelm-Grimm-Zentrum (Berlin)", "wikipedia": "de:Jacob-und-Wilhelm-Grimm-Zentrum"}}, {"type": "way", "id": 46767153, "nodes": [597668246, 597668302, 597668249, 597668303, 597668251, 597668250, 597668253, 597668252, 597668247, 597668248, 597668244, 597668245, 597668246], "tags": {"amenity": "library", "building": "education", "name": "Bibliothek", "roof:colour": "grey", "roof:shape": "flat"}}, {"type": "way", "id": 48233792, "nodes": [613001788, 613001787, 613001784, 613001767, 9991372414, 9991372415, 613001768, 9991372413, 613001792, 613001790, 9991372412, 613001788], "tags": {"addr:city": "Berlin", "addr:country": "DE", "addr:housenumber": "125", "addr:postcode": "12629", "addr:street": "Alte Hellersdorfer Stra\u00dfe", "addr:suburb": "Hellersdorf", "amenity": "library", "building": "civic", "building:levels": "1", "name": "Mittelpunktbibliothek \"Ehm Welk\"", "opening_hours": "Mo,Tu,Th 13:00-19:00; We,Fr 11:00-15:00", "phone": "+49 30 9989526", "roof:shape": "flat", "website": "http://www.stb-mh.de/Bibliothek-Ehm-Welk.html", "wikidata": "Q28681447", "wikimedia_commons": "Category:Ehm-Welk-Bibliothek (Berlin)"}}, {"type": "way", "id": 48957837, "nodes": [621170673, 621170674, 621170679, 621170680, 621170673], "tags": {"addr:city": "Berlin", "addr:country": "DE", "addr:housenumber": "33", "addr:postcode": "12359", "addr:street": "Gutschmidtstra\u00dfe", "addr:suburb": "Britz", "amenity": "library", "building": "yes", "check_date:opening_hours": "2022-09-13", "contact:email": "britz-sued@stadtbibliothek-neukoelln.de", "contact:phone": "+49 30 902391223", "contact:website": "https://www.berlin.de/stadtbibliothek-neukoelln/bibliotheken/margarete-kubicka-bibliothek/", "name": "Stadtbibliothek Neuk\u00f6lln - Margarete-Kubicka-Bibliothek", "opening_hours": "Mo-Tu,Fr 13:00-19:00; We off; Th 08:30-16:00", "wheelchair": "limited", "wikidata": "Q125306858"}}, {"type": "way", "id": 48992634, "nodes": [621773858, 2231716774, 2231716764, 5965706611, 621773824, 5965706610, 2231716744, 2231716753, 2231716754, 2231716746, 2231716750, 2231716747, 2231716755, 2231716766, 2231716813, 621773830, 2231716824, 2231716829, 621773865, 2231716842, 2231716839, 2231716846, 621773868, 621773871, 2231716869, 650378319, 621773877, 2231716875, 2231716865, 621773880, 1473374652, 1473372653, 9904395998, 9904395999, 2231716851, 2231716818, 2231716815, 621773861, 621773858], "tags": {"addr:city": "Berlin", "addr:country": "DE", "addr:housenumber": "8-12", "addr:postcode": "12099", "addr:street": "G\u00f6tzstra\u00dfe", "addr:suburb": "Tempelhof", "amenity": "library", "building": "yes", "check_date": "2022-12-23", "image": "https://commons.wikimedia.org/wiki/File:Bezirkszentralbibliothek_Eva-Maria-Buch-Haus_G%C3%B6tzstra%C3%9Fe_Berlin-Tempelhof_04.jpg", "internet_access": "wlan", "internet_access:fee": "no", "name": "Bezirkszentralbibliothek Eva-Maria-Buch-Haus", "opening_hours": "Mo-Sa 10:00-19:00; Su 10:00-17:00", "operator": "Stadt Berlin", "ref:isil": "DE-B713", "website": "https://www.berlin.de/stadtbibliothek-tempelhof-schoeneberg/bibliotheken/bezirkszentralbibliothek/", "wheelchair": "yes", "wikidata": "Q55153703", "wikimedia_commons": "Category:Bezirkszentralbibliothek Eva-Maria-Buch-Haus"}}, {"type": "way", "id": 61907910, "nodes": [3235739580, 3235739562, 3235739530, 3235739528, 3235739532, 3235739583, 3235739580], "tags": {"amenity": "library", "building:part": "yes", "check_date": "2025-07-10", "name": "Manfred-Bofinger-Bibliothek im Gerard Philipe", "opening_hours": "Mo,Th 13:00-19:00; Tu,Fr 11:00-17:00; We,Sa-Su off", "phone": "+49 30 53218166", "website": "https://www.berlin.de/stadtbibliothek-treptow-koepenick/bibliotheken/alt-treptow/", "wheelchair": "yes", "wikidata": "Q125306877"}}, {"type": "way", "id": 77676093, "nodes": [3218955343, 3218958664, 3218958663, 3218958466, 3218955332, 3218955325, 3218957939, 3218895010, 3218957919, 3218935752, 3218935766, 3218935755, 3218935757, 3218957931, 3218895027, 3218958276, 3218955349, 3218958667, 3218958665, 3218955350, 3218958764, 3218955347, 3218955343], "tags": {"addr:city": "Berlin", "addr:country": "DE", "addr:housenumber": "5", "addr:postcode": "14193", "addr:street": "Auerbachstra\u00dfe", "addr:suburb": "Grunewald", "amenity": "library", "blind:description:de": "Berliner Blindenh\u00f6rb\u00fccherei gemeinn\u00fctzige GmbH", "building": "public", "building:levels": "1", "contact:email": "info@berliner-hoerbuecherei.de", "contact:fax": "+49 30 92 37 41 01", "contact:phone": "+49 30 826 31 11", "contact:website": "https://bhb.absv.de/", "name": "Berliner Blindenh\u00f6rb\u00fccherei", "opening_hours": "Mo-Th 09:30-12:30,13:00-15:00; Fr 09:30-12:30", "operator": "Berliner Blindenh\u00f6rb\u00fccherei gemeinn\u00fctzige GmbH", "roof:levels": "1"}}, {"type": "way", "id": 79995213, "nodes": [933555498, 933555431, 933555326, 933555300, 933555498], "tags": {"access": "yes", "addr:city": "Berlin", "addr:country": "DE", "addr:housenumber": "19 B", "addr:postcode": "14163", "addr:street": "Oertzenweg", "addr:suburb": "Zehlendorf", "air_conditioning": "no", "alt_name": "Bibliothek", "alt_name_1": "Haus 6", "amenity": "library", "baby_feeding": "room", "building": "university", "description": "Fachbereich Veterin\u00e4rmedizin", "email": "service.library@vetmed.fu-berlin.de", "name": "Haus 6 (Bibliothek)", "opening_hours": "Mo-Fr 08:00-18:00", "operator": "Freie Universit\u00e4t Berlin", "operator:type": "university", "operator:wikidata": "Q2496344", "phone": "+49 30 838 62636", "ref:isil": "DE-188-846", "start_date": "1998-06-30", "toilets:wheelchair": "yes", "website": "https://www.vetmed.fu-berlin.de/bibliothek", "wheelchair": "yes", "wheelchair:description": "Automatikt\u00fcr am Eingang. Im Haus Aufzug vorhanden."}}, {"type": "way", "id": 102523700, "nodes": [1184087076, 2722616452, 2722616449, 2722616446, 2722616440, 2722616442, 2722616443, 2722616441, 2722616400, 2722616401, 2722616399, 2722616398, 2722616395, 2722616391, 2722616390, 2722616387, 2722616386, 2722616377, 2722616417, 1184086963, 2722616424, 2722616422, 2722616423, 2722616426, 1184087391, 2722616436, 2722616444, 1184087103, 2722616437, 2722616450, 1184087017, 2722616468, 2722616479, 2722616482, 1184087279, 2722616494, 2722616498, 1184087152, 1184087362, 2722616502, 2722616501, 2722616505, 1184086969, 2722616507, 2722616510, 2722616508, 1184087121, 2722616497, 2722616499, 2722616496, 11046875660, 1184087350, 1184087298, 2722616485, 2722616486, 11579175773, 2722616462, 2722616460, 1184087076], "tags": {"addr:city": "Berlin", "addr:country": "DE", "addr:housenumber": "39", "addr:postcode": "13357", "addr:street": "Badstra\u00dfe", "addr:suburb": "Gesundbrunnen", "amenity": "library", "building": "civic", "building:levels": "2", "building:levels:underground": "1", "check_date:opening_hours": "2023-07-04", "email": "luisenbad@stb-mitte.de", "internet_access": "wlan", "name": "Bibliothek am Luisenbad", "name:etymology:wikidata": "Q26821734", "opening_hours": "Mo-Fr 10:00-19:30; Sa 10:00-14:00", "phone": "+49 30 901845610", "ref:isil": "DE-B788", "source": "Geoportal Berlin / Hausumringe", "website": "https://www.berlin.de/stadtbibliothek-mitte/bibliotheken/bibliothek-am-luisenbad/", "wheelchair": "yes", "wheelchair:description": "2 rollstuhlgerechte WCs", "wikidata": "Q23786640", "wikimedia_commons": "Category:Bibliothek am Luisenbad"}}, {"type": "way", "id": 122700497, "nodes": [1370355166, 1370355162, 1370355160, 11246853433, 11246853434, 313529405, 313529406, 1370355157, 13207510076, 1370355164, 1370355166], "tags": {"amenity": "library", "building": "retail", "name": "Stadtteilbibliothek Haselhorst", "opening_hours": "Mo,Th 13:00-19:00; Tu,We,Fr 13:00-17:00"}}, {"type": "way", "id": 139631213, "nodes": [1530424458, 1530424459, 5208882790, 1530424443, 585139605, 5207046313, 1530424425, 1530424452, 1530424454, 1530424464, 540808227, 6331546870, 540808234, 1540418542, 540808267, 1530424458], "tags": {"addr:city": "Berlin", "addr:country": "DE", "addr:housenumber": "2", "addr:postcode": "12555", "addr:street": "Alter Markt", "addr:suburb": "K\u00f6penick", "amenity": "library", "building": "public", "building:levels": "3", "contact:website": "https://www.berlin.de/stadtbibliothek-treptow-koepenick/bibliotheken/mittelpunktbibliothek-koepenick/", "email": "mpb.k@sb-tk.de", "fax": "+49 30 902973435", "name": "Mittelpunktbibliothek", "opening_hours": "Mo,Tu,Th,Fr 10:00-19:00; We 13:00-19:00; Sa 10:00-19:00; PH off", "phone": "+49 30 902973415", "roof:shape": "many", "source": "HiRes aerial imagery;knowledge", "toilets:wheelchair": "yes", "wheelchair": "yes", "wikidata": "Q28650367"}}, {"type": "way", "id": 183011718, "nodes": [8194851371, 1933780458, 1933780464, 8194851370, 8194851371], "tags": {"addr:city": "Berlin", "addr:country": "DE", "addr:housenumber": "55", "addr:postcode": "14195", "addr:street": "Garystra\u00dfe", "addr:suburb": "Dahlem", "amenity": "library", "name": "Bibliothek f\u00fcr Sozialwissenschaften und Osteuropastudien, Leihstelle", "operator": "Freie Universit\u00e4t Berlin", "operator:type": "university", "operator:wikidata": "Q2496344", "wheelchair": "yes"}}, {"type": "way", "id": 194079588, "nodes": [539995493, 539995683, 3219258573, 2045905056, 4945926913, 4945926914, 4945926915, 4945926912, 539995433, 539995490, 539995431, 539995493], "tags": {"building": "civic"}}, {"type": "way", "id": 196622911, "nodes": [2069326483, 437077948, 437077947, 437077944, 2069326483]}, {"type": "way", "id": 196622912, "nodes": [437077964, 437077967, 437077971, 437077975, 437077964]}, {"type": "way", "id": 203286024, "nodes": [2132910698, 2132910695, 2132910694, 2132910697, 2132910698]}, {"type": "way", "id": 240249909, "nodes": [2479901766, 2479901768, 2479901774, 2479901776, 2479901778, 2479901780, 1899865163, 1899865166, 1899865177, 1899865174, 3564660894, 9028736783, 2479901766], "tags": {"addr:city": "Blankenfelde-Mahlow", "addr:housenumber": "4", "addr:postcode": "15831", "addr:street": "Luisenstra\u00dfe", "addr:suburb": "Mahlow", "air_conditioning": "no", "amenity": "library", "building": "yes", "name": "Gemeindebibliothek Blankenfelde-Mahlow", "opening_hours": "Tu,Th 12:00-18:00; We,Fr 09:00-15:00; Sa 09:00-14:00", "website": "https://bibliothek.gb-m.de/", "wheelchair": "yes", "wikidata": "Q28729304"}}, {"type": "way", "id": 312192796, "nodes": [4004564643, 4004564639, 4004564644, 5383104807, 4004564645, 4004564647, 5383104808, 4004564646, 4004564655, 4004564657, 4004564656, 7934149103, 4004564643], "tags": {"building:levels": "1", "building:part": "commercial", "roof:shape": "flat"}}, {"type": "way", "id": 362827350, "nodes": [3670763923, 6221048177, 3670763924, 1270597252, 4254799532, 6221048175, 6221048176, 6221048173, 6221048171, 6221048172, 6221048174, 3670763923], "tags": {"access": "yes", "addr:city": "Berlin", "addr:country": "DE", "addr:housenumber": "149", "addr:postcode": "13353", "addr:street": "M\u00fcllerstra\u00dfe", "addr:suburb": "Wedding", "amenity": "library", "building": "public", "building:levels": "3", "check_date": "2025-10-13", "check_date:opening_hours": "2024-06-11", "internet_access": "wlan", "internet_access:fee": "no", "internet_access:operator": "hotsplots", "name": "Schiller-Bibliothek", "official_name": "Schiller-Bibliothek mit @hugo-Jugendmedienetage", "opening_hours": "Mo-Fr 10:00-19:30; Sa 10:00-14:00; Su 12:00-18:00", "operator": "http://voebb.de", "payment:cash": "yes", "payment:credit_cards": "yes", "payment:debit_cards": "yes", "payment:girocard": "yes", "payment:mastercard": "yes", "payment:visa": "yes", "phone": "+49 30 9018-456 83", "ref:isil": "DE-B718", "toilets:wheelchair": "yes", "website": "http://www.berlin.de/stadtbibliothek-mitte/bibliotheken/schiller-bibliothek-mit-hugojugendmedienetage/", "wheelchair": "yes", "wikidata": "Q23786107", "wikimedia_commons": "Category:Schiller-Bibliothek", "wikipedia": "de:Schiller-Bibliothek"}}, {"type": "way", "id": 381241376, "nodes": [3844742873, 3844742789, 3844742830, 3844742821, 4682876597, 3844742831, 3844742845, 3844742865, 3844742910, 3844742895, 3844742904, 3844742873], "tags": {"addr:city": "Berlin", "addr:country": "DE", "addr:housenumber": "77", "addr:postcode": "10825", "addr:street": "Martin-Luther-Stra\u00dfe", "addr:suburb": "Sch\u00f6neberg", "amenity": "library", "building": "civic", "building:colour": "white", "building:levels": "1", "building:material": "plaster", "contact:fax": "+49 30 902776496", "contact:phone": "+49 30 902776496", "contact:website": "https://www.berlin.de/stadtbibliothek-tempelhof-schoeneberg/bibliotheken/thomas-dehler-bibliothek/", "name": "Thomas-Dehler-Bibliothek", "opening_hours": "Tu-Fr 15:00-19:00; Sa 12:00-14:00", "operator": "Freundeskreis der Thomas-Dehler-Bibliothek e.V.", "operator:type": "private_non_profit", "roof:colour": "grey", "roof:levels": "0", "roof:shape": "flat", "wheelchair": "limited", "wikidata": "Q125306895"}}, {"type": "way", "id": 396710862, "nodes": [1338010608, 1338010586, 1338010587, 1338010584, 1338010589, 3995393974, 3995393975, 9067705446, 3995393987, 3995393986, 1338010600, 1338010603, 1338010617, 1338010608], "tags": {"addr:city": "Berlin", "addr:country": "DE", "addr:housenumber": "1", "addr:postcode": "14163", "addr:street": "Nentersh\u00e4user Platz", "addr:suburb": "Zehlendorf", "amenity": "library", "building": "yes", "contact:email": "stb.zehlendorf@ba-sz.berlin.de", "contact:phone": "+49 30 902 995458", "contact:website": "https://www.berlin.de/stadtbibliothek-steglitz-zehlendorf/bibliotheken/gottfried-benn-bibliothek/", "name": "Gottfried-Benn-Bibliothek", "old_name": "Stadtb\u00fccherei Zehlendorf", "opening_hours": "Mo-Fr 11:00-19:00; Sa 10:00-14:00; Su, PH off", "operator": "Bezirksamt Steglitz-Zehlendorf", "operator:type": "government", "ref:isil": "DE-B712", "toilets:wheelchair": "no", "website": "https://www.berlin.de/stadtbibliothek-steglitz-zehlendorf/bibliotheken/gottfried-benn-bibliothek/", "wheelchair": "limited", "wikidata": "Q28681436"}}, {"type": "way", "id": 412968438, "nodes": [3844321511, 4149567382, 4142893337, 4142893338, 4142893340, 4142893344, 4142893345, 4142893347, 4142893355, 1277489846, 4142893384, 4149568314, 4130552697, 4142901397, 4142901394, 4142901395, 4197563103, 4197563098, 4142893382, 4197563096, 4197563095, 4142893380, 4142893368, 279973215, 3844321511], "tags": {"addr:city": "Berlin", "addr:country": "DE", "addr:postcode": "13353", "addr:street": "Luxemburger Stra\u00dfe", "addr:suburb": "Wedding", "amenity": "library", "check_date:opening_hours": "2025-04-09", "email": "leihfr@bht-berlin.de", "indoor": "room", "internet_access": "wlan", "internet_access:fee": "customers", "level": "0", "name": "Campusbibliothek", "opening_hours": "Mo,We,Fr 10:00-16:00; Tu,Th 10:00-18:00; PH off", "operator": "Berliner Hochschule f\u00fcr Technik", "operator:type": "university", "phone": "+49 30 4504 2507", "ref": "E14", "ref:isil": "DE-B768", "room": "library", "website": "https://www.bht-berlin.de/bibliothek", "wheelchair": "yes"}}, {"type": "way", "id": 556470880, "nodes": [5368024833, 5368024826, 5368024825, 5368024824, 5368024833]}, {"type": "way", "id": 558264104, "nodes": [5383104808, 5383104807, 4004564645, 4004564647, 5383104808], "tags": {"building:part": "roof"}}, {"type": "way", "id": 569067822, "nodes": [2452353508, 5473650730, 538834822, 258496799, 258496793, 12902578769, 538835339, 258496886, 538834823, 2452353512, 11105619824, 2452353510, 2452353508], "tags": {"addr:city": "Berlin", "addr:country": "DE", "addr:housenumber": "1", "addr:postcode": "10178", "addr:street": "Anna-Louisa-Karsch-Stra\u00dfe", "addr:suburb": "Mitte", "amenity": "library", "contact:email": "theol@ub.hu-berlin.de", "contact:phone": "+49 30 2093-91800", "contact:website": "https://www.ub.hu-berlin.de/de/standorte/zwbtheologie", "description": "Zur Nutzung der Garderobenschr\u00e4nke bitte ein Vorh\u00e4ngeschloss mitbringen.", "internet_access": "wlan", "internet_access:fee": "no", "level": "-1;0;1;2;3", "name": "Humboldt-Universit\u00e4t zu Berlin Universit\u00e4tsbibliothek Zweigbibliothek Theologie", "name:en": "Humboldt University of Berlin University Library Theology Branch Library", "opening_hours": "Mo-Fr 09:00-20:00 || Mo-Fr 09:00-18:00 \"in der vorlesungsfreien Zeit\"", "operator": "Universit\u00e4tsbibliothek der Humboldt-Universit\u00e4t zu Berlin", "operator:type": "university", "operator:wikidata": "Q1407819", "ref:isil": "DE-11-133", "service:copy": "yes", "wheelchair": "yes", "wikidata": "Q73146656"}}, {"type": "way", "id": 666408557, "nodes": [6239189542, 2020817487, 2020817489, 2020817495, 2020817507, 2020817508, 2020817506, 2020817505, 2020817504, 290183466, 6239189557, 11025967462, 6239189558, 179667280, 179667306, 179667300, 179667295, 2020817513, 179667291, 2766047103, 290183497, 290183484, 6239189547, 290183485, 2020817514, 2020817515, 6239188170, 11025967461, 6239188169, 2020817518, 2020817517, 290183486, 290183487, 290183488, 6239188160, 2020817520, 129633503, 290183440, 290183460, 6239189572, 290183459, 290183458, 290183457, 290183453, 290183454, 290183461, 290183446, 290183450, 290183443, 6239189548, 290183444, 129633478, 129633467, 2766047390, 2020817499, 2020817500, 2020817486, 179667263, 6239189541, 2020817493, 6239189540, 290183469, 179667262, 290183464, 290183465, 2020817488, 2020817491, 2020817490, 6239189542]}, {"type": "way", "id": 666408558, "nodes": [290183438, 290183439, 6239189579, 2020817516, 129618736, 290183436, 290183435, 290183434, 290183437, 290183438]}, {"type": "way", "id": 666408559, "nodes": [129618715, 2020817498, 6239189569, 290183462, 129618715]}, {"type": "way", "id": 666408560, "nodes": [2020817502, 4532806611, 2020817494, 2020817496, 2020817502]}, {"type": "way", "id": 666408561, "nodes": [2020817511, 179667271, 6239189582, 290183467, 2020817510, 2020817511]}, {"type": "way", "id": 702305713, "nodes": [3180392003, 6595186708, 6595186707, 6595186706, 6595186705, 3180392001, 3180392003], "tags": {"building:levels": "3", "building:part": "commercial", "roof:shape": "flat"}}, {"type": "way", "id": 739645082, "nodes": [1896457591, 1896457590, 1896457588, 6926943762, 6926943760, 6925470473, 6927064907, 6927064906, 6927064904, 6926943765, 6926943763, 6927064903, 6926943764, 6927064905, 356786775, 368026519, 368026518, 368026529, 6925470418, 6925445578, 1504564893, 386589861, 1896457591], "tags": {"addr:city": "Berlin", "addr:country": "DE", "addr:housenumber": "34-38", "addr:postcode": "10243", "addr:street": "Warschauer Stra\u00dfe", "air_conditioning": "no", "amenity": "library", "check_date": "2025-07-01", "contact:facebook": "bildungsforschung.dipf", "contact:instagram": "dipf_aktuell", "contact:mastodon": "@bbf_dipfberlin@eduresearch.social", "contact:phone": "+49 3029336012", "contact:website": "https://bbf.dipf.de", "email": "info@dipf.de", "internet_access": "wlan", "internet_access:fee": "no", "internet_access:ssid": "DIPF-Guest", "level": "1", "mapillary": "797964788270984", "name": "Bibliothek f\u00fcr Bildungsgeschichtliche Forschung", "opening_hours": "Mo-Fr 10:00-18:00", "operator": "Deutsches Institut f\u00fcr Internationale P\u00e4dagogische Forschung (DIPF)", "operator:type": "public", "ref:vatin": "DE114237569", "research_institution": "yes", "short_name": "BBF", "wheelchair": "yes", "wikidata": "Q856552", "wikipedia": "de:Bibliothek f\u00fcr Bildungsgeschichtliche Forschung"}}, {"type": "way", "id": 746618544, "nodes": [2776257503, 9019633138, 275413240, 9019633140, 9019633137, 9019633134, 275413409, 9019587390, 9019633133, 9019587387, 9019633120, 9019633121, 275413429, 9019633122, 9019633126, 9019633127, 9019633132, 2776257503]}, {"type": "way", "id": 850447211, "nodes": [4004564656, 3180392003, 3180392001, 3180391999, 4004564643, 7934149103, 4004564656], "tags": {"building:levels": "1", "building:part": "commercial", "roof:shape": "flat"}}, {"type": "way", "id": 850447212, "nodes": [4004564655, 4004564646, 5383104808, 5383104807, 4004564644, 4004564639, 4004564643, 3180391999, 3180392001, 6595186705, 6595186706, 6595186707, 6595186708, 3180392003, 4004564656, 4004564657, 4004564655], "tags": {"building": "commercial", "building:levels": "3", "roof:shape": "flat"}}, {"type": "way", "id": 854062274, "nodes": [7965013245, 7965013244, 7965013241, 7965013243, 7965013242, 7965013245], "tags": {"amenity": "library", "name": "Schulbibliothek B\u00fccherwagen", "operator": "Anna-Essinger-Gemeinischaftsschule"}}, {"type": "way", "id": 905949659, "nodes": [8413099183, 3598797064, 503973783, 1362773523, 3598797067, 8413099200, 8413099199, 8413099180, 8413099191, 8413099190, 503973787, 8413099189, 8413099201, 8413099183], "tags": {"addr:city": "Berlin", "addr:country": "DE", "addr:housenumber": "9", "addr:postcode": "12439", "addr:street": "Michael-Br\u00fcckner-Stra\u00dfe", "addr:suburb": "Niedersch\u00f6neweide", "amenity": "library", "building:levels": "2", "building:part": "yes", "contact:email": "mpb.t@sb-tk.de", "contact:fax": "+49 30 90297 6804", "contact:phone": "+49 30 90297 6800", "contact:website": "https://www.berlin.de/stadtbibliothek-treptow-koepenick/bibliotheken/mittelpunktbibliothek-treptow/", "name": "Mittelpunktbibliothek Treptow", "opening_hours": "Mo-Tu 10:00-20:00; We 13:00-20:00; Th-Fr 10:00-20:00; Sa 10:00-14:00", "operator": "Verbund der \u00d6ffentlichen Bibliotheken Berlins", "operator:type": "public", "ref:isil": "DE-B459", "source": "Geoportal Berlin / ALKIS Berlin - Geb\u00e4ude", "wheelchair": "yes", "wikidata": "Q28650388", "wikimedia_commons": "Category:Stadtbibliothek Treptow-K\u00f6penick"}}, {"type": "relation", "id": 180594, "members": [{"type": "way", "ref": 38151405, "role": "inner"}, {"type": "way", "ref": 196622911, "role": "inner"}, {"type": "way", "ref": 37408683, "role": "outer"}, {"type": "way", "ref": 38151407, "role": "inner"}, {"type": "way", "ref": 38151409, "role": "inner"}, {"type": "way", "ref": 38151406, "role": "inner"}, {"type": "way", "ref": 196622912, "role": "inner"}, {"type": "way", "ref": 38151408, "role": "inner"}, {"type": "way", "ref": 556470880, "role": "inner"}], "tags": {"addr:city": "Berlin", "addr:country": "DE", "addr:housename": "Haus Unter den Linden", "addr:housenumber": "8", "addr:postcode": "10117", "addr:street": "Unter den Linden", "addr:suburb": "Mitte", "amenity": "library", "architect": "Ernst von Ihne", "architect:wikidata": "Q315281", "branch": "Unter den Linden", "building": "library", "building:architecture": "neobarocco", "building:levels": "4", "changing_table": "yes", "contact:phone": "+49 30 266433888", "contact:website": "https://staatsbibliothek-berlin.de/", "fee": "no", "heritage": "4", "heritage:operator": "lda", "heritage:website": "https://denkmaldatenbank.berlin.de/daobj.php?obj_dok_nr=09095953", "internet_access": "wlan", "internet_access:fee": "customers", "lda:criteria": "Baudenkmal", "name": "Staatsbibliothek zu Berlin", "name:de": "Staatsbibliothek zu Berlin", "name:en": "Berlin State Library", "name:es": "Biblioteca Estatal de Berl\u00edn", "name:fr": "Biblioth\u00e8que d'\u00c9tat de Berlin", "name:he": "\u05e1\u05e4\u05e8\u05d9\u05d9\u05ea \u05d4\u05de\u05d3\u05d9\u05e0\u05d4 \u05d1\u05d1\u05e8\u05dc\u05d9\u05df", "name:ja": "\u30d9\u30eb\u30ea\u30f3\u5dde\u7acb\u56f3\u66f8\u9928", "name:ko": "\ubca0\ub97c\ub9b0 \uc8fc\ub9bd\ub3c4\uc11c\uad00", "name:no": "Statsbiblioteket i Berlin", "name:pl": "Biblioteka Pa\u0144stwowa w Berlinie", "name:ru": "\u0411\u0435\u0440\u043b\u0438\u043d\u0441\u043a\u0430\u044f \u0433\u043e\u0441\u0443\u0434\u0430\u0440\u0441\u0442\u0432\u0435\u043d\u043d\u0430\u044f \u0431\u0438\u0431\u043b\u0438\u043e\u0442\u0435\u043a\u0430", "name:tr": "Berlin Eyalet K\u00fct\u00fcphanesi", "name:zh": "\u67cf\u6797\u56fd\u7acb\u56fe\u4e66\u9986", "opening_hours": "Mo-Sa 08:00-22:00; Su 10:00-18:00", "operator": "Preu\u00dfischer Kulturbesitz", "operator:type": "public", "operator:wikidata": "Q685171", "operator:wikipedia": "de:Stiftung Preu\u00dfischer Kulturbesitz", "ref:isil": "DE-1", "ref:lda": "09095953", "roof:levels": "1", "roof:shape": "many", "short_name": "SBB;Stabi", "start_date": "1661", "toilets": "yes", "toilets:wheelchair": "yes", "type": "multipolygon", "wheelchair": "yes", "wheelchair:url": "https://staatsbibliothek-berlin.de/vor-ort/menschen-mit-behinderung", "wikidata": "Q2324837", "wikimedia_commons": "Category:Staatsbibliothek zu Berlin (Unter den Linden)", "wikipedia": "de:Staatsbibliothek Unter den Linden", "year_of_construction": "1903..1914"}}, {"type": "relation", "id": 2728323, "members": [{"type": "way", "ref": 203286024, "role": "inner"}, {"type": "way", "ref": 26773609, "role": "outer"}], "tags": {"addr:city": "Berlin", "addr:country": "DE", "addr:housename": "Forum 1", "addr:housenumber": "1", "addr:postcode": "13353", "addr:street": "Weststra\u00dfe", "addr:suburb": "Wedding", "amenity": "library", "building": "yes", "internet_access": "wlan", "name": "Charite\u0301 Medizinische Bibliothek Campus Virchow-Klinikum", "opening_hours": "Mo-Fr 09:00-20:00; Sa 09:00-18:00", "ref:isil": "DE-578-3", "type": "multipolygon", "website": "https://bibliothek.charite.de/", "wikidata": "Q28738830"}}, {"type": "relation", "id": 9261463, "members": [{"type": "way", "ref": 666408558, "role": "inner"}, {"type": "way", "ref": 666408557, "role": "outer"}, {"type": "way", "ref": 666408561, "role": "inner"}, {"type": "way", "ref": 666408560, "role": "inner"}, {"type": "way", "ref": 666408559, "role": "inner"}], "tags": {"addr:city": "Berlin", "addr:country": "DE", "addr:housenumber": "33", "addr:postcode": "10785", "addr:street": "Potsdamer Stra\u00dfe", "addr:suburb": "Tiergarten", "amenity": "library", "architect": "Hans Scharoun", "architect:wikidata": "Q57481", "building": "library", "building:architecture": "modern", "building:levels": "12", "check_date": "2025-11-12", "contact:email": "info@sbb.spk-berlin.de", "contact:phone": "+49 30 266433888", "contact:website": "http://staatsbibliothek-berlin.de/", "heritage": "4", "heritage:operator": "lda", "internet_access": "wlan", "internet_access:fee": "customers", "lda:criteria": "Baudenkmal", "name": "Staatsbibliothek zu Berlin", "opening_hours": "Mo-Sa 08:00-22:00; Su 10:00-18:00", "operator": "Stiftung Preu\u00dfischer Kulturbesitz", "operator:type": "public", "ref:isil": "DE-1a", "ref:lda": "09050409", "short_name": "SBB-PK;SBB;Stabi Berlin", "start_date": "1978", "toilets": "yes", "type": "multipolygon", "wheelchair": "limited", "wikidata": "Q1675021", "wikipedia": "de:Staatsbibliothek Potsdamer Stra\u00dfe", "year_of_construction": "1967-1978"}}, {"type": "relation", "id": 11659561, "members": [{"type": "way", "ref": 850447212, "role": "outline"}, {"type": "way", "ref": 312192796, "role": "part"}, {"type": "way", "ref": 850447211, "role": "part"}, {"type": "way", "ref": 702305713, "role": "part"}, {"type": "way", "ref": 558264104, "role": "part"}], "tags": {"amenity": "library", "email": "archiv@ub.hu-berlin.de", "fax": "+49 30 2093-99743", "internet_access": "yes", "internet_access:fee": "no", "name": "Universit\u00e4tsarchiv", "note": "Vereinbarung eines Besuchstermins. Anmeldung vor Ort mit Personalausweis oder Pass und Meldebescheinigung.", "opening_hours": "Mo 09:00-15:00; Tu 11:00-17:00; We 09:00-15:00", "phone": "+49 30 209399742", "type": "building", "website": "https://www.ub.hu-berlin.de/de/standorte/archiv", "wikidata": "Q132560468", "wikimedia_commons": "Category:Universit\u00e4tsarchiv_der_Humboldt_Universit\u00e4t_zu_Berlin_(Berlin-Adlershof)"}}, {"type": "relation", "id": 14584232, "members": [{"type": "way", "ref": 25093069, "role": "outer"}, {"type": "way", "ref": 746618544, "role": "outer"}], "tags": {"addr:city": "Berlin", "addr:country": "DE", "addr:housenumber": "74-100", "addr:postcode": "12249", "addr:street": "Malteserstra\u00dfe", "addr:suburb": "Lankwitz", "alt_name": "Haus O", "amenity": "library", "building": "university", "building:levels": "3;1", "name": "Haus O / Bibliothek", "operator": "Universit\u00e4tsbibliothek der Freien Universit\u00e4t Berlin", "operator:type": "university", "operator:wikidata": "Q2496344", "ref:isil": "DE-188-835", "roof:material": "tar_paper", "roof:shape": "flat", "type": "multipolygon", "wheelchair": "yes"}}, {"type": "relation", "id": 18475778, "members": [{"type": "way", "ref": 194079588, "role": "outer"}, {"type": "way", "ref": 43101785, "role": "outer"}], "tags": {"addr:city": "Berlin", "addr:country": "DE", "addr:housenumber": "30-36", "addr:postcode": "10178", "addr:street": "Breite Stra\u00dfe", "addr:suburb": "Mitte", "air_conditioning": "yes", "amenity": "library", "check_date:opening_hours": "2024-06-08", "contact:website": "https://www.zlb.de/standorte/berliner-stadtbibliothek/", "internet_access": "terminal", "internet_access:fee": "no", "internet_access:operator": "Hotsplots", "name": "Berliner Stadtbibliothek", "opening_hours": "Sa 10:00-19:00; Mo-Fr 10:00-21:00", "operator": "Stiftung Zentral- und Landesbibliothek Berlin", "operator:type": "public", "ref:isil": "DE-109", "toilets:wheelchair": "yes", "type": "multipolygon", "wheelchair": "yes", "wikidata": "Q821763", "wikimedia_commons": "Category:Berliner Stadtbibliothek", "wikipedia": "de:Berliner Stadtbibliothek"}}]}